code,name_kanji,name_kana,name_kana_breakdown,name_kana_notes,name_romaji,prefecture_kanji,prefecture_kana,prefecture_kana_breakdown,prefecture_romaji,latitude,longitude
11002,札幌市,さっぽろし,"さっ,ぽろ,し",,Sapporo Shi,北海道,ほっかいどう,"ほっ,かい,どう",Hokkaido,43.05,141.35
12025,函館市,はこだてし,"はこ,だて,し",,Hakodate Shi,北海道,ほっかいどう,"ほっ,かい,どう",Hokkaido,41.76666667,140.7166667
12033,小樽市,おたるし,"お,たる,し",,Otaru Shi,北海道,ほっかいどう,"ほっ,かい,どう",Hokkaido,43.18333333,140.9833333
12041,旭川市,あさひかわし,"あさひ,かわ,し",,Asahikawa Shi,北海道,ほっかいどう,"ほっ,かい,どう",Hokkaido,43.76666667,142.35
12050,室蘭市,むろらんし,"むろ,らん,し",,Muroran Shi,北海道,ほっかいどう,"ほっ,かい,どう",Hokkaido,42.3,140.9666667
12068,釧路市,くしろし,"くし,ろ,し",,Kushiro Shi,北海道,ほっかいどう,"ほっ,かい,どう",Hokkaido,42.98333333,144.3666667
12076,帯広市,おびひろし,"おび,ひろ,し",,Obihiro Shi,北海道,ほっかいどう,"ほっ,かい,どう",Hokkaido,42.91666667,143.1833333
12084,北見市,きたみし,"きた,み,し",,Kitami Shi,北海道,ほっかいどう,"ほっ,かい,どう",Hokkaido,43.8,143.8833333
12092,夕張市,ゆうばりし,"ゆう,ばり,し",,Yubari Shi,北海道,ほっかいどう,"ほっ,かい,どう",Hokkaido,43.05,141.9666667
12106,岩見沢市,いわみざわし,"いわ,み,ざわ,し",,Iwamizawa Shi,北海道,ほっかいどう,"ほっ,かい,どう",Hokkaido,43.18333333,141.7666667
12114,網走市,あばしりし,"あ,ばしり,し",,Abashiri Shi,北海道,ほっかいどう,"ほっ,かい,どう",Hokkaido,44.01666667,144.2666667
12122,留萌市,るもいし,"る,もい,し",,Rumoi Shi,北海道,ほっかいどう,"ほっ,かい,どう",Hokkaido,43.93333333,141.6333333
12131,苫小牧市,とまこまいし,"とま,こ,まい,し",,Tomakomai Shi,北海道,ほっかいどう,"ほっ,かい,どう",Hokkaido,42.63333333,141.6
12149,稚内市,わっかないし,"わっか,ない,し",,Wakkanai Shi,北海道,ほっかいどう,"ほっ,かい,どう",Hokkaido,45.4,141.6666667
12157,美唄市,びばいし,"び,ばい,し",,Bibai Shi,北海道,ほっかいどう,"ほっ,かい,どう",Hokkaido,43.31666667,141.85
12165,芦別市,あしべつし,"あし,べつ,し",,Ashibetsu Shi,北海道,ほっかいどう,"ほっ,かい,どう",Hokkaido,43.51666667,142.1833333
12173,江別市,えべつし,"え,べつ,し",,Ebetsu Shi,北海道,ほっかいどう,"ほっ,かい,どう",Hokkaido,43.1,141.5333333
12181,赤平市,あかびらし,"あか,びら,し",,Akabira Shi,北海道,ほっかいどう,"ほっ,かい,どう",Hokkaido,43.55,142.0333333
12190,紋別市,もんべつし,"もん,べつ,し",,Monbetsu Shi,北海道,ほっかいどう,"ほっ,かい,どう",Hokkaido,44.35,143.35
12203,士別市,しべつし,"し,べつ,し",,Shibetsu Shi,北海道,ほっかいどう,"ほっ,かい,どう",Hokkaido,44.16666667,142.4
12211,名寄市,なよろし,"な,よろ,し",,Nayoro Shi,北海道,ほっかいどう,"ほっ,かい,どう",Hokkaido,44.35,142.45
12220,三笠市,みかさし,"み,かさ,し",,Mikasa Shi,北海道,ほっかいどう,"ほっ,かい,どう",Hokkaido,43.23333333,141.8666667
12238,根室市,ねむろし,"ね,むろ,し",,Nemuro Shi,北海道,ほっかいどう,"ほっ,かい,どう",Hokkaido,43.31666667,145.5666667
12246,千歳市,ちとせし,"ち,とせ,し",,Chitose Shi,北海道,ほっかいどう,"ほっ,かい,どう",Hokkaido,42.81666667,141.65
12254,滝川市,たきかわし,"たき,かわ,し",,Takikawa Shi,北海道,ほっかいどう,"ほっ,かい,どう",Hokkaido,43.55,141.9
12262,砂川市,すながわし,"すな,がわ,し",,Sunagawa Shi,北海道,ほっかいどう,"ほっ,かい,どう",Hokkaido,43.48333333,141.9
12271,歌志内市,うたしないし,"うた,し,ない,し",,Utashinai Shi,北海道,ほっかいどう,"ほっ,かい,どう",Hokkaido,43.51666667,142.0333333
12289,深川市,ふかがわし,"ふか,がわ,し",,Fukagawa Shi,北海道,ほっかいどう,"ほっ,かい,どう",Hokkaido,43.71666667,142.05
12297,富良野市,ふらのし,"ふ,ら,の,し",,Furano Shi,北海道,ほっかいどう,"ほっ,かい,どう",Hokkaido,43.33333333,142.3833333
12301,登別市,のぼりべつし,"のぼり,べつ,し",,Noboribetsu Shi,北海道,ほっかいどう,"ほっ,かい,どう",Hokkaido,42.4,141.1
12319,恵庭市,えにわし,"え,にわ,し",,Eniwa Shi,北海道,ほっかいどう,"ほっ,かい,どう",Hokkaido,42.86666667,141.5666667
12335,伊達市,だてし,"だ,て,し",,Date Shi,北海道,ほっかいどう,"ほっ,かい,どう",Hokkaido,42.46666667,140.85
12343,北広島市,きたひろしまし,"きた,ひろ,しま,し",,Kitahiroshima Shi,北海道,ほっかいどう,"ほっ,かい,どう",Hokkaido,42.98333333,141.55
12351,石狩市,いしかりし,"いし,かり,し",,Ishikari Shi,北海道,ほっかいどう,"ほっ,かい,どう",Hokkaido,43.16666667,141.3
12360,北斗市,ほくとし,"ほく,と,し",,Hokuto Shi,北海道,ほっかいどう,"ほっ,かい,どう",Hokkaido,41.81666667,140.65
13030,当別町,とうべつちょう,"とう,べつ,ちょう",,Tobetsu Cho,北海道,ほっかいどう,"ほっ,かい,どう",Hokkaido,43.21666667,141.5166667
13048,新篠津村,しんしのつむら,"しん,しの,つ,むら",,Shinshinotsu Mura,北海道,ほっかいどう,"ほっ,かい,どう",Hokkaido,43.21666667,141.6333333
13315,松前町,まつまえちょう,"まつ,まえ,ちょう",,Matsumae Cho,北海道,ほっかいどう,"ほっ,かい,どう",Hokkaido,41.41666667,140.1
13323,福島町,ふくしまちょう,"ふく,しま,ちょう",,Fukushima Cho,北海道,ほっかいどう,"ほっ,かい,どう",Hokkaido,41.48333333,140.25
13331,知内町,しりうちちょう,"しり,うち,ちょう",,Shiriuchi Cho,北海道,ほっかいどう,"ほっ,かい,どう",Hokkaido,41.58333333,140.4166667
13340,木古内町,きこないちょう,"きこ,ない,ちょう,",,Kikonai Cho,北海道,ほっかいどう,"ほっ,かい,どう",Hokkaido,41.66666667,140.4333333
13374,七飯町,ななえちょう,"なな,え,ちょう",,Nanae Cho,北海道,ほっかいどう,"ほっ,かい,どう",Hokkaido,41.88333333,140.6833333
13439,鹿部町,しかべちょう,"しか,べ,ちょう",,Shikabe Cho,北海道,ほっかいどう,"ほっ,かい,どう",Hokkaido,42.03333333,140.8
13455,森町,もりまち,"もり,まち",,Mori Machi,北海道,ほっかいどう,"ほっ,かい,どう",Hokkaido,42.1,140.5666667
13463,八雲町,やくもちょう,"や,くも,ちょう",,Yakumo Cho,北海道,ほっかいどう,"ほっ,かい,どう",Hokkaido,42.25,140.25
13471,長万部町,おしゃまんべちょう,"おしゃ,まん,べ,ちょう",,Oshamanbe Cho,北海道,ほっかいどう,"ほっ,かい,どう",Hokkaido,42.5,140.3666667
13617,江差町,えさしちょう,"え,さし,ちょう",,Esashi Cho,北海道,ほっかいどう,"ほっ,かい,どう",Hokkaido,41.86666667,140.1166667
13625,上ノ国町,かみのくにちょう,"かみ,の,くに,ちょう",,Kaminokuni Cho,北海道,ほっかいどう,"ほっ,かい,どう",Hokkaido,41.8,140.1166667
13633,厚沢部町,あっさぶちょう,"あっ,さ,ぶ,ちょう",,Assabu Cho,北海道,ほっかいどう,"ほっ,かい,どう",Hokkaido,41.91666667,140.2166667
13641,乙部町,おとべちょう,"おと,べ,ちょう",,Otobe Cho,北海道,ほっかいどう,"ほっ,かい,どう",Hokkaido,41.96666667,140.1333333
13676,奥尻町,おくしりちょう,"おく,しり,ちょう",,Okushiri Cho,北海道,ほっかいどう,"ほっ,かい,どう",Hokkaido,42.16666667,139.5
13706,今金町,いまかねちょう,"いま,かね,ちょう",,Imakane Cho,北海道,ほっかいどう,"ほっ,かい,どう",Hokkaido,42.41666667,140
13714,せたな町,せたなちょう,"せたな,ちょう",,Setana Cho,北海道,ほっかいどう,"ほっ,かい,どう",Hokkaido,42.4,139.8666667
13919,島牧村,しままきむら,"しま,まき,むら",,Shimamaki Mura,北海道,ほっかいどう,"ほっ,かい,どう",Hokkaido,42.7,140.05
13927,寿都町,すっつちょう,"すっ,つ,ちょう",,Suttsu Cho,北海道,ほっかいどう,"ほっ,かい,どう",Hokkaido,42.78333333,140.2166667
13935,黒松内町,くろまつないちょう,"くろ,まつ,ない,ちょう",,Kuromatsunai Cho,北海道,ほっかいどう,"ほっ,かい,どう",Hokkaido,42.66666667,140.3
13943,蘭越町,らんこしちょう,"らん,こし,ちょう",,Rankoshi Cho,北海道,ほっかいどう,"ほっ,かい,どう",Hokkaido,42.8,140.5166667
13951,ニセコ町,にせこちょう,"にせこ,ちょう",,Niseko Cho,北海道,ほっかいどう,"ほっ,かい,どう",Hokkaido,42.8,140.6833333
13960,真狩村,まっかりむら,"まっ,かり,むら",,Makkari Mura,北海道,ほっかいどう,"ほっ,かい,どう",Hokkaido,42.75,140.8
13978,留寿都村,るすつむら,"る,す,つ,むら",,Rusutsu Mura,北海道,ほっかいどう,"ほっ,かい,どう",Hokkaido,42.73333333,140.8666667
13986,喜茂別町,きもべつちょう,"き,も,べつ,ちょう",,Kimobetsu Cho,北海道,ほっかいどう,"ほっ,かい,どう",Hokkaido,42.78333333,140.9333333
13994,京極町,きょうごくちょう,"きょう,ごく,ちょう",,Kyogoku Cho,北海道,ほっかいどう,"ほっ,かい,どう",Hokkaido,42.85,140.8833333
14001,倶知安町,くっちゃんちょう,"くっ,ちゃん,ちょう",,Kutchan Cho,北海道,ほっかいどう,"ほっ,かい,どう",Hokkaido,42.9,140.75
14010,共和町,きょうわちょう,"きょう,わ,ちょう",,Kyowa Cho,北海道,ほっかいどう,"ほっ,かい,どう",Hokkaido,42.96666667,140.6
14028,岩内町,いわないちょう,"いわ,ない,ちょう",,Iwanai Cho,北海道,ほっかいどう,"ほっ,かい,どう",Hokkaido,42.96666667,140.5
14036,泊村,とまりむら,"とまり,むら",,Tomari Mura,北海道,ほっかいどう,"ほっ,かい,どう",Hokkaido,43.05,140.4833333
14044,神恵内村,かもえないむら,"か,もえ,ない,むら",,Kamoenai Mura,北海道,ほっかいどう,"ほっ,かい,どう",Hokkaido,43.13333333,140.4166667
14052,積丹町,しゃこたんちょう,"しゃこ,たん,ちょう",,Shakotan Cho,北海道,ほっかいどう,"ほっ,かい,どう",Hokkaido,43.28333333,140.5833333
14061,古平町,ふるびらちょう,"ふる,びら,ちょう",,Furubira Cho,北海道,ほっかいどう,"ほっ,かい,どう",Hokkaido,43.25,140.6333333
14079,仁木町,にきちょう,"にき,ちょう",,Niki Cho,北海道,ほっかいどう,"ほっ,かい,どう",Hokkaido,43.15,140.75
14087,余市町,よいちちょう,"よ,いち,ちょう",,Yoichi Cho,北海道,ほっかいどう,"ほっ,かい,どう",Hokkaido,43.18333333,140.7833333
14095,赤井川村,あかいがわむら,"あか,い,がわ,むら",,Akaigawa Mura,北海道,ほっかいどう,"ほっ,かい,どう",Hokkaido,43.08333333,140.8
14231,南幌町,なんぽろちょう,"なん,ぽろ,ちょう",,Nanporo Cho,北海道,ほっかいどう,"ほっ,かい,どう",Hokkaido,43.05,141.65
14249,奈井江町,ないえちょう,"な,い,え,ちょう",,Naie Cho,北海道,ほっかいどう,"ほっ,かい,どう",Hokkaido,43.41666667,141.8666667
14257,上砂川町,かみすながわちょう,"かみ,すな,がわ,ちょう",,Kamisunagawa Cho,北海道,ほっかいどう,"ほっ,かい,どう",Hokkaido,43.46666667,141.9666667
14273,由仁町,ゆにちょう,"ゆ,に,ちょう",,Yuni Cho,北海道,ほっかいどう,"ほっ,かい,どう",Hokkaido,42.98333333,141.7833333
14281,長沼町,ながぬまちょう,"なが,ぬま,ちょう",,Naganuma Cho,北海道,ほっかいどう,"ほっ,かい,どう",Hokkaido,43,141.6833333
14290,栗山町,くりやまちょう,"くり,やま,ちょう",,Kuriyama Cho,北海道,ほっかいどう,"ほっ,かい,どう",Hokkaido,43.05,141.7833333
14303,月形町,つきがたちょう,"つき,がた,ちょう",,Tsukigata Cho,北海道,ほっかいどう,"ほっ,かい,どう",Hokkaido,43.33333333,141.6666667
14311,浦臼町,うらうすちょう,"うら,うす,ちょう",,Urausu Cho,北海道,ほっかいどう,"ほっ,かい,どう",Hokkaido,43.41666667,141.8166667
14320,新十津川町,しんとつかわちょう,"しん,と,つ,かわ,ちょう",,Shintotsukawa Cho,北海道,ほっかいどう,"ほっ,かい,どう",Hokkaido,43.53333333,141.8666667
14338,妹背牛町,もせうしちょう,"も,せ,うし,ちょう",,Moseushi Cho,北海道,ほっかいどう,"ほっ,かい,どう",Hokkaido,43.7,141.95
14346,秩父別町,ちっぷべつちょう,"ちっ,ぷ,べつ,ちょう",,Chippubetsu Cho,北海道,ほっかいどう,"ほっ,かい,どう",Hokkaido,43.76666667,141.95
14362,雨竜町,うりゅうちょう,"う,りゅう,ちょう",,Uryu Cho,北海道,ほっかいどう,"ほっ,かい,どう",Hokkaido,43.63333333,141.8833333
14371,北竜町,ほくりゅうちょう,"ほく,りゅう,ちょう",,Hokuryu Cho,北海道,ほっかいどう,"ほっ,かい,どう",Hokkaido,43.71666667,141.8666667
14389,沼田町,ぬまたちょう,"ぬま,た,ちょう",,Numata Cho,北海道,ほっかいどう,"ほっ,かい,どう",Hokkaido,43.8,141.9333333
14524,鷹栖町,たかすちょう,"たか,す,ちょう",,Takasu Cho,北海道,ほっかいどう,"ほっ,かい,どう",Hokkaido,43.83333333,142.35
14532,東神楽町,ひがしかぐらちょう,"ひがし,かぐ,ら,ちょう",,Higashikagura Cho,北海道,ほっかいどう,"ほっ,かい,どう",Hokkaido,43.68333333,142.45
14541,当麻町,とうまちょう,"とう,ま,ちょう",,Toma Cho,北海道,ほっかいどう,"ほっ,かい,どう",Hokkaido,43.81666667,142.5
14559,比布町,ぴっぷちょう,"ぴっ,ぷ,ちょう",,Pippu Cho,北海道,ほっかいどう,"ほっ,かい,どう",Hokkaido,43.86666667,142.4666667
14567,愛別町,あいべつちょう,"あい,べつ,ちょう",,Aibetsu Cho,北海道,ほっかいどう,"ほっ,かい,どう",Hokkaido,43.9,142.5666667
14575,上川町,かみかわちょう,"かみ,かわ,ちょう",,Kamikawa Cho,北海道,ほっかいどう,"ほっ,かい,どう",Hokkaido,43.83333333,142.7666667
14583,東川町,ひがしかわちょう,"ひがし,かわ,ちょう",,Higashikawa Cho,北海道,ほっかいどう,"ほっ,かい,どう",Hokkaido,43.68333333,142.5
14591,美瑛町,びえいちょう,"び,えい,ちょう",,Biei Cho,北海道,ほっかいどう,"ほっ,かい,どう",Hokkaido,43.58333333,142.4666667
14605,上富良野町,かみふらのちょう,"かみ,ふ,ら,の,ちょう",,Kamifurano Cho,北海道,ほっかいどう,"ほっ,かい,どう",Hokkaido,43.45,142.4666667
14613,中富良野町,なかふらのちょう,"なか,ふ,ら,の,ちょう",,Nakafurano Cho,北海道,ほっかいどう,"ほっ,かい,どう",Hokkaido,43.4,142.4166667
14621,南富良野町,みなみふらのちょう,"みなみ,ふ,ら,の,ちょう",,Minamifurano Cho,北海道,ほっかいどう,"ほっ,かい,どう",Hokkaido,43.15,142.5666667
14630,占冠村,しむかっぷむら,"しむ,かっぷ,むら",,Shimukappu Mura,北海道,ほっかいどう,"ほっ,かい,どう",Hokkaido,42.96666667,142.3833333
14648,和寒町,わっさむちょう,"わっ,さむ,ちょう",,Wassamu Cho,北海道,ほっかいどう,"ほっ,かい,どう",Hokkaido,44.01666667,142.4
14656,剣淵町,けんぶちちょう,"けん,ぶち,ちょう",,Kenbuchi Cho,北海道,ほっかいどう,"ほっ,かい,どう",Hokkaido,44.08333333,142.35
14681,下川町,しもかわちょう,"しも,かわ,ちょう",,Shimokawa Cho,北海道,ほっかいどう,"ほっ,かい,どう",Hokkaido,44.3,142.6333333
14699,美深町,びふかちょう,"び,ふか,ちょう",,Bifuka Cho,北海道,ほっかいどう,"ほっ,かい,どう",Hokkaido,44.46666667,142.3333333
14702,音威子府村,おといねっぷむら,"おと,い,ねっ,ぷ,むら",,Otoineppu Mura,北海道,ほっかいどう,"ほっ,かい,どう",Hokkaido,44.71666667,142.25
14711,中川町,なかがわちょう,"なか,がわ,ちょう",,Nakagawa Cho,北海道,ほっかいどう,"ほっ,かい,どう",Hokkaido,44.8,142.0666667
14729,幌加内町,ほろかないちょう,"ほろ,か,ない,ちょう",,Horokanai Cho,北海道,ほっかいどう,"ほっ,かい,どう",Hokkaido,44,142.15
14818,増毛町,ましけちょう,"まし,け,ちょう",,Mashike Cho,北海道,ほっかいどう,"ほっ,かい,どう",Hokkaido,43.85,141.5166667
14826,小平町,おびらちょう,"お,びら,ちょう",,Obira Cho,北海道,ほっかいどう,"ほっ,かい,どう",Hokkaido,44,141.65
14834,苫前町,とままえちょう,"とま,まえ,ちょう",,Tomamae Cho,北海道,ほっかいどう,"ほっ,かい,どう",Hokkaido,44.3,141.65
14842,羽幌町,はぼろちょう,"は,ぼろ,ちょう",,Haboro Cho,北海道,ほっかいどう,"ほっ,かい,どう",Hokkaido,44.35,141.6833333
14851,初山別村,しょさんべつむら,"しょ,さん,べつ,むら",,Shosanbetsu Mura,北海道,ほっかいどう,"ほっ,かい,どう",Hokkaido,44.51666667,141.75
14869,遠別町,えんべつちょう,"えん,べつ,ちょう",,Enbetsu Cho,北海道,ほっかいどう,"ほっ,かい,どう",Hokkaido,44.71666667,141.7833333
14877,天塩町,てしおちょう,"て,しお,ちょう",,Teshio Cho,北海道,ほっかいどう,"ほっ,かい,どう",Hokkaido,44.88333333,141.7333333
15113,猿払村,さるふつむら,"さる,ふつ,むら",,Sarufutsu Mura,北海道,ほっかいどう,"ほっ,かい,どう",Hokkaido,45.31666667,142.1
15121,浜頓別町,はまとんべつちょう,"はま,とん,べつ,ちょう",,Hamatonbetsu Cho,北海道,ほっかいどう,"ほっ,かい,どう",Hokkaido,45.11666667,142.35
15130,中頓別町,なかとんべつちょう,"なか,とん,べつ,ちょう",,Nakatonbetsu Cho,北海道,ほっかいどう,"ほっ,かい,どう",Hokkaido,44.96666667,142.2833333
15148,枝幸町,えさしちょう,"え,さし,ちょう",,Esashi Cho,北海道,ほっかいどう,"ほっ,かい,どう",Hokkaido,44.93333333,142.5666667
15164,豊富町,とよとみちょう,"とよ,とみ,ちょう",,Toyotomi Cho,北海道,ほっかいどう,"ほっ,かい,どう",Hokkaido,45.1,141.7666667
15172,礼文町,れぶんちょう,"れ,ぶん,ちょう",,Rebun Cho,北海道,ほっかいどう,"ほっ,かい,どう",Hokkaido,45.3,141.0333333
15181,利尻町,りしりちょう,"り,しり,ちょう",,Rishiri Cho,北海道,ほっかいどう,"ほっ,かい,どう",Hokkaido,45.18333333,141.1333333
15199,利尻富士町,りしりふじちょう,"り,しり,ふ,じ,ちょう",,Rishirifuji Cho,北海道,ほっかいどう,"ほっ,かい,どう",Hokkaido,45.23333333,141.2
15202,幌延町,ほろのべちょう,"ほろ,のべ,ちょう",,Horonobe Cho,北海道,ほっかいどう,"ほっ,かい,どう",Hokkaido,45.01666667,141.8333333
15431,美幌町,びほろちょう,"び,ほろ,ちょう",,Bihoro Cho,北海道,ほっかいどう,"ほっ,かい,どう",Hokkaido,43.81666667,144.1
15440,津別町,つべつちょう,"つ,べつ,ちょう",,Tsubetsu Cho,北海道,ほっかいどう,"ほっ,かい,どう",Hokkaido,43.7,144.0166667
15458,斜里町,しゃりちょう,"しゃ,り,ちょう",,Shari Cho,北海道,ほっかいどう,"ほっ,かい,どう",Hokkaido,43.9,144.6666667
15466,清里町,きよさとちょう,"きよ,さと,ちょう",,Kiyosato Cho,北海道,ほっかいどう,"ほっ,かい,どう",Hokkaido,43.83333333,144.5833333
15474,小清水町,こしみずちょう,"こ,し,みず,ちょう",,Koshimizu Cho,北海道,ほっかいどう,"ほっ,かい,どう",Hokkaido,43.85,144.45
15491,訓子府町,くんねっぷちょう,"くん,ねっ,ぷ,ちょう",,Kunneppu Cho,北海道,ほっかいどう,"ほっ,かい,どう",Hokkaido,43.71666667,143.7333333
15504,置戸町,おけとちょう,"おけ,と,ちょう",,Oketo Cho,北海道,ほっかいどう,"ほっ,かい,どう",Hokkaido,43.66666667,143.5833333
15521,佐呂間町,さろまちょう,"さ,ろ,ま,ちょう",,Saroma Cho,北海道,ほっかいどう,"ほっ,かい,どう",Hokkaido,44.01666667,143.7666667
15555,遠軽町,えんがるちょう,"えん,がる,ちょう",,Engaru Cho,北海道,ほっかいどう,"ほっ,かい,どう",Hokkaido,44.05,143.5166667
15598,湧別町,ゆうべつちょう,"ゆう,べつ,ちょう",,Yubetsu Cho,北海道,ほっかいどう,"ほっ,かい,どう",Hokkaido,44.21666667,143.6
15601,滝上町,たきのうえちょう,"たきの,うえ,ちょう",,Takinoue Cho,北海道,ほっかいどう,"ほっ,かい,どう",Hokkaido,44.18333333,143.0666667
15610,興部町,おこっぺちょう,"おこっ,ぺ,ちょう",,Okoppe Cho,北海道,ほっかいどう,"ほっ,かい,どう",Hokkaido,44.46666667,143.1166667
15628,西興部村,にしおこっぺむら,"にし,おこっ,ぺ,むら",,Nishiokoppe Mura,北海道,ほっかいどう,"ほっ,かい,どう",Hokkaido,44.31666667,142.9333333
15636,雄武町,おうむちょう,"おう,む,ちょう",,Omu Cho,北海道,ほっかいどう,"ほっ,かい,どう",Hokkaido,44.56666667,142.95
15644,大空町,おおぞらちょう,"おお,ぞら,ちょう",,Ozora Cho,北海道,ほっかいどう,"ほっ,かい,どう",Hokkaido,43.9,144.1666667
15717,豊浦町,とようらちょう,"とよ,うら,ちょう",,Toyoura Cho,北海道,ほっかいどう,"ほっ,かい,どう",Hokkaido,42.58333333,140.7
15750,壮瞥町,そうべつちょう,"そう,べつ,ちょう",,Sobetsu Cho,北海道,ほっかいどう,"ほっ,かい,どう",Hokkaido,42.55,140.8833333
15784,白老町,しらおいちょう,"しら,おい,ちょう",,Shiraoi Cho,北海道,ほっかいどう,"ほっ,かい,どう",Hokkaido,42.55,141.35
15814,厚真町,あつまちょう,"あつ,ま,ちょう",,Atsuma Cho,北海道,ほっかいどう,"ほっ,かい,どう",Hokkaido,42.71666667,141.8666667
15849,洞爺湖町,とうやこちょう,"とう,や,こ,ちょう",,Toyako Cho,北海道,ほっかいどう,"ほっ,かい,どう",Hokkaido,42.55,140.75
15857,安平町,あびらちょう,"あ,びら,ちょう",,Abira Cho,北海道,ほっかいどう,"ほっ,かい,どう",Hokkaido,42.75,141.8166667
15865,むかわ町,むかわちょう,"むかわ,ちょう",,Mukawa Cho,北海道,ほっかいどう,"ほっ,かい,どう",Hokkaido,42.56666667,141.9166667
16012,日高町,ひだかちょう,"ひ,だか,ちょう",,Hidaka Cho,北海道,ほっかいどう,"ほっ,かい,どう",Hokkaido,42.46666667,142.0666667
16021,平取町,びらとりちょう,"びら,とり,ちょう",,Biratori Cho,北海道,ほっかいどう,"ほっ,かい,どう",Hokkaido,42.58333333,142.1166667
16047,新冠町,にいかっぷちょう,"にい,かっぷ,ちょう",,Niikappu Cho,北海道,ほっかいどう,"ほっ,かい,どう",Hokkaido,42.35,142.3166667
16071,浦河町,うらかわちょう,"うら,かわ,ちょう",,Urakawa Cho,北海道,ほっかいどう,"ほっ,かい,どう",Hokkaido,42.16666667,142.7666667
16080,様似町,さまにちょう,"さま,に,ちょう",,Samani Cho,北海道,ほっかいどう,"ほっ,かい,どう",Hokkaido,42.11666667,142.9333333
16098,えりも町,えりもちょう,"えりも,ちょう",,Erimo Cho,北海道,ほっかいどう,"ほっ,かい,どう",Hokkaido,42,143.1333333
16101,新ひだか町,しんひだかちょう,"しん,ひだか,ちょう",,Shinhidaka Cho,北海道,ほっかいどう,"ほっ,かい,どう",Hokkaido,42.33333333,142.3666667
16314,音更町,おとふけちょう,"おと,ふけ,ちょう",,Otofuke Cho,北海道,ほっかいどう,"ほっ,かい,どう",Hokkaido,42.98333333,143.1833333
16322,士幌町,しほろちょう,"し,ほろ,ちょう",,Shihoro Cho,北海道,ほっかいどう,"ほっ,かい,どう",Hokkaido,43.16666667,143.2333333
16331,上士幌町,かみしほろちょう,"かみ,し,ほろ,ちょう",,Kamishihoro Cho,北海道,ほっかいどう,"ほっ,かい,どう",Hokkaido,43.21666667,143.2833333
16349,鹿追町,しかおいちょう,"しか,おい,ちょう",,Shikaoi Cho,北海道,ほっかいどう,"ほっ,かい,どう",Hokkaido,43.08333333,142.9833333
16357,新得町,しんとくちょう,"しん,とく,ちょう",,Shintoku Cho,北海道,ほっかいどう,"ほっ,かい,どう",Hokkaido,43.06666667,142.8333333
16365,清水町,しみずちょう,"し,みず,ちょう",,Shimizu Cho,北海道,ほっかいどう,"ほっ,かい,どう",Hokkaido,43,142.8833333
16373,芽室町,めむろちょう,"め,むろ,ちょう",,Memuro Cho,北海道,ほっかいどう,"ほっ,かい,どう",Hokkaido,42.9,143.05
16381,中札内村,なかさつないむら,"なか,さつ,ない,むら",,Nakasatsunai Mura,北海道,ほっかいどう,"ほっ,かい,どう",Hokkaido,42.68333333,143.1166667
16390,更別村,さらべつむら,"さら,べつ,むら",,Sarabetsu Mura,北海道,ほっかいどう,"ほっ,かい,どう",Hokkaido,42.65,143.1833333
16411,大樹町,たいきちょう,"たい,き,ちょう",,Taiki Cho,北海道,ほっかいどう,"ほっ,かい,どう",Hokkaido,42.48333333,143.2666667
16420,広尾町,ひろおちょう,"ひろ,お,ちょう",,Hiroo Cho,北海道,ほっかいどう,"ほっ,かい,どう",Hokkaido,42.28333333,143.3
16438,幕別町,まくべつちょう,"まく,べつ,ちょう",,Makubetsu Cho,北海道,ほっかいどう,"ほっ,かい,どう",Hokkaido,42.9,143.35
16446,池田町,いけだちょう,"いけ,だ,ちょう",,Ikeda Cho,北海道,ほっかいどう,"ほっ,かい,どう",Hokkaido,42.91666667,143.4333333
16454,豊頃町,とよころちょう,"とよ,ころ,ちょう",,Toyokoro Cho,北海道,ほっかいどう,"ほっ,かい,どう",Hokkaido,42.8,143.5
16462,本別町,ほんべつちょう,"ほん,べつ,ちょう",,Honbetsu Cho,北海道,ほっかいどう,"ほっ,かい,どう",Hokkaido,43.11666667,143.6
16471,足寄町,あしょろちょう,"あしょ,ろ,ちょう",Irregular reading: 足寄 (あしょろ) is a blend between 足 (あし)  and 寄 (よろ),Ashoro Cho,北海道,ほっかいどう,"ほっ,かい,どう",Hokkaido,43.23333333,143.55
16489,陸別町,りくべつちょう,"りく,べつ,ちょう",,Rikubetsu Cho,北海道,ほっかいどう,"ほっ,かい,どう",Hokkaido,43.46666667,143.7333333
16497,浦幌町,うらほろちょう,"うら,ほろ,ちょう",,Urahoro Cho,北海道,ほっかいどう,"ほっ,かい,どう",Hokkaido,42.8,143.65
16616,釧路町,くしろちょう,"くし,ろ,ちょう",,Kushiro Cho,北海道,ほっかいどう,"ほっ,かい,どう",Hokkaido,42.98333333,144.45
16624,厚岸町,あっけしちょう,"あっけ,し,ちょう",,Akkeshi Cho,北海道,ほっかいどう,"ほっ,かい,どう",Hokkaido,43.05,144.8333333
16632,浜中町,はまなかちょう,"はま,なか,ちょう",,Hamanaka Cho,北海道,ほっかいどう,"ほっ,かい,どう",Hokkaido,43.06666667,145.1166667
16641,標茶町,しべちゃちょう,"しべ,ちゃ,ちょう",,Shibecha Cho,北海道,ほっかいどう,"ほっ,かい,どう",Hokkaido,43.3,144.6
16659,弟子屈町,てしかがちょう,"て,し,かが,ちょう",,Teshikaga Cho,北海道,ほっかいどう,"ほっ,かい,どう",Hokkaido,43.48333333,144.45
16675,鶴居村,つるいむら,"つる,い,むら",,Tsurui Mura,北海道,ほっかいどう,"ほっ,かい,どう",Hokkaido,43.21666667,144.3166667
16683,白糠町,しらぬかちょう,"しら,ぬか,ちょう",,Shiranuka Cho,北海道,ほっかいどう,"ほっ,かい,どう",Hokkaido,42.95,144.0666667
16918,別海町,べつかいちょう,"べつ,かい,ちょう",,Betsukai Cho,北海道,ほっかいどう,"ほっ,かい,どう",Hokkaido,43.38333333,145.1166667
16926,中標津町,なかしべつちょう,"なか,しべ,つ,ちょう",,Nakashibetsu Cho,北海道,ほっかいどう,"ほっ,かい,どう",Hokkaido,43.55,144.9666667
16934,標津町,しべつちょう,"しべ,つ,ちょう",,Shibetsu Cho,北海道,ほっかいどう,"ほっ,かい,どう",Hokkaido,43.65,145.1166667
16942,羅臼町,らうすちょう,"ら,うす,ちょう",,Rausu Cho,北海道,ほっかいどう,"ほっ,かい,どう",Hokkaido,44.01666667,145.1833333
22012,青森市,あおもりし,"あお,もり,し",,Aomori Shi,青森県,あおもりけん,"あお,もり,けん",Aomori Ken,40.81666667,140.7333333
22021,弘前市,ひろさきし,"ひろ,さき,し",,Hirosaki Shi,青森県,あおもりけん,"あお,もり,けん",Aomori Ken,40.6,140.45
22039,八戸市,はちのへし,"はちの,へ,し","Hidden particle (の): はち,の,へ,し",Hachinohe Shi,青森県,あおもりけん,"あお,もり,けん",Aomori Ken,40.5,141.4833333
22047,黒石市,くろいしし,"くろ,いし,し",,Kuroishi Shi,青森県,あおもりけん,"あお,もり,けん",Aomori Ken,40.63333333,140.5833333
22055,五所川原市,ごしょがわらし,"ご,しょ,がわ,ら,し",,Goshogawara Shi,青森県,あおもりけん,"あお,もり,けん",Aomori Ken,40.8,140.4333333
22063,十和田市,とわだし,"と,わ,だ,し",,Towada Shi,青森県,あおもりけん,"あお,もり,けん",Aomori Ken,40.6,141.2
22071,三沢市,みさわし,"み,さわ,し",,Misawa Shi,青森県,あおもりけん,"あお,もり,けん",Aomori Ken,40.68333333,141.3666667
22080,むつ市,むつし,"むつ,し",,Mutsu Shi,青森県,あおもりけん,"あお,もり,けん",Aomori Ken,41.28333333,141.1833333
22098,つがる市,つがるし,"つがる,し",,Tsugaru Shi,青森県,あおもりけん,"あお,もり,けん",Aomori Ken,40.8,140.3666667
22101,平川市,ひらかわし,"ひら,かわ,し",,Hirakawa Shi,青森県,あおもりけん,"あお,もり,けん",Aomori Ken,40.58333333,140.55
23019,平内町,ひらないまち,"ひら,ない,まち",,Hiranai Machi,青森県,あおもりけん,"あお,もり,けん",Aomori Ken,40.91666667,140.95
23035,今別町,いまべつまち,"いま,べつ,まち",,Imabetsu Machi,青森県,あおもりけん,"あお,もり,けん",Aomori Ken,41.16666667,140.4666667
23043,蓬田村,よもぎたむら,"よもぎ,た,むら",,Yomogita Mura,青森県,あおもりけん,"あお,もり,けん",Aomori Ken,40.96666667,140.65
23078,外ヶ浜町,そとがはままち,"そと,が,はま,まち",,Sotogahama Machi,青森県,あおもりけん,"あお,もり,けん",Aomori Ken,41.03333333,140.6166667
23213,鰺ヶ沢町,あじがさわまち,"あじ,が,さわ,まち",,Ajigasawa Machi,青森県,あおもりけん,"あお,もり,けん",Aomori Ken,40.779917,140.208667
23230,深浦町,ふかうらまち,"ふか,うら,まち",,Fukaura Machi,青森県,あおもりけん,"あお,もり,けん",Aomori Ken,40.63333333,139.9166667
23434,西目屋村,にしめやむら,"にし,め,や,むら",,Nishimeya Mura,青森県,あおもりけん,"あお,もり,けん",Aomori Ken,40.56666667,140.2833333
23612,藤崎町,ふじさきまち,"ふじ,さき,まち",,Fujisaki Machi,青森県,あおもりけん,"あお,もり,けん",Aomori Ken,40.65,140.5
23621,大鰐町,おおわにまち,"おお,わに,まち",,Owani Machi,青森県,あおもりけん,"あお,もり,けん",Aomori Ken,40.51666667,140.5666667
23671,田舎館村,いなかだてむら,"いな,か,だて,むら",,Inakadate Mura,青森県,あおもりけん,"あお,もり,けん",Aomori Ken,40.61666667,140.55
23817,板柳町,いたやなぎまち,"いた,やなぎ,まち",,Itayanagi Machi,青森県,あおもりけん,"あお,もり,けん",Aomori Ken,40.68333333,140.45
23841,鶴田町,つるたまち,"つる,た,まち",,Tsuruta Machi,青森県,あおもりけん,"あお,もり,けん",Aomori Ken,40.75,140.4166667
23876,中泊町,なかどまりまち,"なか,どまり,まち",,Nakadomari Machi,青森県,あおもりけん,"あお,もり,けん",Aomori Ken,40.95,140.4333333
24015,野辺地町,のへじまち,"の,へ,じ,まち",,Noheji Machi,青森県,あおもりけん,"あお,もり,けん",Aomori Ken,40.85,141.1166667
24023,七戸町,しちのへまち,"しちの,へ,まち","Hidden particle (の): しち,の,へ,まち",Shichinohe Machi,青森県,あおもりけん,"あお,もり,けん",Aomori Ken,40.73333333,141.15
24058,六戸町,ろくのへまち,"ろくの,へ,まち","Hidden particle (の): ろく,の,へ,まち",Rokunohe Machi,青森県,あおもりけん,"あお,もり,けん",Aomori Ken,40.6,141.3166667
24066,横浜町,よこはままち,"よこ,はま,まち",,Yokohama Machi,青森県,あおもりけん,"あお,もり,けん",Aomori Ken,41.08333333,141.2333333
24082,東北町,とうほくまち,"とう,ほく,まち",,Tohoku Machi,青森県,あおもりけん,"あお,もり,けん",Aomori Ken,40.71666667,141.25
24112,六ヶ所村,ろっかしょむら,"ろっ,か,しょ,むら",,Rokkasho Mura,青森県,あおもりけん,"あお,もり,けん",Aomori Ken,40.96666667,141.3666667
24121,おいらせ町,おいらせちょう,"おいらせ,ちょう",,Oirase Cho,青森県,あおもりけん,"あお,もり,けん",Aomori Ken,40.58333333,141.3833333
24236,大間町,おおままち,"おお,ま,まち",,Oma Machi,青森県,あおもりけん,"あお,もり,けん",Aomori Ken,41.51666667,140.9
24244,東通村,ひがしどおりむら,"ひがし,どおり,むら",,Higashidori Mura,青森県,あおもりけん,"あお,もり,けん",Aomori Ken,41.26666667,141.3166667
24252,風間浦村,かざまうらむら,"かざ,ま,うら,むら",,Kazamaura Mura,青森県,あおもりけん,"あお,もり,けん",Aomori Ken,41.48333333,140.9833333
24261,佐井村,さいむら,"さ,い,むら",,Sai Mura,青森県,あおもりけん,"あお,もり,けん",Aomori Ken,41.41666667,140.85
24414,三戸町,さんのへまち,"さんの,へ,まち","Hidden particle (の): さん,の,へ,まち",Sannohe Machi,青森県,あおもりけん,"あお,もり,けん",Aomori Ken,40.36666667,141.25
24422,五戸町,ごのへまち,"ごの,へ,まち","Hidden particle (の): ご,の,へ,まち",Gonohe Machi,青森県,あおもりけん,"あお,もり,けん",Aomori Ken,40.51666667,141.3
24431,田子町,たっこまち,"たっ,こ,まち",,Takko Machi,青森県,あおもりけん,"あお,もり,けん",Aomori Ken,40.33333333,141.15
24457,南部町,なんぶちょう,"なん,ぶ,ちょう",,Nanbu Cho,青森県,あおもりけん,"あお,もり,けん",Aomori Ken,40.46666667,141.3666667
24465,階上町,はしかみちょう,"はし,かみ,ちょう",,Hashikami Cho,青森県,あおもりけん,"あお,もり,けん",Aomori Ken,40.45,141.6166667
24503,新郷村,しんごうむら,"しん,ごう,むら",,Shingo Mura,青森県,あおもりけん,"あお,もり,けん",Aomori Ken,40.45,141.1666667
32018,盛岡市,もりおかし,"もり,おか,し",,Morioka Shi,岩手県,いわてけん,"いわ,て,けん",Iwate Ken,39.7,141.15
32026,宮古市,みやこし,"みや,こ,し",,Miyako Shi,岩手県,いわてけん,"いわ,て,けん",Iwate Ken,39.63333333,141.95
32034,大船渡市,おおふなとし,"おお,ふな,と,し",,Ofunato Shi,岩手県,いわてけん,"いわ,て,けん",Iwate Ken,39.06666667,141.7
32051,花巻市,はなまきし,"はな,まき,し",,Hanamaki Shi,岩手県,いわてけん,"いわ,て,けん",Iwate Ken,39.38333333,141.1166667
32069,北上市,きたかみし,"きた,かみ,し",,Kitakami Shi,岩手県,いわてけん,"いわ,て,けん",Iwate Ken,39.28333333,141.1
32077,久慈市,くじし,"く,じ,し",,Kuji Shi,岩手県,いわてけん,"いわ,て,けん",Iwate Ken,40.18333333,141.7666667
32085,遠野市,とおのし,"とお,の,し",,Tono Shi,岩手県,いわてけん,"いわ,て,けん",Iwate Ken,39.31666667,141.5333333
32093,一関市,いちのせきし,"いちの,せき,し","Hidden particle (の): いち,の,せき,し",Ichinoseki Shi,岩手県,いわてけん,"いわ,て,けん",Iwate Ken,38.93333333,141.1166667
32107,陸前高田市,りくぜんたかたし,"りく,ぜん,たか,た,し",,Rikuzentakata Shi,岩手県,いわてけん,"いわ,て,けん",Iwate Ken,39,141.6166667
32115,釜石市,かまいしし,"かま,いし,し,",,Kamaishi Shi,岩手県,いわてけん,"いわ,て,けん",Iwate Ken,39.26666667,141.8833333
32131,二戸市,にのへし,"にの,へ,し","Hidden particle (の): に,の,へ,し",Ninohe Shi,岩手県,いわてけん,"いわ,て,けん",Iwate Ken,40.26666667,141.3
32140,八幡平市,はちまんたいし,"はち,まん,たい,し",,Hachimantai Shi,岩手県,いわてけん,"いわ,て,けん",Iwate Ken,39.91666667,141.0833333
32158,奥州市,おうしゅうし,"おう,しゅう,し",,Oshu Shi,岩手県,いわてけん,"いわ,て,けん",Iwate Ken,39.13333333,141.1333333
32166,滝沢市,たきざわし,"たき,ざわ,し",,Takizawa Shi,岩手県,いわてけん,"いわ,て,けん",Iwate Ken,39.73333333,141.0666667
33014,雫石町,しずくいしちょう,"しずく,いし,ちょう",,Shizukuishi Cho,岩手県,いわてけん,"いわ,て,けん",Iwate Ken,39.68333333,140.9666667
33022,葛巻町,くずまきまち,"くず,まき,まち",,Kuzumaki Machi,岩手県,いわてけん,"いわ,て,けん",Iwate Ken,40.03333333,141.4333333
33031,岩手町,いわてまち,"いわ,て,まち",,Iwate Machi,岩手県,いわてけん,"いわ,て,けん",Iwate Ken,39.96666667,141.2
33219,紫波町,しわちょう,"し,わ,ちょう",,Shiwa Cho,岩手県,いわてけん,"いわ,て,けん",Iwate Ken,39.55,141.1666667
33227,矢巾町,やはばちょう,"や,はば,ちょう",,Yahaba Cho,岩手県,いわてけん,"いわ,て,けん",Iwate Ken,39.6,141.1333333
33669,西和賀町,にしわがまち,"にし,わ,が,まち",,Nishiwaga Machi,岩手県,いわてけん,"いわ,て,けん",Iwate Ken,39.31666667,140.7666667
33812,金ケ崎町,かねがさきちょう,"かね,が,さき,ちょう",,Kanegasaki Cho,岩手県,いわてけん,"いわ,て,けん",Iwate Ken,39.18333333,141.1
34029,平泉町,ひらいずみちょう,"ひら,いずみ,ちょう",,Hiraizumi Cho,岩手県,いわてけん,"いわ,て,けん",Iwate Ken,38.98333333,141.1
34410,住田町,すみたちょう,"すみ,た,ちょう",,Sumita Cho,岩手県,いわてけん,"いわ,て,けん",Iwate Ken,39.13333333,141.5666667
34614,大槌町,おおつちちょう,"おお,つち,ちょう",,Otsuchi Cho,岩手県,いわてけん,"いわ,て,けん",Iwate Ken,39.35,141.9
34827,山田町,やまだまち,"やま,だ,まち",,Yamada Machi,岩手県,いわてけん,"いわ,て,けん",Iwate Ken,39.46666667,141.9333333
34835,岩泉町,いわいずみちょう,"いわ,いずみ,ちょう",,Iwaizumi Cho,岩手県,いわてけん,"いわ,て,けん",Iwate Ken,39.83333333,141.7833333
34843,田野畑村,たのはたむら,"た,の,はた,むら",,Tanohata Mura,岩手県,いわてけん,"いわ,て,けん",Iwate Ken,39.91666667,141.8833333
34851,普代村,ふだいむら,"ふ,だい,むら",,Fudai Mura,岩手県,いわてけん,"いわ,て,けん",Iwate Ken,40,141.8833333
35017,軽米町,かるまいまち,"かる,まい,まち",,Karumai Machi,岩手県,いわてけん,"いわ,て,けん",Iwate Ken,40.31666667,141.45
35033,野田村,のだむら,"の,だ,むら",,Noda Mura,岩手県,いわてけん,"いわ,て,けん",Iwate Ken,40.1,141.8166667
35068,九戸村,くのへむら,"くの,へ,むら","Hidden particle (の): く,の,へ,むら",Kunohe Mura,岩手県,いわてけん,"いわ,て,けん",Iwate Ken,40.2,141.4166667
35076,洋野町,ひろのちょう,"ひろ,の,ちょう",,Hirono Cho,岩手県,いわてけん,"いわ,て,けん",Iwate Ken,40.4,141.7166667
35246,一戸町,いちのへまち,"いちの,へ,まち","Hidden particle (の): いち,の,へ,まち",Ichinohe Machi,岩手県,いわてけん,"いわ,て,けん",Iwate Ken,40.2,141.2833333
41009,仙台市,せんだいし,"せん,だい,し",,Sendai Shi,宮城県,みやぎけん,"みや,ぎ,けん",Miyagi Ken,38.26666667,140.8666667
42021,石巻市,いしのまきし,"いしの,まき,し","Hidden particle (の): いし,の,まき,し",Ishinomaki Shi,宮城県,みやぎけん,"みや,ぎ,けん",Miyagi Ken,38.41666667,141.3
42030,塩竈市,しおがまし,"しお,がま,し",,Shiogama Shi,宮城県,みやぎけん,"みや,ぎ,けん",Miyagi Ken,38.3,141.0166667
42056,気仙沼市,けせんぬまし,"け,せん,ぬま,し",,Kesennuma Shi,宮城県,みやぎけん,"みや,ぎ,けん",Miyagi Ken,38.9,141.5666667
42064,白石市,しろいしし,"しろ,いし,し",,Shiroishi Shi,宮城県,みやぎけん,"みや,ぎ,けん",Miyagi Ken,38,140.6166667
42072,名取市,なとりし,"な,とり,し",,Natori Shi,宮城県,みやぎけん,"みや,ぎ,けん",Miyagi Ken,38.16666667,140.8833333
42081,角田市,かくだし,"かく,だ,し",,Kakuda Shi,宮城県,みやぎけん,"みや,ぎ,けん",Miyagi Ken,37.96666667,140.7666667
42099,多賀城市,たがじょうし,"た,が,じょう,し",,Tagajo Shi,宮城県,みやぎけん,"みや,ぎ,けん",Miyagi Ken,38.28333333,141
42111,岩沼市,いわぬまし,"いわ,ぬま,し",,Iwanuma Shi,宮城県,みやぎけん,"みや,ぎ,けん",Miyagi Ken,38.1,140.8666667
42129,登米市,とめし,"と,め,し",,Tome Shi,宮城県,みやぎけん,"みや,ぎ,けん",Miyagi Ken,38.68333333,141.1833333
42137,栗原市,くりはらし,"くり,はら,し",,Kurihara Shi,宮城県,みやぎけん,"みや,ぎ,けん",Miyagi Ken,38.71666667,141.0166667
42145,東松島市,ひがしまつしまし,"ひがし,まつ,しま,し",,Higashimatsushima Shi,宮城県,みやぎけん,"みや,ぎ,けん",Miyagi Ken,38.41666667,141.2
42153,大崎市,おおさきし,"おお,さき,し",,Osaki Shi,宮城県,みやぎけん,"みや,ぎ,けん",Miyagi Ken,38.56666667,140.95
42161,富谷市,とみやし,"とみ,や,し",,Tomiya Shi,宮城県,みやぎけん,"みや,ぎ,けん",Miyagi Ken,38.38333333,140.8833333
43010,蔵王町,ざおうまち,"ざ,おう,まち",,Zao Machi,宮城県,みやぎけん,"みや,ぎ,けん",Miyagi Ken,38.08333333,140.65
43028,七ヶ宿町,しちかしゅくまち,"しち,か,しゅく,まち",,Shichikashuku Machi,宮城県,みやぎけん,"みや,ぎ,けん",Miyagi Ken,37.992972,140.441583
43214,大河原町,おおがわらまち,"おお,がわ,ら,まち",,Ogawara Machi,宮城県,みやぎけん,"みや,ぎ,けん",Miyagi Ken,38.03333333,140.7166667
43222,村田町,むらたまち,"むら,た,まち",,Murata Machi,宮城県,みやぎけん,"みや,ぎ,けん",Miyagi Ken,38.11666667,140.7166667
43231,柴田町,しばたまち,"しば,た,まち",,Shibata Machi,宮城県,みやぎけん,"みや,ぎ,けん",Miyagi Ken,38.05,140.75
43249,川崎町,かわさきまち,"かわ,さき,まち",,Kawasaki Machi,宮城県,みやぎけん,"みや,ぎ,けん",Miyagi Ken,38.16666667,140.6333333
43419,丸森町,まるもりまち,"まる,もり,まち",,Marumori Machi,宮城県,みやぎけん,"みや,ぎ,けん",Miyagi Ken,37.9,140.75
43613,亘理町,わたりちょう,"わた,り,ちょう",,Watari Cho,宮城県,みやぎけん,"みや,ぎ,けん",Miyagi Ken,38.03333333,140.85
43621,山元町,やまもとちょう,"やま,もと,ちょう",,Yamamoto Cho,宮城県,みやぎけん,"みや,ぎ,けん",Miyagi Ken,37.95,140.8666667
44016,松島町,まつしままち,"まつ,しま,まち",,Matsushima Machi,宮城県,みやぎけん,"みや,ぎ,けん",Miyagi Ken,38.36666667,141.0666667
44041,七ヶ浜町,しちがはままち,"しち,が,はま,まち",,Shichigahama Machi,宮城県,みやぎけん,"みや,ぎ,けん",Miyagi Ken,38.304528,141.059139
44067,利府町,りふちょう,"り,ふ,ちょう",,Rifu Cho,宮城県,みやぎけん,"みや,ぎ,けん",Miyagi Ken,38.31666667,140.9666667
44211,大和町,たいわちょう,"たい,わ,ちょう",,Taiwa Cho,宮城県,みやぎけん,"みや,ぎ,けん",Miyagi Ken,38.43333333,140.8833333
44229,大郷町,おおさとちょう,"おお,さと,ちょう",,Osato Cho,宮城県,みやぎけん,"みや,ぎ,けん",Miyagi Ken,38.41666667,141
44245,大衡村,おおひらむら,"おお,ひら,むら",,Ohira Mura,宮城県,みやぎけん,"みや,ぎ,けん",Miyagi Ken,38.46666667,140.8666667
44440,色麻町,しかまちょう,"しか,ま,ちょう",,Shikama Cho,宮城県,みやぎけん,"みや,ぎ,けん",Miyagi Ken,38.53333333,140.85
44458,加美町,かみまち,"か,み,まち",,Kami Machi,宮城県,みやぎけん,"みや,ぎ,けん",Miyagi Ken,38.56666667,140.85
45012,涌谷町,わくやちょう,"わく,や,ちょう",,Wakuya Cho,宮城県,みやぎけん,"みや,ぎ,けん",Miyagi Ken,38.53333333,141.1166667
45055,美里町,みさとまち,"み,さと,まち",,Misato Machi,宮城県,みやぎけん,"みや,ぎ,けん",Miyagi Ken,38.53333333,141.05
45811,女川町,おながわちょう,"おな,がわ,ちょう",,Onagawa Cho,宮城県,みやぎけん,"みや,ぎ,けん",Miyagi Ken,38.43333333,141.4333333
46060,南三陸町,みなみさんりくちょう,"みなみ,さん,りく,ちょう",,Minamisanriku Cho,宮城県,みやぎけん,"みや,ぎ,けん",Miyagi Ken,38.66666667,141.4333333
52019,秋田市,あきたし,"あき,た,し",,Akita Shi,秋田県,あきたけん,"あき,た,けん",Akita Ken,39.71666667,140.1
52027,能代市,のしろし,"の,しろ,し",,Noshiro Shi,秋田県,あきたけん,"あき,た,けん",Akita Ken,40.2,140.0166667
52035,横手市,よこてし,"よこ,て,し",,Yokote Shi,秋田県,あきたけん,"あき,た,けん",Akita Ken,39.3,140.55
52043,大館市,おおだてし,"おお,だて,し",,Odate Shi,秋田県,あきたけん,"あき,た,けん",Akita Ken,40.26666667,140.55
52060,男鹿市,おがし,"お,が,し",,Oga Shi,秋田県,あきたけん,"あき,た,けん",Akita Ken,39.88333333,139.8333333
52078,湯沢市,ゆざわし,"ゆ,ざわ,し",,Yuzawa Shi,秋田県,あきたけん,"あき,た,けん",Akita Ken,39.15,140.4833333
52094,鹿角市,かづのし,"か,づの,し",,Kazuno Shi,秋田県,あきたけん,"あき,た,けん",Akita Ken,40.2,140.7833333
52108,由利本荘市,ゆりほんじょうし,"ゆ,り,ほん,じょう,し",,Yurihonjo Shi,秋田県,あきたけん,"あき,た,けん",Akita Ken,39.38333333,140.0333333
52116,潟上市,かたがみし,"かた,がみ,し",,Katagami Shi,秋田県,あきたけん,"あき,た,けん",Akita Ken,39.88333333,139.9833333
52124,大仙市,だいせんし,"だい,せん,し",,Daisen Shi,秋田県,あきたけん,"あき,た,けん",Akita Ken,39.45,140.4666667
52132,北秋田市,きたあきたし,"きた,あき,た,し",,Kitaakita Shi,秋田県,あきたけん,"あき,た,けん",Akita Ken,40.21666667,140.3666667
52141,にかほ市,にかほし,"にかほ,し",,Nikaho Shi,秋田県,あきたけん,"あき,た,けん",Akita Ken,39.2,139.9
52159,仙北市,せんぼくし,"せん,ぼく,し",,Senboku Shi,秋田県,あきたけん,"あき,た,けん",Akita Ken,39.7,140.7166667
53031,小坂町,こさかまち,"こ,さか,まち",,Kosaka Machi,秋田県,あきたけん,"あき,た,けん",Akita Ken,40.31666667,140.7333333
53279,上小阿仁村,かみこあにむら,"かみ,こ,あ,に,むら",,Kamikoani Mura,秋田県,あきたけん,"あき,た,けん",Akita Ken,40.05,140.2833333
53465,藤里町,ふじさとまち,"ふじ,さと,まち",,Fujisato Machi,秋田県,あきたけん,"あき,た,けん",Akita Ken,40.26666667,140.25
53481,三種町,みたねちょう,"み,たね,ちょう",,Mitane Cho,秋田県,あきたけん,"あき,た,けん",Akita Ken,40.1,140
53490,八峰町,はっぽうちょう,"はっ,ぽう,ちょう",,Happo Cho,秋田県,あきたけん,"あき,た,けん",Akita Ken,40.36666667,140.0166667
53619,五城目町,ごじょうめまち,"ご,じょう,め,まち",,Gojome Machi,秋田県,あきたけん,"あき,た,けん",Akita Ken,39.93333333,140.1
53635,八郎潟町,はちろうがたまち,"はち,ろう,がた,まち",,Hachirogata Machi,秋田県,あきたけん,"あき,た,けん",Akita Ken,39.93333333,140.0666667
53660,井川町,いかわまち,"い,かわ,まち",,Ikawa Machi,秋田県,あきたけん,"あき,た,けん",Akita Ken,39.9,140.0666667
53686,大潟村,おおがたむら,"おお,がた,むら",,Ogata Mura,秋田県,あきたけん,"あき,た,けん",Akita Ken,40.01666667,139.95
54348,美郷町,みさとちょう,"み,さと,ちょう",,Misato Cho,秋田県,あきたけん,"あき,た,けん",Akita Ken,39.41666667,140.5333333
54631,羽後町,うごまち,"う,ご,まち",,Ugo Machi,秋田県,あきたけん,"あき,た,けん",Akita Ken,39.18333333,140.4
54640,東成瀬村,ひがしなるせむら,"ひがし,なる,せ,むら",,Higashinaruse Mura,秋田県,あきたけん,"あき,た,けん",Akita Ken,39.16666667,140.6333333
62014,山形市,やまがたし,"やま,がた,し",,Yamagata Shi,山形県,やまがたけん,"やま,がた,けん",Yamagata Ken,38.25,140.3333333
62022,米沢市,よねざわし,"よね,ざわ,し",,Yonezawa Shi,山形県,やまがたけん,"やま,がた,けん",Yamagata Ken,37.91666667,140.1166667
62031,鶴岡市,つるおかし,"つる,おか,し",,Tsuruoka Shi,山形県,やまがたけん,"やま,がた,けん",Yamagata Ken,38.71666667,139.8166667
62049,酒田市,さかたし,"さか,た,し",,Sakata Shi,山形県,やまがたけん,"やま,がた,けん",Yamagata Ken,38.9,139.8333333
62057,新庄市,しんじょうし,"しん,じょう,し",,Shinjo Shi,山形県,やまがたけん,"やま,がた,けん",Yamagata Ken,38.75,140.3
62065,寒河江市,さがえし,"さ,が,え,し",,Sagae Shi,山形県,やまがたけん,"やま,がた,けん",Yamagata Ken,38.36666667,140.2666667
62073,上山市,かみのやまし,"かみの,やま,し","Hidden particle (の): かみ,の,やま,し",Kaminoyama Shi,山形県,やまがたけん,"やま,がた,けん",Yamagata Ken,38.13333333,140.2666667
62081,村山市,むらやまし,"むら,やま,し",,Murayama Shi,山形県,やまがたけん,"やま,がた,けん",Yamagata Ken,38.48333333,140.3666667
62090,長井市,ながいし,"なが,い,し",,Nagai Shi,山形県,やまがたけん,"やま,がた,けん",Yamagata Ken,38.1,140.0333333
62103,天童市,てんどうし,"てん,どう,し",,Tendo Shi,山形県,やまがたけん,"やま,がた,けん",Yamagata Ken,38.35,140.3666667
62111,東根市,ひがしねし,"ひがし,ね,し",,Higashine Shi,山形県,やまがたけん,"やま,がた,けん",Yamagata Ken,38.41666667,140.3833333
62120,尾花沢市,おばなざわし,"お,ばな,ざわ,し",,Obanazawa Shi,山形県,やまがたけん,"やま,がた,けん",Yamagata Ken,38.6,140.4
62138,南陽市,なんようし,"なん,よう,し",,Nan-yo Shi,山形県,やまがたけん,"やま,がた,けん",Yamagata Ken,38.05,140.1333333
63011,山辺町,やまのべまち,"やまの,べ,まち","Hidden particle (の): やま,の,べ,まち",Yamanobe Machi,山形県,やまがたけん,"やま,がた,けん",Yamagata Ken,38.28333333,140.25
63029,中山町,なかやままち,"なか,やま,まち",,Nakayama Machi,山形県,やまがたけん,"やま,がた,けん",Yamagata Ken,38.33333333,140.2666667
63215,河北町,かほくちょう,"か,ほく,ちょう",,Kahoku Cho,山形県,やまがたけん,"やま,がた,けん",Yamagata Ken,38.41666667,140.3
63223,西川町,にしかわまち,"にし,かわ,まち",,Nishikawa Machi,山形県,やまがたけん,"やま,がた,けん",Yamagata Ken,38.41666667,140.1333333
63231,朝日町,あさひまち,"あさ,ひ,まち",,Asahi Machi,山形県,やまがたけん,"やま,がた,けん",Yamagata Ken,38.28333333,140.1333333
63240,大江町,おおえまち,"おお,え,まち",,Oe Machi,山形県,やまがたけん,"やま,がた,けん",Yamagata Ken,38.36666667,140.2
63410,大石田町,おおいしだまち,"おお,いし,だ,まち",,Oishida Machi,山形県,やまがたけん,"やま,がた,けん",Yamagata Ken,38.58333333,140.3666667
63614,金山町,かねやままち,"かね,やま,まち",,Kaneyama Machi,山形県,やまがたけん,"やま,がた,けん",Yamagata Ken,38.88333333,140.3333333
63622,最上町,もがみまち,"も,がみ,まち",,Mogami Machi,山形県,やまがたけん,"やま,がた,けん",Yamagata Ken,38.75,140.5166667
63631,舟形町,ふながたまち,"ふな,がた,まち",,Funagata Machi,山形県,やまがたけん,"やま,がた,けん",Yamagata Ken,38.68333333,140.3166667
63649,真室川町,まむろがわまち,"ま,むろ,がわ,まち",,Mamurogawa Machi,山形県,やまがたけん,"やま,がた,けん",Yamagata Ken,38.85,140.25
63657,大蔵村,おおくらむら,"おお,くら,むら",,Okura Mura,山形県,やまがたけん,"やま,がた,けん",Yamagata Ken,38.7,140.2166667
63665,鮭川村,さけがわむら,"さけ,がわ,むら",,Sakegawa Mura,山形県,やまがたけん,"やま,がた,けん",Yamagata Ken,38.78333333,140.2166667
63673,戸沢村,とざわむら,"と,ざわ,むら",,Tozawa Mura,山形県,やまがたけん,"やま,がた,けん",Yamagata Ken,38.73333333,140.1333333
63819,高畠町,たかはたまち,"たか,はた,まち",,Takahata Machi,山形県,やまがたけん,"やま,がた,けん",Yamagata Ken,38,140.1833333
63827,川西町,かわにしまち,"かわ,にし,まち",,Kawanishi Machi,山形県,やまがたけん,"やま,がた,けん",Yamagata Ken,38,140.0333333
64017,小国町,おぐにまち,"お,ぐに,まち",,Oguni Machi,山形県,やまがたけん,"やま,がた,けん",Yamagata Ken,38.05,139.7333333
64025,白鷹町,しらたかまち,"しら,たか,まち",,Shirataka Machi,山形県,やまがたけん,"やま,がた,けん",Yamagata Ken,38.16666667,140.0833333
64033,飯豊町,いいでまち,"いい,で,まち",,Iide Machi,山形県,やまがたけん,"やま,がた,けん",Yamagata Ken,38.03333333,139.9833333
64262,三川町,みかわまち,"み,かわ,まち",,Mikawa Machi,山形県,やまがたけん,"やま,がた,けん",Yamagata Ken,38.78333333,139.8333333
64289,庄内町,しょうないまち,"しょう,ない,まち",,Shonai Machi,山形県,やまがたけん,"やま,がた,けん",Yamagata Ken,38.83333333,139.9
64611,遊佐町,ゆざまち,"ゆ,ざ,まち",,Yuza Machi,山形県,やまがたけん,"やま,がた,けん",Yamagata Ken,39,139.9
72010,福島市,ふくしまし,"ふく,しま,し",,Fukushima Shi,福島県,ふくしまけん,"ふく,しま,けん",Fukushima Ken,37.75,140.4666667
72028,会津若松市,あいづわかまつし,"あい,づ,わか,まつ,し",,Aizuwakamatsu Shi,福島県,ふくしまけん,"ふく,しま,けん",Fukushima Ken,37.48333333,139.9166667
72036,郡山市,こおりやまし,"こおり,やま,し",,Koriyama Shi,福島県,ふくしまけん,"ふく,しま,けん",Fukushima Ken,37.4,140.35
72044,いわき市,いわきし,"いわき,し",,Iwaki Shi,福島県,ふくしまけん,"ふく,しま,けん",Fukushima Ken,37.05,140.8833333
72052,白河市,しらかわし,"しら,かわ,し",,Shirakawa Shi,福島県,ふくしまけん,"ふく,しま,けん",Fukushima Ken,37.11666667,140.2
72079,須賀川市,すかがわし,"す,か,がわ,し",,Sukagawa Shi,福島県,ふくしまけん,"ふく,しま,けん",Fukushima Ken,37.28333333,140.3666667
72087,喜多方市,きたかたし,"き,た,かた,し",,Kitakata Shi,福島県,ふくしまけん,"ふく,しま,けん",Fukushima Ken,37.65,139.8666667
72095,相馬市,そうまし,"そう,ま,し",,Soma Shi,福島県,ふくしまけん,"ふく,しま,けん",Fukushima Ken,37.78333333,140.9166667
72109,二本松市,にほんまつし,"に,ほん,まつ,し",,Nihonmatsu Shi,福島県,ふくしまけん,"ふく,しま,けん",Fukushima Ken,37.58333333,140.4166667
72117,田村市,たむらし,"た,むら,し",,Tamura Shi,福島県,ふくしまけん,"ふく,しま,けん",Fukushima Ken,37.43333333,140.5666667
72125,南相馬市,みなみそうまし,"みなみ,そう,ま,し",,Minamisoma Shi,福島県,ふくしまけん,"ふく,しま,けん",Fukushima Ken,37.63333333,140.95
72133,伊達市,だてし,"だ,て,し",,Date Shi,福島県,ふくしまけん,"ふく,しま,けん",Fukushima Ken,37.81666667,140.55
72141,本宮市,もとみやし,"もと,みや,し",,Motomiya Shi,福島県,ふくしまけん,"ふく,しま,けん",Fukushima Ken,37.5,140.3833333
73016,桑折町,こおりまち,"こ,おり,まち",,Koori Machi,福島県,ふくしまけん,"ふく,しま,けん",Fukushima Ken,37.83333333,140.5
73032,国見町,くにみまち,"くに,み,まち",,Kunimi Machi,福島県,ふくしまけん,"ふく,しま,けん",Fukushima Ken,37.86666667,140.5333333
73083,川俣町,かわまたまち,"かわ,また,まち",,Kawamata Machi,福島県,ふくしまけん,"ふく,しま,けん",Fukushima Ken,37.65,140.5833333
73229,大玉村,おおたまむら,"おお,たま,むら",,Otama Mura,福島県,ふくしまけん,"ふく,しま,けん",Fukushima Ken,37.53333333,140.3666667
73423,鏡石町,かがみいしまち,"かがみ,いし,まち",,Kagamiishi Machi,福島県,ふくしまけん,"ふく,しま,けん",Fukushima Ken,37.25,140.3333333
73440,天栄村,てんえいむら,"てん,えい,むら",,Ten-ei Mura,福島県,ふくしまけん,"ふく,しま,けん",Fukushima Ken,37.25,140.2333333
73628,下郷町,しもごうまち,"しも,ごう,まち",,Shimogo Machi,福島県,ふくしまけん,"ふく,しま,けん",Fukushima Ken,37.25,139.8666667
73644,檜枝岐村,ひのえまたむら,"ひの,え,また,むら",,Hinoemata Mura,福島県,ふくしまけん,"ふく,しま,けん",Fukushima Ken,37.01666667,139.3833333
73679,只見町,ただみまち,"ただ,み,まち",,Tadami Machi,福島県,ふくしまけん,"ふく,しま,けん",Fukushima Ken,37.33333333,139.3
73687,南会津町,みなみあいづまち,"みなみ,あい,づ,まち",,Minamiaizu Machi,福島県,ふくしまけん,"ふく,しま,けん",Fukushima Ken,37.2,139.7666667
74021,北塩原村,きたしおばらむら,"きた,しお,ばら,むら",,Kitashiobara Mura,福島県,ふくしまけん,"ふく,しま,けん",Fukushima Ken,37.65,139.9333333
74055,西会津町,にしあいづまち,"にし,あい,づ,まち",,Nishiaizu Machi,福島県,ふくしまけん,"ふく,しま,けん",Fukushima Ken,37.58333333,139.6333333
74071,磐梯町,ばんだいまち,"ばん,だい,まち",,Bandai Machi,福島県,ふくしまけん,"ふく,しま,けん",Fukushima Ken,37.55,139.9833333
74080,猪苗代町,いなわしろまち,"い,なわ,しろ,まち",,Inawashiro Machi,福島県,ふくしまけん,"ふく,しま,けん",Fukushima Ken,37.55,140.1
74217,会津坂下町,あいづばんげまち,"あい,づ,ばん,げ,まち",,Aizubange Machi,福島県,ふくしまけん,"ふく,しま,けん",Fukushima Ken,37.55,139.8166667
74225,湯川村,ゆがわむら,"ゆ,がわ,むら",,Yugawa Mura,福島県,ふくしまけん,"ふく,しま,けん",Fukushima Ken,37.55,139.8833333
74233,柳津町,やないづまち,"やない,づ,まち",,Yanaizu Machi,福島県,ふくしまけん,"ふく,しま,けん",Fukushima Ken,37.51666667,139.7166667
74446,三島町,みしままち,"み,しま,まち",,Mishima Machi,福島県,ふくしまけん,"ふく,しま,けん",Fukushima Ken,37.46666667,139.6333333
74454,金山町,かねやままち,"かね,やま,まち",,Kaneyama Machi,福島県,ふくしまけん,"ふく,しま,けん",Fukushima Ken,37.45,139.5166667
74462,昭和村,しょうわむら,"しょう,わ,むら",,Showa Mura,福島県,ふくしまけん,"ふく,しま,けん",Fukushima Ken,37.33333333,139.6
74471,会津美里町,あいづみさとまち,"あい,づ,み,さと,まち",,Aizumisato Machi,福島県,ふくしまけん,"ふく,しま,けん",Fukushima Ken,37.45,139.8333333
74616,西郷村,にしごうむら,"にし,ごう,むら",,Nishigo Mura,福島県,ふくしまけん,"ふく,しま,けん",Fukushima Ken,37.13333333,140.15
74641,泉崎村,いずみざきむら,"いずみ,ざき,むら",,Izumizaki Mura,福島県,ふくしまけん,"ふく,しま,けん",Fukushima Ken,37.15,140.2833333
74659,中島村,なかじまむら,"なか,じま,むら",,Nakajima Mura,福島県,ふくしまけん,"ふく,しま,けん",Fukushima Ken,37.13333333,140.35
74667,矢吹町,やぶきまち,"や,ぶき,まち",,Yabuki Machi,福島県,ふくしまけん,"ふく,しま,けん",Fukushima Ken,37.2,140.3333333
74811,棚倉町,たなぐらまち,"たな,ぐら,まち",,Tanagura Machi,福島県,ふくしまけん,"ふく,しま,けん",Fukushima Ken,37.01666667,140.3666667
74829,矢祭町,やまつりまち,"や,まつり,まち",,Yamatsuri Machi,福島県,ふくしまけん,"ふく,しま,けん",Fukushima Ken,36.86666667,140.4166667
74837,塙町,はなわまち,"はなわ,まち",,Hanawa Machi,福島県,ふくしまけん,"ふく,しま,けん",Fukushima Ken,36.95,140.4
74845,鮫川村,さめがわむら,"さめ,がわ,むら",,Samegawa Mura,福島県,ふくしまけん,"ふく,しま,けん",Fukushima Ken,37.03333333,140.5
75019,石川町,いしかわまち,"いし,かわ,まち",,Ishikawa Machi,福島県,ふくしまけん,"ふく,しま,けん",Fukushima Ken,37.13333333,140.45
75027,玉川村,たまかわむら,"たま,かわ,むら",,Tamakawa Mura,福島県,ふくしまけん,"ふく,しま,けん",Fukushima Ken,37.2,140.4
75035,平田村,ひらたむら,"ひら,た,むら",,Hirata Mura,福島県,ふくしまけん,"ふく,しま,けん",Fukushima Ken,37.21666667,140.5666667
75043,浅川町,あさかわまち,"あさ,かわ,まち",,Asakawa Machi,福島県,ふくしまけん,"ふく,しま,けん",Fukushima Ken,37.06666667,140.4
75051,古殿町,ふるどのまち,"ふる,どの,まち",,Furudono Machi,福島県,ふくしまけん,"ふく,しま,けん",Fukushima Ken,37.08333333,140.55
75213,三春町,みはるまち,"み,はる,まち",,Miharu Machi,福島県,ふくしまけん,"ふく,しま,けん",Fukushima Ken,37.43333333,140.4833333
75221,小野町,おのまち,"お,の,まち",,Ono Machi,福島県,ふくしまけん,"ふく,しま,けん",Fukushima Ken,37.28333333,140.6166667
75418,広野町,ひろのまち,"ひろ,の,まち",,Hirono Machi,福島県,ふくしまけん,"ふく,しま,けん",Fukushima Ken,37.2,140.9833333
75426,楢葉町,ならはまち,"なら,は,まち",,Naraha Machi,福島県,ふくしまけん,"ふく,しま,けん",Fukushima Ken,37.26666667,140.9833333
75434,富岡町,とみおかまち,"とみ,おか,まち",,Tomioka Machi,福島県,ふくしまけん,"ふく,しま,けん",Fukushima Ken,37.33333333,141
75442,川内村,かわうちむら,"かわ,うち,むら",,Kawauchi Mura,福島県,ふくしまけん,"ふく,しま,けん",Fukushima Ken,37.33333333,140.8
75451,大熊町,おおくままち,"おお,くま,まち",,Okuma Machi,福島県,ふくしまけん,"ふく,しま,けん",Fukushima Ken,37.4,140.9833333
75469,双葉町,ふたばまち,"ふた,ば,まち",,Futaba Machi,福島県,ふくしまけん,"ふく,しま,けん",Fukushima Ken,37.43333333,141
75477,浪江町,なみえまち,"なみ,え,まち",,Namie Machi,福島県,ふくしまけん,"ふく,しま,けん",Fukushima Ken,37.48333333,141
75485,葛尾村,かつらおむら,"かつら,お,むら",,Katsurao Mura,福島県,ふくしまけん,"ふく,しま,けん",Fukushima Ken,37.5,140.75
75612,新地町,しんちまち,"しん,ち,まち",,Shinchi Machi,福島県,ふくしまけん,"ふく,しま,けん",Fukushima Ken,37.86666667,140.9166667
75647,飯舘村,いいたてむら,"いい,たて,むら",,Iitate Mura,福島県,ふくしまけん,"ふく,しま,けん",Fukushima Ken,37.66666667,140.7333333
82015,水戸市,みとし,"み,と,し",,Mito Shi,茨城県,いばらきけん,"いばら,き,けん",Ibaraki Ken,36.35,140.4666667
82023,日立市,ひたちし,"ひ,たち,し",,Hitachi Shi,茨城県,いばらきけん,"いばら,き,けん",Ibaraki Ken,36.58333333,140.65
82031,土浦市,つちうらし,"つち,うら,し",,Tsuchiura Shi,茨城県,いばらきけん,"いばら,き,けん",Ibaraki Ken,36.06666667,140.1833333
82040,古河市,こがし,"こ,が,し",,Koga Shi,茨城県,いばらきけん,"いばら,き,けん",Ibaraki Ken,36.16666667,139.75
82058,石岡市,いしおかし,"いし,おか,し",,Ishioka Shi,茨城県,いばらきけん,"いばら,き,けん",Ibaraki Ken,36.18333333,140.2833333
82074,結城市,ゆうきし,"ゆう,き,し",,Yuki Shi,茨城県,いばらきけん,"いばら,き,けん",Ibaraki Ken,36.3,139.8666667
82082,龍ケ崎市,りゅうがさきし,"りゅう,が,さき,し",,Ryugasaki Shi,茨城県,いばらきけん,"いばら,き,けん",Ibaraki Ken,35.9,140.1666667
82104,下妻市,しもつまし,"しも,つま,し",,Shimotsuma Shi,茨城県,いばらきけん,"いばら,き,けん",Ibaraki Ken,36.18333333,139.9666667
82112,常総市,じょうそうし,"じょう,そう,し",,Joso Shi,茨城県,いばらきけん,"いばら,き,けん",Ibaraki Ken,36.01666667,139.9833333
82121,常陸太田市,ひたちおおたし,"ひ,たち,おお,た,し",,Hitachiota Shi,茨城県,いばらきけん,"いばら,き,けん",Ibaraki Ken,36.53333333,140.5166667
82147,高萩市,たかはぎし,"たか,はぎ,し",,Takahagi Shi,茨城県,いばらきけん,"いばら,き,けん",Ibaraki Ken,36.7,140.7
82155,北茨城市,きたいばらきし,"きた,いばら,き,し",,Kitaibaraki Shi,茨城県,いばらきけん,"いばら,き,けん",Ibaraki Ken,36.8,140.75
82163,笠間市,かさまし,"かさ,ま,し",,Kasama Shi,茨城県,いばらきけん,"いばら,き,けん",Ibaraki Ken,36.33333333,140.3
82171,取手市,とりでし,"とり,で,し",,Toride Shi,茨城県,いばらきけん,"いばら,き,けん",Ibaraki Ken,35.9,140.05
82198,牛久市,うしくし,"うし,く,し",,Ushiku Shi,茨城県,いばらきけん,"いばら,き,けん",Ibaraki Ken,35.96666667,140.1333333
82201,つくば市,つくばし,"つくば,し",,Tsukuba Shi,茨城県,いばらきけん,"いばら,き,けん",Ibaraki Ken,36.03333333,140.0666667
82210,ひたちなか市,ひたちなかし,"ひたちなか,し",,Hitachinaka Shi,茨城県,いばらきけん,"いばら,き,けん",Ibaraki Ken,36.38333333,140.5333333
82228,鹿嶋市,かしまし,"か,しま,し",,Kashima Shi,茨城県,いばらきけん,"いばら,き,けん",Ibaraki Ken,35.95,140.6333333
82236,潮来市,いたこし,"いた,こ,し",,Itako Shi,茨城県,いばらきけん,"いばら,き,けん",Ibaraki Ken,35.93333333,140.55
82244,守谷市,もりやし,"もり,や,し",,Moriya Shi,茨城県,いばらきけん,"いばら,き,けん",Ibaraki Ken,35.95,139.9666667
82252,常陸大宮市,ひたちおおみやし,"ひ,たち,おお,みや,し",,Hitachiomiya Shi,茨城県,いばらきけん,"いばら,き,けん",Ibaraki Ken,36.55,140.4
82261,那珂市,なかし,"な,か,し",,Naka Shi,茨城県,いばらきけん,"いばら,き,けん",Ibaraki Ken,36.45,140.4833333
82279,筑西市,ちくせいし,"ちく,せい,し",,Chikusei Shi,茨城県,いばらきけん,"いばら,き,けん",Ibaraki Ken,36.3,139.9666667
82287,坂東市,ばんどうし,"ばん,どう,し",,Bando Shi,茨城県,いばらきけん,"いばら,き,けん",Ibaraki Ken,36.03333333,139.8833333
82295,稲敷市,いなしきし,"いな,しき,し",,Inashiki Shi,茨城県,いばらきけん,"いばら,き,けん",Ibaraki Ken,35.95,140.3166667
82309,かすみがうら市,かすみがうらし,"かすみがうら,し",,Kasumigaura Shi,茨城県,いばらきけん,"いばら,き,けん",Ibaraki Ken,36.15,140.2333333
82317,桜川市,さくらがわし,"さくら,がわ,し",,Sakuragawa Shi,茨城県,いばらきけん,"いばら,き,けん",Ibaraki Ken,36.31666667,140.0833333
82325,神栖市,かみすし,"かみ,す,し",,Kamisu Shi,茨城県,いばらきけん,"いばら,き,けん",Ibaraki Ken,35.88333333,140.65
82333,行方市,なめがたし,"なめ,がた,し",,Namegata Shi,茨城県,いばらきけん,"いばら,き,けん",Ibaraki Ken,35.98333333,140.4833333
82341,鉾田市,ほこたし,"ほこ,た,し",,Hokota Shi,茨城県,いばらきけん,"いばら,き,けん",Ibaraki Ken,36.15,140.5
82350,つくばみらい市,つくばみらいし,"つくばみらい,し",,Tsukubamirai Shi,茨城県,いばらきけん,"いばら,き,けん",Ibaraki Ken,35.95,140.0333333
82368,小美玉市,おみたまし,"お,み,たま,し",,Omitama Shi,茨城県,いばらきけん,"いばら,き,けん",Ibaraki Ken,36.23333333,140.35
83020,茨城町,いばらきまち,"いば,らき,まち",,Ibaraki Machi,茨城県,いばらきけん,"いばら,き,けん",Ibaraki Ken,36.28333333,140.4166667
83097,大洗町,おおあらいまち,"おお,あらい,まち",,Oarai Machi,茨城県,いばらきけん,"いばら,き,けん",Ibaraki Ken,36.3,140.5666667
83101,城里町,しろさとまち,"しろ,さと,まち",,Shirosato Machi,茨城県,いばらきけん,"いばら,き,けん",Ibaraki Ken,36.46666667,140.3666667
83411,東海村,とうかいむら,"とう,かい,むら",,Tokai Mura,茨城県,いばらきけん,"いばら,き,けん",Ibaraki Ken,36.46666667,140.55
83640,大子町,だいごまち,"だい,ご,まち",,Daigo Machi,茨城県,いばらきけん,"いばら,き,けん",Ibaraki Ken,36.76666667,140.35
84425,美浦村,みほむら,"み,ほ,むら",,Miho Mura,茨城県,いばらきけん,"いばら,き,けん",Ibaraki Ken,36,140.3
84433,阿見町,あみまち,"あ,み,まち",,Ami Machi,茨城県,いばらきけん,"いばら,き,けん",Ibaraki Ken,36.01666667,140.2
84476,河内町,かわちまち,"かわ,ち,まち",,Kawachi Machi,茨城県,いばらきけん,"いばら,き,けん",Ibaraki Ken,35.88333333,140.2333333
85219,八千代町,やちよまち,"や,ち,よ,まち",,Yachiyo Machi,茨城県,いばらきけん,"いばら,き,けん",Ibaraki Ken,36.16666667,139.8833333
85421,五霞町,ごかまち,"ご,か,まち",,Goka Machi,茨城県,いばらきけん,"いばら,き,けん",Ibaraki Ken,36.1,139.7333333
85464,境町,さかいまち,"さかい,まち",,Sakai Machi,茨城県,いばらきけん,"いばら,き,けん",Ibaraki Ken,36.1,139.7833333
85642,利根町,とねまち,"と,ね,まち",,Tone Machi,茨城県,いばらきけん,"いばら,き,けん",Ibaraki Ken,35.85,140.1333333
92011,宇都宮市,うつのみやし,"う,つの,みや,し","Hidden particle (の): う,つ,の,みや,し",Utsunomiya Shi,栃木県,とちぎけん,"とち,ぎ,けん",Tochigi Ken,36.55,139.8666667
92029,足利市,あしかがし,"あし,かが,し",,Ashikaga Shi,栃木県,とちぎけん,"とち,ぎ,けん",Tochigi Ken,36.33333333,139.4333333
92037,栃木市,とちぎし,"とち,ぎ,し",,Tochigi Shi,栃木県,とちぎけん,"とち,ぎ,けん",Tochigi Ken,36.36666667,139.7166667
92045,佐野市,さのし,"さ,の,し",,Sano Shi,栃木県,とちぎけん,"とち,ぎ,けん",Tochigi Ken,36.3,139.5666667
92053,鹿沼市,かぬまし,"か,ぬま,し",,Kanuma Shi,栃木県,とちぎけん,"とち,ぎ,けん",Tochigi Ken,36.56666667,139.7333333
92061,日光市,にっこうし,"にっ,こう,し",,Nikko Shi,栃木県,とちぎけん,"とち,ぎ,けん",Tochigi Ken,36.71666667,139.6833333
92088,小山市,おやまし,"お,やま,し",,Oyama Shi,栃木県,とちぎけん,"とち,ぎ,けん",Tochigi Ken,36.3,139.8
92096,真岡市,もおかし,"も,おか,し",,Mooka Shi,栃木県,とちぎけん,"とち,ぎ,けん",Tochigi Ken,36.43333333,140
92100,大田原市,おおたわらし,"おお,た,わら,し",,Otawara Shi,栃木県,とちぎけん,"とち,ぎ,けん",Tochigi Ken,36.86666667,140
92118,矢板市,やいたし,"や,いた,し",,Yaita Shi,栃木県,とちぎけん,"とち,ぎ,けん",Tochigi Ken,36.8,139.9166667
92134,那須塩原市,なすしおばらし,"な,す,しお,ばら,し",,Nasushiobara Shi,栃木県,とちぎけん,"とち,ぎ,けん",Tochigi Ken,36.95,140.0333333
92142,さくら市,さくらし,"さくら,し",,Sakura Shi,栃木県,とちぎけん,"とち,ぎ,けん",Tochigi Ken,36.68333333,139.95
92151,那須烏山市,なすからすやまし,"な,す,からす,やま,し",,Nasukarasuyama Shi,栃木県,とちぎけん,"とち,ぎ,けん",Tochigi Ken,36.65,140.15
92169,下野市,しもつけし,"しも,つけ,し",,Shimotsuke Shi,栃木県,とちぎけん,"とち,ぎ,けん",Tochigi Ken,36.38333333,139.8333333
93017,上三川町,かみのかわまち,"か,みの,かわ,まち","Hidden particle (の): か,み,の,かわ,まち",Kaminokawa Machi,栃木県,とちぎけん,"とち,ぎ,けん",Tochigi Ken,36.43333333,139.9
93424,益子町,ましこまち,"まし,こ,まち",,Mashiko Machi,栃木県,とちぎけん,"とち,ぎ,けん",Tochigi Ken,36.46666667,140.0833333
93432,茂木町,もてぎまち,"もて,ぎ,まち",,Motegi Machi,栃木県,とちぎけん,"とち,ぎ,けん",Tochigi Ken,36.51666667,140.1833333
93441,市貝町,いちかいまち,"いち,かい,まち",,Ichikai Machi,栃木県,とちぎけん,"とち,ぎ,けん",Tochigi Ken,36.53333333,140.1
93459,芳賀町,はがまち,"は,が,まち",,Haga Machi,栃木県,とちぎけん,"とち,ぎ,けん",Tochigi Ken,36.53333333,140.05
93611,壬生町,みぶまち,"み,ぶ,まち",,Mibu Machi,栃木県,とちぎけん,"とち,ぎ,けん",Tochigi Ken,36.41666667,139.8
93645,野木町,のぎまち,"の,ぎ,まち",,Nogi Machi,栃木県,とちぎけん,"とち,ぎ,けん",Tochigi Ken,36.21666667,139.7333333
93840,塩谷町,しおやまち,"しお,や,まち",,Shioya Machi,栃木県,とちぎけん,"とち,ぎ,けん",Tochigi Ken,36.76666667,139.85
93866,高根沢町,たかねざわまち,"たか,ね,ざわ,まち",,Takanezawa Machi,栃木県,とちぎけん,"とち,ぎ,けん",Tochigi Ken,36.61666667,139.9833333
94072,那須町,なすまち,"な,す,まち",,Nasu Machi,栃木県,とちぎけん,"とち,ぎ,けん",Tochigi Ken,37.01666667,140.1166667
94111,那珂川町,なかがわまち,"な,か,がわ,まち",,Nakagawa Machi,栃木県,とちぎけん,"とち,ぎ,けん",Tochigi Ken,36.73333333,140.1666667
102016,前橋市,まえばしし,"まえ,ばし,し",,Maebashi Shi,群馬県,ぐんまけん,"ぐん,ま,けん",Gunma Ken,36.38333333,139.05
102024,高崎市,たかさきし,"たか,さき,し",,Takasaki Shi,群馬県,ぐんまけん,"ぐん,ま,けん",Gunma Ken,36.31666667,139
102032,桐生市,きりゅうし,"き,りゅう,し",,Kiryu Shi,群馬県,ぐんまけん,"ぐん,ま,けん",Gunma Ken,36.4,139.3166667
102041,伊勢崎市,いせさきし,"い,せ,さき,し",,Isesaki Shi,群馬県,ぐんまけん,"ぐん,ま,けん",Gunma Ken,36.3,139.1833333
102059,太田市,おおたし,"おお,た,し",,Ota Shi,群馬県,ぐんまけん,"ぐん,ま,けん",Gunma Ken,36.28333333,139.3666667
102067,沼田市,ぬまたし,"ぬま,た,し",,Numata Shi,群馬県,ぐんまけん,"ぐん,ま,けん",Gunma Ken,36.63333333,139.0333333
102075,館林市,たてばやしし,"たて,ばやし,し",,Tatebayashi Shi,群馬県,ぐんまけん,"ぐん,ま,けん",Gunma Ken,36.23333333,139.5333333
102083,渋川市,しぶかわし,"しぶ,かわ,し",,Shibukawa Shi,群馬県,ぐんまけん,"ぐん,ま,けん",Gunma Ken,36.48333333,139
102091,藤岡市,ふじおかし,"ふじ,おか,し",,Fujioka Shi,群馬県,ぐんまけん,"ぐん,ま,けん",Gunma Ken,36.25,139.0666667
102105,富岡市,とみおかし,"とみ,おか,し",,Tomioka Shi,群馬県,ぐんまけん,"ぐん,ま,けん",Gunma Ken,36.25,138.8833333
102113,安中市,あんなかし,"あん,なか,し",,Annaka Shi,群馬県,ぐんまけん,"ぐん,ま,けん",Gunma Ken,36.31666667,138.8833333
102121,みどり市,みどりし,"みどり,し",,Midori Shi,群馬県,ぐんまけん,"ぐん,ま,けん",Gunma Ken,36.38333333,139.2666667
103446,榛東村,しんとうむら,"しん,とう,むら",,Shinto Mura,群馬県,ぐんまけん,"ぐん,ま,けん",Gunma Ken,36.43333333,138.9666667
103454,吉岡町,よしおかまち,"よし,おか,まち",,Yoshioka Machi,群馬県,ぐんまけん,"ぐん,ま,けん",Gunma Ken,36.43333333,139
103667,上野村,うえのむら,"うえ,の,むら",,Ueno Mura,群馬県,ぐんまけん,"ぐん,ま,けん",Gunma Ken,36.08333333,138.7666667
103675,神流町,かんなまち,"かん,な,まち",,Kanna Machi,群馬県,ぐんまけん,"ぐん,ま,けん",Gunma Ken,36.1,138.9166667
103829,下仁田町,しもにたまち,"しも,に,た,まち",,Shimonita Machi,群馬県,ぐんまけん,"ぐん,ま,けん",Gunma Ken,36.2,138.7833333
103837,南牧村,なんもくむら,"なん,もく,むら",,Nanmoku Mura,群馬県,ぐんまけん,"ぐん,ま,けん",Gunma Ken,36.15,138.7
103845,甘楽町,かんらまち,"かん,ら,まち",,Kanra Machi,群馬県,ぐんまけん,"ぐん,ま,けん",Gunma Ken,36.23333333,138.9166667
104213,中之条町,なかのじょうまち,"なか,の,じょう,まち",,Nakanojo Machi,群馬県,ぐんまけん,"ぐん,ま,けん",Gunma Ken,36.58333333,138.8333333
104248,長野原町,ながのはらまち,"なが,の,はら,まち",,Naganohara Machi,群馬県,ぐんまけん,"ぐん,ま,けん",Gunma Ken,36.55,138.6333333
104256,嬬恋村,つまごいむら,"つま,ごい,むら",,Tsumagoi Mura,群馬県,ぐんまけん,"ぐん,ま,けん",Gunma Ken,36.5,138.5166667
104264,草津町,くさつまち,"くさ,つ,まち",,Kusatsu Machi,群馬県,ぐんまけん,"ぐん,ま,けん",Gunma Ken,36.61666667,138.5833333
104281,高山村,たかやまむら,"たか,やま,むら",,Takayama Mura,群馬県,ぐんまけん,"ぐん,ま,けん",Gunma Ken,36.61666667,138.9333333
104299,東吾妻町,ひがしあがつままち,"ひがし,あが,つま,まち",,Higashiagatsuma Machi,群馬県,ぐんまけん,"ぐん,ま,けん",Gunma Ken,36.56666667,138.8166667
104434,片品村,かたしなむら,"かた,しな,むら",,Katashina Mura,群馬県,ぐんまけん,"ぐん,ま,けん",Gunma Ken,36.76666667,139.2166667
104442,川場村,かわばむら,"かわ,ば,むら",,Kawaba Mura,群馬県,ぐんまけん,"ぐん,ま,けん",Gunma Ken,36.68333333,139.1
104485,昭和村,しょうわむら,"しょう,わ,むら",,Showa Mura,群馬県,ぐんまけん,"ぐん,ま,けん",Gunma Ken,36.63333333,139.05
104493,みなかみ町,みなかみまち,"みなかみ,まち",,Minakami Machi,群馬県,ぐんまけん,"ぐん,ま,けん",Gunma Ken,36.66666667,138.9833333
104647,玉村町,たまむらまち,"たま,むら,まち",,Tamamura Machi,群馬県,ぐんまけん,"ぐん,ま,けん",Gunma Ken,36.3,139.1
105210,板倉町,いたくらまち,"いた,くら,まち",,Itakura Machi,群馬県,ぐんまけん,"ぐん,ま,けん",Gunma Ken,36.21666667,139.6
105228,明和町,めいわまち,"めい,わ,まち",,Meiwa Machi,群馬県,ぐんまけん,"ぐん,ま,けん",Gunma Ken,36.2,139.5333333
105236,千代田町,ちよだまち,"ち,よ,だ,まち",,Chiyoda Machi,群馬県,ぐんまけん,"ぐん,ま,けん",Gunma Ken,36.21666667,139.4333333
105244,大泉町,おおいずみまち,"おお,いずみ,まち",,Oizumi Machi,群馬県,ぐんまけん,"ぐん,ま,けん",Gunma Ken,36.23333333,139.4
105252,邑楽町,おうらまち,"おう,ら,まち",,Ora Machi,群馬県,ぐんまけん,"ぐん,ま,けん",Gunma Ken,36.25,139.4666667
111007,さいたま市,さいたまし,"さいた,まし",,Saitama Shi,埼玉県,さいたまけん,"さい,たま,けん",Saitama Ken,35.85,139.6333333
112011,川越市,かわごえし,"かわ,ごえ,し",,Kawagoe Shi,埼玉県,さいたまけん,"さい,たま,けん",Saitama Ken,35.91666667,139.4833333
112020,熊谷市,くまがやし,"くま,がや,し",,Kumagaya Shi,埼玉県,さいたまけん,"さい,たま,けん",Saitama Ken,36.13333333,139.3833333
112038,川口市,かわぐちし,"かわ,ぐち,し",,Kawaguchi Shi,埼玉県,さいたまけん,"さい,たま,けん",Saitama Ken,35.8,139.7166667
112062,行田市,ぎょうだし,"ぎょう,だ,し",,Gyoda Shi,埼玉県,さいたまけん,"さい,たま,けん",Saitama Ken,36.13333333,139.45
112071,秩父市,ちちぶし,"ちち,ぶ,し",,Chichibu Shi,埼玉県,さいたまけん,"さい,たま,けん",Saitama Ken,35.98333333,139.0833333
112089,所沢市,ところざわし,"ところ,ざわ,し",,Tokorozawa Shi,埼玉県,さいたまけん,"さい,たま,けん",Saitama Ken,35.78333333,139.4666667
112097,飯能市,はんのうし,"はん,のう,し",,Hanno Shi,埼玉県,さいたまけん,"さい,たま,けん",Saitama Ken,35.85,139.3166667
112101,加須市,かぞし,"か,ぞ,し",,Kazo Shi,埼玉県,さいたまけん,"さい,たま,けん",Saitama Ken,36.11666667,139.6
112119,本庄市,ほんじょうし,"ほん,じょう,し",,Honjo Shi,埼玉県,さいたまけん,"さい,たま,けん",Saitama Ken,36.23333333,139.1833333
112127,東松山市,ひがしまつやまし,"ひがし,まつ,やま,し",,Higashimatsuyama Shi,埼玉県,さいたまけん,"さい,たま,けん",Saitama Ken,36.03333333,139.4
112143,春日部市,かすかべし,"かす,か,べ,し",,Kasukabe Shi,埼玉県,さいたまけん,"さい,たま,けん",Saitama Ken,35.96666667,139.75
112151,狭山市,さやまし,"さ,やま,し",,Sayama Shi,埼玉県,さいたまけん,"さい,たま,けん",Saitama Ken,35.85,139.4
112160,羽生市,はにゅうし,"は,にゅう,し",,Hanyu Shi,埼玉県,さいたまけん,"さい,たま,けん",Saitama Ken,36.16666667,139.5333333
112178,鴻巣市,こうのすし,"こうの,す,し","Hidden particle (の): こう,の,す,し",Konosu Shi,埼玉県,さいたまけん,"さい,たま,けん",Saitama Ken,36.05,139.5166667
112186,深谷市,ふかやし,"ふか,や,し",,Fukaya Shi,埼玉県,さいたまけん,"さい,たま,けん",Saitama Ken,36.18333333,139.2666667
112194,上尾市,あげおし,"あげ,お,し",,Ageo Shi,埼玉県,さいたまけん,"さい,たま,けん",Saitama Ken,35.96666667,139.5833333
112216,草加市,そうかし,"そう,か,し",,Soka Shi,埼玉県,さいたまけん,"さい,たま,けん",Saitama Ken,35.81666667,139.8
112224,越谷市,こしがやし,"こしが,や,し",,Koshigaya Shi,埼玉県,さいたまけん,"さい,たま,けん",Saitama Ken,35.88333333,139.7833333
112232,蕨市,わらびし,"わらび,し",,Warabi Shi,埼玉県,さいたまけん,"さい,たま,けん",Saitama Ken,35.81666667,139.6666667
112241,戸田市,とだし,"と,だ,し",,Toda Shi,埼玉県,さいたまけん,"さい,たま,けん",Saitama Ken,35.81666667,139.6666667
112259,入間市,いるまし,"いる,ま,し",,Iruma Shi,埼玉県,さいたまけん,"さい,たま,けん",Saitama Ken,35.83333333,139.3833333
112275,朝霞市,あさかし,"あさ,か,し",,Asaka Shi,埼玉県,さいたまけん,"さい,たま,けん",Saitama Ken,35.78333333,139.5833333
112283,志木市,しきし,"し,き,し",,Shiki Shi,埼玉県,さいたまけん,"さい,たま,けん",Saitama Ken,35.83333333,139.5666667
112291,和光市,わこうし,"わ,こう,し",,Wako Shi,埼玉県,さいたまけん,"さい,たま,けん",Saitama Ken,35.76666667,139.6
112305,新座市,にいざし,"に,いざ,し",,Niiza Shi,埼玉県,さいたまけん,"さい,たま,けん",Saitama Ken,35.78333333,139.55
112313,桶川市,おけがわし,"おけ,がわ,し",,Okegawa Shi,埼玉県,さいたまけん,"さい,たま,けん",Saitama Ken,36,139.55
112321,久喜市,くきし,"く,き,し",,Kuki Shi,埼玉県,さいたまけん,"さい,たま,けん",Saitama Ken,36.05,139.6666667
112330,北本市,きたもとし,"きた,もと,し",,Kitamoto Shi,埼玉県,さいたまけん,"さい,たま,けん",Saitama Ken,36.01666667,139.5166667
112348,八潮市,やしおし,"や,しお,し",,Yashio Shi,埼玉県,さいたまけん,"さい,たま,けん",Saitama Ken,35.81666667,139.8333333
112356,富士見市,ふじみし,"ふ,じ,み,し",,Fujimi Shi,埼玉県,さいたまけん,"さい,たま,けん",Saitama Ken,35.85,139.5333333
112372,三郷市,みさとし,"み,さと,し",,Misato Shi,埼玉県,さいたまけん,"さい,たま,けん",Saitama Ken,35.81666667,139.8666667
112381,蓮田市,はすだし,"はす,だ,し",,Hasuda Shi,埼玉県,さいたまけん,"さい,たま,けん",Saitama Ken,35.98333333,139.65
112399,坂戸市,さかどし,"さか,ど,し",,Sakado Shi,埼玉県,さいたまけん,"さい,たま,けん",Saitama Ken,35.95,139.4
112402,幸手市,さってし,"さっ,て,し",,Satte Shi,埼玉県,さいたまけん,"さい,たま,けん",Saitama Ken,36.06666667,139.7166667
112411,鶴ヶ島市,つるがしまし,"つる,が,しま,し",,Tsurugashima Shi,埼玉県,さいたまけん,"さい,たま,けん",Saitama Ken,35.93333333,139.3833333
112429,日高市,ひだかし,"ひ,だか,し",,Hidaka Shi,埼玉県,さいたまけん,"さい,たま,けん",Saitama Ken,35.9,139.3333333
112437,吉川市,よしかわし,"よし,かわ,し",,Yoshikawa Shi,埼玉県,さいたまけん,"さい,たま,けん",Saitama Ken,35.88333333,139.8333333
112453,ふじみ野市,ふじみのし,"ふじみ,の,し",,Fujimino Shi,埼玉県,さいたまけん,"さい,たま,けん",Saitama Ken,35.86666667,139.5166667
112461,白岡市,しらおかし,"しら,おか,し",,Shiraoka Shi,埼玉県,さいたまけん,"さい,たま,けん",Saitama Ken,36.01666667,139.6666667
113018,伊奈町,いなまち,"い,な,まち",,Ina Machi,埼玉県,さいたまけん,"さい,たま,けん",Saitama Ken,36,139.6166667
113247,三芳町,みよしまち,"み,よし,まち",,Miyoshi Machi,埼玉県,さいたまけん,"さい,たま,けん",Saitama Ken,35.81666667,139.5166667
113263,毛呂山町,もろやままち,"も,ろ,やま,まち",,Moroyama Machi,埼玉県,さいたまけん,"さい,たま,けん",Saitama Ken,35.93333333,139.3
113271,越生町,おごせまち,"おご,せ,まち",,Ogose Machi,埼玉県,さいたまけん,"さい,たま,けん",Saitama Ken,35.95,139.2833333
113417,滑川町,なめがわまち,"なめ,がわ,まち",,Namegawa Machi,埼玉県,さいたまけん,"さい,たま,けん",Saitama Ken,36.05,139.35
113425,嵐山町,らんざんまち,"らん,ざん,まち",,Ranzan Machi,埼玉県,さいたまけん,"さい,たま,けん",Saitama Ken,36.05,139.3166667
113433,小川町,おがわまち,"お,がわ,まち",,Ogawa Machi,埼玉県,さいたまけん,"さい,たま,けん",Saitama Ken,36.05,139.25
113468,川島町,かわじままち,"かわ,じま,まち",,Kawajima Machi,埼玉県,さいたまけん,"さい,たま,けん",Saitama Ken,35.96666667,139.4666667
113476,吉見町,よしみまち,"よし,み,まち",,Yoshimi Machi,埼玉県,さいたまけん,"さい,たま,けん",Saitama Ken,36.03333333,139.45
113484,鳩山町,はとやままち,"はと,やま,まち",,Hatoyama Machi,埼玉県,さいたまけん,"さい,たま,けん",Saitama Ken,35.96666667,139.3333333
113492,ときがわ町,ときがわまち,"ときがわ,まち",,Tokigawa Machi,埼玉県,さいたまけん,"さい,たま,けん",Saitama Ken,36,139.2833333
113611,横瀬町,よこぜまち,"よこ,ぜ,まち",,Yokoze Machi,埼玉県,さいたまけん,"さい,たま,けん",Saitama Ken,35.98333333,139.1
113620,皆野町,みなのまち,"みな,の,まち",,Minano Machi,埼玉県,さいたまけん,"さい,たま,けん",Saitama Ken,36.06666667,139.0833333
113638,長瀞町,ながとろまち,"なが,とろ,まち",,Nagatoro Machi,埼玉県,さいたまけん,"さい,たま,けん",Saitama Ken,36.1,139.1
113654,小鹿野町,おがのまち,"お,が,の,まち",,Ogano Machi,埼玉県,さいたまけん,"さい,たま,けん",Saitama Ken,36.01666667,139
113697,東秩父村,ひがしちちぶむら,"ひがし,ちち,ぶ,むら",,Higashichichibu Mura,埼玉県,さいたまけん,"さい,たま,けん",Saitama Ken,36.05,139.1833333
113816,美里町,みさとまち,"み,さと,まち",,Misato Machi,埼玉県,さいたまけん,"さい,たま,けん",Saitama Ken,36.16666667,139.1666667
113832,神川町,かみかわまち,"かみ,かわ,まち",,Kamikawa Machi,埼玉県,さいたまけん,"さい,たま,けん",Saitama Ken,36.2,139.1
113859,上里町,かみさとまち,"かみ,さと,まち",,Kamisato Machi,埼玉県,さいたまけん,"さい,たま,けん",Saitama Ken,36.25,139.1333333
114081,寄居町,よりいまち,"より,い,まち",,Yorii Machi,埼玉県,さいたまけん,"さい,たま,けん",Saitama Ken,36.11666667,139.1833333
114421,宮代町,みやしろまち,"みや,しろ,まち",,Miyashiro Machi,埼玉県,さいたまけん,"さい,たま,けん",Saitama Ken,36.01666667,139.7166667
114642,杉戸町,すぎとまち,"すぎ,と,まち",,Sugito Machi,埼玉県,さいたまけん,"さい,たま,けん",Saitama Ken,36.01666667,139.7333333
114651,松伏町,まつぶしまち,"まつ,ぶし,まち",,Matsubushi Machi,埼玉県,さいたまけん,"さい,たま,けん",Saitama Ken,35.91666667,139.8
121002,千葉市,ちばし,"ち,ば,し",,Chiba Shi,千葉県,ちばけん,"ち,ば,けん",Chiba Ken,35.6,140.1
122025,銚子市,ちょうしし,"ちょう,し,し",,Choshi Shi,千葉県,ちばけん,"ち,ば,けん",Chiba Ken,35.73333333,140.8166667
122033,市川市,いちかわし,"いち,かわ,し",,Ichikawa Shi,千葉県,ちばけん,"ち,ば,けん",Chiba Ken,35.71666667,139.9166667
122041,船橋市,ふなばしし,"ふな,ばし,し",,Funabashi Shi,千葉県,ちばけん,"ち,ば,けん",Chiba Ken,35.68333333,139.9666667
122050,館山市,たてやまし,"たて,やま,し",,Tateyama Shi,千葉県,ちばけん,"ち,ば,けん",Chiba Ken,34.98333333,139.8666667
122068,木更津市,きさらづし,"き,さら,づ,し",,Kisarazu Shi,千葉県,ちばけん,"ち,ば,けん",Chiba Ken,35.36666667,139.9166667
122076,松戸市,まつどし,"まつ,ど,し",,Matsudo Shi,千葉県,ちばけん,"ち,ば,けん",Chiba Ken,35.78333333,139.9
122084,野田市,のだし,"の,だ,し",,Noda Shi,千葉県,ちばけん,"ち,ば,けん",Chiba Ken,35.95,139.8666667
122106,茂原市,もばらし,"も,ばら,し",,Mobara Shi,千葉県,ちばけん,"ち,ば,けん",Chiba Ken,35.41666667,140.2833333
122114,成田市,なりたし,"なり,た,し",,Narita Shi,千葉県,ちばけん,"ち,ば,けん",Chiba Ken,35.76666667,140.3166667
122122,佐倉市,さくらし,"さ,くら,し",,Sakura Shi,千葉県,ちばけん,"ち,ば,けん",Chiba Ken,35.71666667,140.2166667
122131,東金市,とうがねし,"とう,がね,し",,Togane Shi,千葉県,ちばけん,"ち,ば,けん",Chiba Ken,35.55,140.35
122157,旭市,あさひし,"あさひ,し",,Asahi Shi,千葉県,ちばけん,"ち,ば,けん",Chiba Ken,35.71666667,140.6333333
122165,習志野市,ならしのし,"なら,し,の,し",,Narashino Shi,千葉県,ちばけん,"ち,ば,けん",Chiba Ken,35.66666667,140.0166667
122173,柏市,かしわし,"かしわ,し",,Kashiwa Shi,千葉県,ちばけん,"ち,ば,けん",Chiba Ken,35.86666667,139.9666667
122181,勝浦市,かつうらし,"かつ,うら,し",,Katsuura Shi,千葉県,ちばけん,"ち,ば,けん",Chiba Ken,35.15,140.3166667
122190,市原市,いちはらし,"いち,はら,し",,Ichihara Shi,千葉県,ちばけん,"ち,ば,けん",Chiba Ken,35.48333333,140.1
122203,流山市,ながれやまし,"ながれ,やま,し",,Nagareyama Shi,千葉県,ちばけん,"ち,ば,けん",Chiba Ken,35.85,139.9
122211,八千代市,やちよし,"や,ち,よ,し",,Yachiyo Shi,千葉県,ちばけん,"ち,ば,けん",Chiba Ken,35.71666667,140.0833333
122220,我孫子市,あびこし,"あ,び,こ,し",,Abiko Shi,千葉県,ちばけん,"ち,ば,けん",Chiba Ken,35.85,140.0166667
122238,鴨川市,かもがわし,"かも,がわ,し",,Kamogawa Shi,千葉県,ちばけん,"ち,ば,けん",Chiba Ken,35.1,140.0833333
122246,鎌ケ谷市,かまがやし,"かま,が,や,し",,Kamagaya Shi,千葉県,ちばけん,"ち,ば,けん",Chiba Ken,35.76666667,140
122254,君津市,きみつし,"きみ,つ,し",,Kimitsu Shi,千葉県,ちばけん,"ち,ば,けん",Chiba Ken,35.31666667,139.9
122262,富津市,ふっつし,"ふっ,つ,し",,Futtsu Shi,千葉県,ちばけん,"ち,ば,けん",Chiba Ken,35.3,139.85
122271,浦安市,うらやすし,"うら,やす,し",,Urayasu Shi,千葉県,ちばけん,"ち,ば,けん",Chiba Ken,35.65,139.9
122289,四街道市,よつかいどうし,"よつ,かい,どう,し",,Yotsukaido Shi,千葉県,ちばけん,"ち,ば,けん",Chiba Ken,35.66666667,140.1666667
122297,袖ケ浦市,そでがうらし,"そで,が,うら,し",,Sodegaura Shi,千葉県,ちばけん,"ち,ば,けん",Chiba Ken,35.41666667,139.95
122301,八街市,やちまたし,"やち,また,し",,Yachimata Shi,千葉県,ちばけん,"ち,ば,けん",Chiba Ken,35.65,140.3166667
122319,印西市,いんざいし,"いん,ざい,し",,Inzai Shi,千葉県,ちばけん,"ち,ば,けん",Chiba Ken,35.81666667,140.1333333
122327,白井市,しろいし,"しろ,い,し",,Shiroi Shi,千葉県,ちばけん,"ち,ば,けん",Chiba Ken,35.78333333,140.05
122335,富里市,とみさとし,"とみ,さと,し",,Tomisato Shi,千葉県,ちばけん,"ち,ば,けん",Chiba Ken,35.71666667,140.3333333
122343,南房総市,みなみぼうそうし,"みなみ,ぼう,そう,し",,Minamiboso Shi,千葉県,ちばけん,"ち,ば,けん",Chiba Ken,35.03333333,139.8333333
122351,匝瑳市,そうさし,"そう,さ,し",,Sosa Shi,千葉県,ちばけん,"ち,ば,けん",Chiba Ken,35.7,140.55
122360,香取市,かとりし,"か,とり,し",,Katori Shi,千葉県,ちばけん,"ち,ば,けん",Chiba Ken,35.88333333,140.4833333
122378,山武市,さんむし,"さん,む,し",,Sanmu Shi,千葉県,ちばけん,"ち,ば,けん",Chiba Ken,35.6,140.4
122386,いすみ市,いすみし,"いすみ,し",,Isumi Shi,千葉県,ちばけん,"ち,ば,けん",Chiba Ken,35.25,140.3833333
122394,大網白里市,おおあみしらさとし,"おお,あみ,しら,さと,し",,Oamishirasato Shi,千葉県,ちばけん,"ち,ば,けん",Chiba Ken,35.51666667,140.3166667
123226,酒々井町,しすいまち,"し,す,い,まち",,Shisui Machi,千葉県,ちばけん,"ち,ば,けん",Chiba Ken,35.71666667,140.2666667
123293,栄町,さかえまち,"さかえ,まち",,Sakae Machi,千葉県,ちばけん,"ち,ば,けん",Chiba Ken,35.83333333,140.2333333
123421,神崎町,こうざきまち,"こう,ざき,まち",,Kozaki Machi,千葉県,ちばけん,"ち,ば,けん",Chiba Ken,35.9,140.4
123471,多古町,たこまち,"た,こ,まち",,Tako Machi,千葉県,ちばけん,"ち,ば,けん",Chiba Ken,35.73333333,140.4666667
123498,東庄町,とうのしょうまち,"とうの,しょう,まち","Hidden particle (の): とう,の,しょう,まち",Tonosho Machi,千葉県,ちばけん,"ち,ば,けん",Chiba Ken,35.83333333,140.65
124036,九十九里町,くじゅうくりまち,"く,じゅう,く,り,まち",,Kujukuri Machi,千葉県,ちばけん,"ち,ば,けん",Chiba Ken,35.53333333,140.4333333
124095,芝山町,しばやままち,"しば,やま,まち",,Shibayama Machi,千葉県,ちばけん,"ち,ば,けん",Chiba Ken,35.68333333,140.4
124109,横芝光町,よこしばひかりまち,"よこ,しば,ひかり,まち",,Yokoshibahikari Machi,千葉県,ちばけん,"ち,ば,けん",Chiba Ken,35.65,140.5
124214,一宮町,いちのみやまち,"いちの,みや,まち","Hidden particle (の): いち,の,みや,まち",Ichinomiya Machi,千葉県,ちばけん,"ち,ば,けん",Chiba Ken,35.36666667,140.3666667
124222,睦沢町,むつざわまち,"むつ,ざわ,まち",,Mutsuzawa Machi,千葉県,ちばけん,"ち,ば,けん",Chiba Ken,35.35,140.3166667
124231,長生村,ちょうせいむら,"ちょう,せい,むら",,Chosei Mura,千葉県,ちばけん,"ち,ば,けん",Chiba Ken,35.4,140.35
124249,白子町,しらこまち,"しら,こ,まち",,Shirako Machi,千葉県,ちばけん,"ち,ば,けん",Chiba Ken,35.45,140.3666667
124265,長柄町,ながらまち,"なが,ら,まち",,Nagara Machi,千葉県,ちばけん,"ち,ば,けん",Chiba Ken,35.41666667,140.2166667
124273,長南町,ちょうなんまち,"ちょう,なん,まち",,Chonan Machi,千葉県,ちばけん,"ち,ば,けん",Chiba Ken,35.38333333,140.2333333
124419,大多喜町,おおたきまち,"おお,た,き,まち",,Otaki Machi,千葉県,ちばけん,"ち,ば,けん",Chiba Ken,35.28333333,140.2333333
124435,御宿町,おんじゅくまち,"おん,じゅく,まち",,Onjuku Machi,千葉県,ちばけん,"ち,ば,けん",Chiba Ken,35.18333333,140.3333333
124630,鋸南町,きょなんまち,"きょ,なん,まち",,Kyonan Machi,千葉県,ちばけん,"ち,ば,けん",Chiba Ken,35.1,139.8333333
131016,千代田区,ちよだく,"ち,よ,だ,く",,Chiyoda Ku,東京都,とうきょうと,"とう,きょう,と",Tokyo To,35.694003,139.753594
131024,中央区,ちゅうおうく,"ちゅう,おう,く",,Chuo Ku,東京都,とうきょうと,"とう,きょう,と",Tokyo To,35.666667,139.766667
131032,港区,みなとく,"みなと,く",,Minato Ku,東京都,とうきょうと,"とう,きょう,と",Tokyo To,35.658069,139.7516
131041,新宿区,しんじゅくく,"しん,じゅく,く",,Shinjuku Ku,東京都,とうきょうと,"とう,きょう,と",Tokyo To,35.701389,139.709722
131059,文京区,ぶんきょうく,"ぶん,きょう,く",,Bunkyo Ku,東京都,とうきょうと,"とう,きょう,と",Tokyo To,35.716667,139.75
131067,台東区,たいとうく,"たい,とう,く",,Taito Ku,東京都,とうきょうと,"とう,きょう,と",Tokyo To,35.7125,139.78
131075,墨田区,すみだく,"すみ,だ,く",,Sumida Ku,東京都,とうきょうと,"とう,きょう,と",Tokyo To,35.7,139.816667
131083,江東区,こうとうく,"こう,とう,く",,Koto Ku,東京都,とうきょうと,"とう,きょう,と",Tokyo To,35.666667,139.816667
131091,品川区,しながわく,"しな,がわ,く",,Shinagawa Ku,東京都,とうきょうと,"とう,きょう,と",Tokyo To,35.6,139.733333
131105,目黒区,めぐろく,"め,ぐろ,く",,Meguro Ku,東京都,とうきょうと,"とう,きょう,と",Tokyo To,35.633333,139.683333
131113,大田区,おおたく,"おお,た,く",,Ota Ku,東京都,とうきょうと,"とう,きょう,と",Tokyo To,35.561256,139.71605
131121,世田谷区,せたがやく,"せ,た,がや,く",,Setagaya Ku,東京都,とうきょうと,"とう,きょう,と",Tokyo To,35.646572,139.653247
131130,渋谷区,しぶやく,"しぶ,や,く",,Shibuya Ku,東京都,とうきょうと,"とう,きょう,と",Tokyo To,35.659444,139.700556
131148,中野区,なかのく,"なか,の,く",,Nakano Ku,東京都,とうきょうと,"とう,きょう,と",Tokyo To,35.707397,139.663836
131156,杉並区,すぎなみく,"すぎ,なみ,く",,Suginami Ku,東京都,とうきょうと,"とう,きょう,と",Tokyo To,35.683333,139.616667
131164,豊島区,としまく,"と,しま,く",,Toshima Ku,東京都,とうきょうと,"とう,きょう,と",Tokyo To,35.732458,139.715406
131172,北区,きたく,"きた,く",,Kita Ku,東京都,とうきょうと,"とう,きょう,と",Tokyo To,35.75,139.733333
131181,荒川区,あらかわく,"あら,かわ,く",,Arakawa Ku,東京都,とうきょうと,"とう,きょう,と",Tokyo To,35.733333,139.783333
131199,板橋区,いたばしく,"いた,ば,しく",,Itabashi Ku,東京都,とうきょうと,"とう,きょう,と",Tokyo To,35.766667,139.683333
131202,練馬区,ねりまく,"ねり,ま,く",,Nerima Ku,東京都,とうきょうと,"とう,きょう,と",Tokyo To,35.735622,139.651658
131211,足立区,あだちく,"あだ,ち,く",,Adachi Ku,東京都,とうきょうと,"とう,きょう,と",Tokyo To,35.783333,139.8
131229,葛飾区,かつしかく,"かつ,しか,く",,Katsushika Ku,東京都,とうきょうと,"とう,きょう,と",Tokyo To,35.733333,139.85
131237,江戸川区,えどがわく,"え,ど,がわ,く",,Edogawa,東京都,とうきょうと,"とう,きょう,と",Tokyo To,35.7,139.883333
132012,八王子市,はちおうじし,"はち,おう,じ,し",,Hachioji Shi,東京都,とうきょうと,"とう,きょう,と",Tokyo To,35.66666667,139.3
132021,立川市,たちかわし,"たち,かわ,し",,Tachikawa Shi,東京都,とうきょうと,"とう,きょう,と",Tokyo To,35.68333333,139.4166667
132039,武蔵野市,むさしのし,"む,さし,の,し",,Musashino Shi,東京都,とうきょうと,"とう,きょう,と",Tokyo To,35.71666667,139.55
132047,三鷹市,みたかし,"み,たか,し",,Mitaka Shi,東京都,とうきょうと,"とう,きょう,と",Tokyo To,35.68333333,139.55
132055,青梅市,おうめし,"お,うめ,し",,Ome Shi,東京都,とうきょうと,"とう,きょう,と",Tokyo To,35.78333333,139.2666667
132063,府中市,ふちゅうし,"ふ,ちゅう,し",,Fuchu Shi,東京都,とうきょうと,"とう,きょう,と",Tokyo To,35.66666667,139.4666667
132071,昭島市,あきしまし,"あき,しま,し",,Akishima Shi,東京都,とうきょうと,"とう,きょう,と",Tokyo To,35.7,139.35
132080,調布市,ちょうふし,"ちょう,ふ,し",,Chofu Shi,東京都,とうきょうと,"とう,きょう,と",Tokyo To,35.65,139.5333333
132098,町田市,まちだし,"まち,だ,し",,Machida Shi,東京都,とうきょうと,"とう,きょう,と",Tokyo To,35.53333333,139.4333333
132101,小金井市,こがねいし,"こ,がね,い,し",,Koganei Shi,東京都,とうきょうと,"とう,きょう,と",Tokyo To,35.68333333,139.5
132110,小平市,こだいらし,"こ,だいら,し",,Kodaira Shi,東京都,とうきょうと,"とう,きょう,と",Tokyo To,35.71666667,139.4666667
132128,日野市,ひのし,"ひ,の,し",,Hino Shi,東京都,とうきょうと,"とう,きょう,と",Tokyo To,35.66666667,139.3833333
132136,東村山市,ひがしむらやまし,"ひがし,むら,やま,し",,Higashimurayama Shi,東京都,とうきょうと,"とう,きょう,と",Tokyo To,35.75,139.4666667
132144,国分寺市,こくぶんじし,"こく,ぶん,じ,し",,Kokubunji Shi,東京都,とうきょうと,"とう,きょう,と",Tokyo To,35.7,139.45
132152,国立市,くにたちし,"くに,たち,し",,Kunitachi Shi,東京都,とうきょうと,"とう,きょう,と",Tokyo To,35.68333333,139.4333333
132187,福生市,ふっさし,"ふっ,さ,し",,Fussa Shi,東京都,とうきょうと,"とう,きょう,と",Tokyo To,35.73333333,139.3166667
132195,狛江市,こまえし,"こま,え,し",,Komae Shi,東京都,とうきょうと,"とう,きょう,と",Tokyo To,35.63333333,139.5666667
132209,東大和市,ひがしやまとし,"ひがし,やまと,し",Irregular reading: 大和 (やまと) does not decompose to two separate kanji readings,Higashiyamato Shi,東京都,とうきょうと,"とう,きょう,と",Tokyo To,35.73333333,139.4166667
132217,清瀬市,きよせし,"きよ,せ,し",,Kiyose Shi,東京都,とうきょうと,"とう,きょう,と",Tokyo To,35.78333333,139.5166667
132225,東久留米市,ひがしくるめし,"ひがし,く,る,め,し",,Higashikurume Shi,東京都,とうきょうと,"とう,きょう,と",Tokyo To,35.75,139.5166667
132233,武蔵村山市,むさしむらやまし,"む,さし,むら,やま,し",,Musashimurayama Shi,東京都,とうきょうと,"とう,きょう,と",Tokyo To,35.75,139.3833333
132241,多摩市,たまし,"た,ま,し",,Tama Shi,東京都,とうきょうと,"とう,きょう,と",Tokyo To,35.63333333,139.4333333
132250,稲城市,いなぎし,"いな,ぎ,し",,Inagi Shi,東京都,とうきょうと,"とう,きょう,と",Tokyo To,35.63333333,139.5
132276,羽村市,はむらし,"は,むら,し",,Hamura Shi,東京都,とうきょうと,"とう,きょう,と",Tokyo To,35.76666667,139.3
132284,あきる野市,あきるのし,"あきる,の,し",,Akiruno Shi,東京都,とうきょうと,"とう,きょう,と",Tokyo To,35.71666667,139.2833333
132292,西東京市,にしとうきょうし,"にし,とう,きょう,し",,Nishitokyo Shi,東京都,とうきょうと,"とう,きょう,と",Tokyo To,35.71666667,139.5333333
133035,瑞穂町,みずほまち,"みず,ほ,まち",,Mizuho Machi,東京都,とうきょうと,"とう,きょう,と",Tokyo To,35.76666667,139.35
133051,日の出町,ひのでまち,"ひ,の,で,まち",,Hinode Machi,東京都,とうきょうと,"とう,きょう,と",Tokyo To,35.73333333,139.25
133078,檜原村,ひのはらむら,"ひの,はら,むら",,Hinohara Mura,東京都,とうきょうと,"とう,きょう,と",Tokyo To,35.71666667,139.1333333
133086,奥多摩町,おくたままち,"おく,た,ま,まち",,Okutama Machi,東京都,とうきょうと,"とう,きょう,と",Tokyo To,35.8,139.0833333
133612,大島町,おおしままち,"おお,しま,まち",,Oshima Machi,東京都,とうきょうと,"とう,きょう,と",Tokyo To,34.75,139.35
133621,利島村,としまむら,"と,しま,むら",,Toshima Mura,東京都,とうきょうと,"とう,きょう,と",Tokyo To,34.51666667,139.2666667
133639,新島村,にいじまむら,"にい,じま,むら",,Niijima Mura,東京都,とうきょうと,"とう,きょう,と",Tokyo To,34.36666667,139.25
133647,神津島村,こうづしまむら,"こう,づ,しま,むら",,Kozushima Mura,東京都,とうきょうと,"とう,きょう,と",Tokyo To,34.2,139.1333333
133817,三宅村,みやけむら,"み,やけ,むら",,Miyake Mura,東京都,とうきょうと,"とう,きょう,と",Tokyo To,34.06666667,139.55
133825,御蔵島村,みくらじまむら,"み,くら,じま,むら",,Mikurajima Mura,東京都,とうきょうと,"とう,きょう,と",Tokyo To,33.88333333,139.5833333
134015,八丈町,はちじょうまち,"はち,じょう,まち",,Hachijo Machi,東京都,とうきょうと,"とう,きょう,と",Tokyo To,33.1,139.7833333
134023,青ヶ島村,,"あお,が,しま",,Aogashima,東京都,とうきょうと,"とう,きょう,と",Tokyo To,32.466361,139.763361
134210,小笠原村,おがさわらむら,"お,がさ,わら,むら",,Ogasawara Mura,東京都,とうきょうと,"とう,きょう,と",Tokyo To,27.08333333,142.1833333
141003,横浜市,よこはまし,"よこ,はま,し",,Yokohama Shi,神奈川県,かながわけん,"か,な,がわ,けん",Kanagawa Ken,35.43333333,139.6333333
141305,川崎市,かわさきし,"かわ,さき,し",,Kawasaki Shi,神奈川県,かながわけん,"か,な,がわ,けん",Kanagawa Ken,35.51666667,139.7
141500,相模原市,さがみはらし,"さが,み,はら,し",,Sagamihara Shi,神奈川県,かながわけん,"か,な,がわ,けん",Kanagawa Ken,35.56666667,139.3666667
142018,横須賀市,よこすかし,"よこ,す,か,し",,Yokosuka Shi,神奈川県,かながわけん,"か,な,がわ,けん",Kanagawa Ken,35.26666667,139.6666667
142034,平塚市,ひらつかし,"ひら,つか,し",,Hiratsuka Shi,神奈川県,かながわけん,"か,な,がわ,けん",Kanagawa Ken,35.33333333,139.3333333
142042,鎌倉市,かまくらし,"かま,くら,し",,Kamakura Shi,神奈川県,かながわけん,"か,な,がわ,けん",Kanagawa Ken,35.31666667,139.5333333
142051,藤沢市,ふじさわし,"ふじ,さわ,し",,Fujisawa Shi,神奈川県,かながわけん,"か,な,がわ,けん",Kanagawa Ken,35.33333333,139.4833333
142069,小田原市,おだわらし,"お,だ,わら,し",,Odawara Shi,神奈川県,かながわけん,"か,な,がわ,けん",Kanagawa Ken,35.25,139.15
142077,茅ヶ崎市,ちがさきし,"ち,が,さき,し",,Chigasaki Shi,神奈川県,かながわけん,"か,な,がわ,けん",Kanagawa Ken,35.33333333,139.4
142085,逗子市,ずしし,"ず,し,し",,Zushi Shi,神奈川県,かながわけん,"か,な,がわ,けん",Kanagawa Ken,35.28333333,139.5666667
142107,三浦市,みうらし,"み,うら,し",,Miura Shi,神奈川県,かながわけん,"か,な,がわ,けん",Kanagawa Ken,35.13333333,139.6166667
142115,秦野市,はだのし,"はだ,の,し",,Hadano Shi,神奈川県,かながわけん,"か,な,がわ,けん",Kanagawa Ken,35.36666667,139.2166667
142123,厚木市,あつぎし,"あつ,ぎ,し",,Atsugi Shi,神奈川県,かながわけん,"か,な,がわ,けん",Kanagawa Ken,35.43333333,139.35
142131,大和市,やまとし,"やまと,し",Irregular reading: 大和 (やまと) does not decompose to two separate kanji readings,Yamato Shi,神奈川県,かながわけん,"か,な,がわ,けん",Kanagawa Ken,35.48333333,139.45
142140,伊勢原市,いせはらし,"い,せ,はら,し",,Isehara Shi,神奈川県,かながわけん,"か,な,がわ,けん",Kanagawa Ken,35.4,139.3
142158,海老名市,えびなし,"え,び,な,し",,Ebina Shi,神奈川県,かながわけん,"か,な,がわ,けん",Kanagawa Ken,35.43333333,139.3833333
142166,座間市,ざまし,"ざ,ま,し",,Zama Shi,神奈川県,かながわけん,"か,な,がわ,けん",Kanagawa Ken,35.48333333,139.4
142174,南足柄市,みなみあしがらし,"みなみ,あし,がら,し",,Minamiashigara Shi,神奈川県,かながわけん,"か,な,がわ,けん",Kanagawa Ken,35.31666667,139.1
142182,綾瀬市,あやせし,"あ,やせ,し",,Ayase Shi,神奈川県,かながわけん,"か,な,がわ,けん",Kanagawa Ken,35.43333333,139.4166667
143014,葉山町,はやままち,"は,やま,まち",,Hayama Machi,神奈川県,かながわけん,"か,な,がわ,けん",Kanagawa Ken,35.26666667,139.5833333
143219,寒川町,さむかわまち,"さむ,かわ,まち",,Samukawa Machi,神奈川県,かながわけん,"か,な,がわ,けん",Kanagawa Ken,35.36666667,139.3833333
143413,大磯町,おおいそまち,"おお,いそ,まち",,Oiso Machi,神奈川県,かながわけん,"か,な,がわ,けん",Kanagawa Ken,35.3,139.3
143618,中井町,なかいまち,"なか,い,まち",,Nakai Machi,神奈川県,かながわけん,"か,な,がわ,けん",Kanagawa Ken,35.31666667,139.2166667
143626,大井町,おおいまち,"おお,い,まち",,Oi Machi,神奈川県,かながわけん,"か,な,がわ,けん",Kanagawa Ken,35.31666667,139.15
143634,松田町,まつだまち,"まつ,だ,まち",,Matsuda Machi,神奈川県,かながわけん,"か,な,がわ,けん",Kanagawa Ken,35.33333333,139.1333333
143669,開成町,かいせいまち,"かい,せい,まち",,Kaisei Machi,神奈川県,かながわけん,"か,な,がわ,けん",Kanagawa Ken,35.33333333,139.1166667
143821,箱根町,はこねまち,"はこ,ね,まち",,Hakone Machi,神奈川県,かながわけん,"か,な,がわ,けん",Kanagawa Ken,35.21666667,139.1
143839,真鶴町,まなづるまち,"ま,なづる,まち",,Manazuru Machi,神奈川県,かながわけん,"か,な,がわ,けん",Kanagawa Ken,35.15,139.1333333
143847,湯河原町,ゆがわらまち,"ゆ,がわ,ら,まち",,Yugawara Machi,神奈川県,かながわけん,"か,な,がわ,けん",Kanagawa Ken,35.13333333,139.1
144011,愛川町,あいかわまち,"あい,かわ,まち",,Aikawa Machi,神奈川県,かながわけん,"か,な,がわ,けん",Kanagawa Ken,35.51666667,139.3166667
144029,清川村,きよかわむら,"きよ,かわ,むら",,Kiyokawa Mura,神奈川県,かながわけん,"か,な,がわ,けん",Kanagawa Ken,35.46666667,139.2666667
151009,新潟市,にいがたし,"にい,がた,し",,Niigata Shi,新潟県,にいがたけん,"にい,がた,けん",Niigata Ken,37.9,139.0333333
152021,長岡市,ながおかし,"なが,おか,し",,Nagaoka Shi,新潟県,にいがたけん,"にい,がた,けん",Niigata Ken,37.43333333,138.8333333
152048,三条市,さんじょうし,"さん,じょう,し",,Sanjo Shi,新潟県,にいがたけん,"にい,がた,けん",Niigata Ken,37.63333333,138.95
152056,柏崎市,かしわざきし,"かしわ,ざき,し",,Kashiwazaki Shi,新潟県,にいがたけん,"にい,がた,けん",Niigata Ken,37.36666667,138.55
152064,新発田市,しばたし,"し,ば,た,し",,Shibata Shi,新潟県,にいがたけん,"にい,がた,けん",Niigata Ken,37.95,139.3166667
152081,小千谷市,おぢやし,"お,ぢ,や,し",,Ojiya Shi,新潟県,にいがたけん,"にい,がた,けん",Niigata Ken,37.3,138.7833333
152099,加茂市,かもし,"か,も,し",,Kamo Shi,新潟県,にいがたけん,"にい,がた,けん",Niigata Ken,37.65,139.0333333
152102,十日町市,とおかまちし,"とお,か,まち,し",,Tokamachi Shi,新潟県,にいがたけん,"にい,がた,けん",Niigata Ken,37.11666667,138.75
152111,見附市,みつけし,"み,つけ,し",,Mitsuke Shi,新潟県,にいがたけん,"にい,がた,けん",Niigata Ken,37.51666667,138.9
152129,村上市,むらかみし,"むら,かみ,し",,Murakami Shi,新潟県,にいがたけん,"にい,がた,けん",Niigata Ken,38.21666667,139.4666667
152137,燕市,つばめし,"つばめ,し",,Tsubame Shi,新潟県,にいがたけん,"にい,がた,けん",Niigata Ken,37.68333333,138.8666667
152161,糸魚川市,いといがわし,"いと,い,がわ,し",,Itoigawa Shi,新潟県,にいがたけん,"にい,がた,けん",Niigata Ken,37.03333333,137.85
152170,妙高市,みょうこうし,"みょう,こう,し",,Myoko Shi,新潟県,にいがたけん,"にい,がた,けん",Niigata Ken,37.01666667,138.25
152188,五泉市,ごせんし,"ご,せん,し",,Gosen Shi,新潟県,にいがたけん,"にい,がた,けん",Niigata Ken,37.73333333,139.1666667
152226,上越市,じょうえつし,"じょう,えつ,し",,Joetsu Shi,新潟県,にいがたけん,"にい,がた,けん",Niigata Ken,37.13333333,138.2333333
152234,阿賀野市,あがのし,"あ,が,の,し",,Agano Shi,新潟県,にいがたけん,"にい,がた,けん",Niigata Ken,37.83333333,139.2166667
152242,佐渡市,さどし,"さ,ど,し",,Sado Shi,新潟県,にいがたけん,"にい,がた,けん",Niigata Ken,38.01666667,138.3666667
152251,魚沼市,うおぬまし,"うお,ぬま,し",,Uonuma Shi,新潟県,にいがたけん,"にい,がた,けん",Niigata Ken,37.21666667,138.95
152269,南魚沼市,みなみうおぬまし,"みなみ,うお,ぬま,し",,Minamiuonuma Shi,新潟県,にいがたけん,"にい,がた,けん",Niigata Ken,37.05,138.8666667
152277,胎内市,たいないし,"たい,ない,し",,Tainai Shi,新潟県,にいがたけん,"にい,がた,けん",Niigata Ken,38.05,139.4
153079,聖籠町,せいろうまち,"せい,ろう,まち",,Seiro Machi,新潟県,にいがたけん,"にい,がた,けん",Niigata Ken,37.96666667,139.2666667
153427,弥彦村,やひこむら,"や,ひこ,むら",,Yahiko Mura,新潟県,にいがたけん,"にい,がた,けん",Niigata Ken,37.68333333,138.85
153613,田上町,たがみまち,"た,がみ,まち",,Tagami Machi,新潟県,にいがたけん,"にい,がた,けん",Niigata Ken,37.68333333,139.05
153851,阿賀町,あがまち,"あ,が,まち",,Aga Machi,新潟県,にいがたけん,"にい,がた,けん",Niigata Ken,37.66666667,139.45
154059,出雲崎町,いずもざきまち,"い,ずも,ざき,まち","Kanji readings may also be decomposable to いず,も,ざき,まち",Izumozaki Machi,新潟県,にいがたけん,"にい,がた,けん",Niigata Ken,37.51666667,138.7
154610,湯沢町,ゆざわまち,"ゆ,ざわ,まち",,Yuzawa Machi,新潟県,にいがたけん,"にい,がた,けん",Niigata Ken,36.93333333,138.8166667
154822,津南町,つなんまち,"つ,なん,まち",,Tsunan Machi,新潟県,にいがたけん,"にい,がた,けん",Niigata Ken,37,138.65
155047,刈羽村,かりわむら,"かり,わ,むら",,Kariwa Mura,新潟県,にいがたけん,"にい,がた,けん",Niigata Ken,37.41666667,138.6166667
155811,関川村,せきかわむら,"せき,かわ,むら",,Sekikawa Mura,新潟県,にいがたけん,"にい,がた,けん",Niigata Ken,38.08333333,139.55
155861,粟島浦村,あわしまうらむら,"あわ,しま,うら,むら",,Awashimaura Mura,新潟県,にいがたけん,"にい,がた,けん",Niigata Ken,38.46666667,139.25
162019,富山市,とやまし,"と,や,まし",,Toyama Shi,富山県,とやまけん,"と,やま,けん",Toyama Ken,36.68333333,137.2
162027,高岡市,たかおかし,"たか,おか,し",,Takaoka Shi,富山県,とやまけん,"と,やま,けん",Toyama Ken,36.75,137.0166667
162043,魚津市,うおづし,"うお,づ,し",,Uozu Shi,富山県,とやまけん,"と,やま,けん",Toyama Ken,36.81666667,137.4
162051,氷見市,ひみし,"ひ,み,し",,Himi Shi,富山県,とやまけん,"と,やま,けん",Toyama Ken,36.85,136.9833333
162060,滑川市,なめりかわし,"なめり,かわ,し",,Namerikawa Shi,富山県,とやまけん,"と,やま,けん",Toyama Ken,36.75,137.3333333
162078,黒部市,くろべし,"くろ,べ,し",,Kurobe Shi,富山県,とやまけん,"と,やま,けん",Toyama Ken,36.86666667,137.4333333
162086,砺波市,となみし,"と,なみ,し",,Tonami Shi,富山県,とやまけん,"と,やま,けん",Toyama Ken,36.63333333,136.95
162094,小矢部市,おやべし,"お,や,べ,し",,Oyabe Shi,富山県,とやまけん,"と,やま,けん",Toyama Ken,36.66666667,136.8666667
162108,南砺市,なんとし,"なん,と,し",,Nanto Shi,富山県,とやまけん,"と,やま,けん",Toyama Ken,36.58333333,136.9166667
162116,射水市,いみずし,"い,みず,し",,Imizu Shi,富山県,とやまけん,"と,やま,けん",Toyama Ken,36.7,137.0833333
163210,舟橋村,ふなはしむら,"ふな,はし,むら",,Funahashi Mura,富山県,とやまけん,"と,やま,けん",Toyama Ken,36.7,137.3
163228,上市町,かみいちまち,"かみ,いち,まち",,Kamiichi Machi,富山県,とやまけん,"と,やま,けん",Toyama Ken,36.68333333,137.35
163236,立山町,たてやままち,"たて,やま,まち",,Tateyama Machi,富山県,とやまけん,"と,やま,けん",Toyama Ken,36.65,137.3
163422,入善町,にゅうぜんまち,"にゅう,ぜん,まち",,Nyuzen Machi,富山県,とやまけん,"と,やま,けん",Toyama Ken,36.93333333,137.5
163431,朝日町,あさひまち,"あさ,ひ,まち",,Asahi Machi,富山県,とやまけん,"と,やま,けん",Toyama Ken,36.93333333,137.55
172014,金沢市,かなざわし,"かな,ざわ,し",,Kanazawa Shi,石川県,いしかわけん,"いし,かわ,けん",Ishikawa Ken,36.55,136.65
172022,七尾市,ななおし,"なな,お,し",,Nanao Shi,石川県,いしかわけん,"いし,かわ,けん",Ishikawa Ken,37.03333333,136.9666667
172031,小松市,こまつし,"こ,まつ,し",,Komatsu Shi,石川県,いしかわけん,"いし,かわ,けん",Ishikawa Ken,36.4,136.4333333
172049,輪島市,わじまし,"わ,じま,し",,Wajima Shi,石川県,いしかわけん,"いし,かわ,けん",Ishikawa Ken,37.38333333,136.8833333
172057,珠洲市,すずし,"す,ず,し",,Suzu Shi,石川県,いしかわけん,"いし,かわ,けん",Ishikawa Ken,37.43333333,137.25
172065,加賀市,かがし,"か,が,し",,Kaga Shi,石川県,いしかわけん,"いし,かわ,けん",Ishikawa Ken,36.3,136.3
172073,羽咋市,はくいし,"は,くい,し",,Hakui Shi,石川県,いしかわけん,"いし,かわ,けん",Ishikawa Ken,36.88333333,136.7666667
172090,かほく市,かほくし,"かほく,し",,Kahoku Shi,石川県,いしかわけん,"いし,かわ,けん",Ishikawa Ken,36.71666667,136.7
172103,白山市,はくさんし,"はく,さん,し",,Hakusan Shi,石川県,いしかわけん,"いし,かわ,けん",Ishikawa Ken,36.5,136.55
172111,能美市,のみし,"の,み,し",,Nomi Shi,石川県,いしかわけん,"いし,かわ,けん",Ishikawa Ken,36.43333333,136.4833333
172120,野々市市,ののいちし,"の,の,いち,し",,Nonoichi Shi,石川県,いしかわけん,"いし,かわ,けん",Ishikawa Ken,36.51666667,136.6166667
173240,川北町,かわきたまち,"かわ,きた,まち",,Kawakita Machi,石川県,いしかわけん,"いし,かわ,けん",Ishikawa Ken,36.46666667,136.5333333
173614,津幡町,つばたまち,"つ,ばた,まち",,Tsubata Machi,石川県,いしかわけん,"いし,かわ,けん",Ishikawa Ken,36.66666667,136.7166667
173657,内灘町,うちなだまち,"うち,なだ,まち",,Uchinada Machi,石川県,いしかわけん,"いし,かわ,けん",Ishikawa Ken,36.65,136.6333333
173843,志賀町,しかまち,"し,か,まち",,Shika Machi,石川県,いしかわけん,"いし,かわ,けん",Ishikawa Ken,37,136.7666667
173860,宝達志水町,ほうだつしみずちょう,"ほう,だつ,し,みず,ちょう",,Hodatsushimizu Cho,石川県,いしかわけん,"いし,かわ,けん",Ishikawa Ken,36.85,136.7833333
174076,中能登町,なかのとまち,"なか,の,と,まち",,Nakanoto Machi,石川県,いしかわけん,"いし,かわ,けん",Ishikawa Ken,36.98333333,136.9
174611,穴水町,あなみずまち,"あな,みず,まち",,Anamizu Machi,石川県,いしかわけん,"いし,かわ,けん",Ishikawa Ken,37.21666667,136.9
174637,能登町,のとちょう,"の,と,ちょう",,Noto Cho,石川県,いしかわけん,"いし,かわ,けん",Ishikawa Ken,37.3,137.15
182010,福井市,ふくいし,"ふく,い,し",,Fukui Shi,福井県,ふくいけん,"ふく,い,けん",Fukui Ken,36.05,136.2166667
182028,敦賀市,つるがし,"つる,が,し",,Tsuruga Shi,福井県,ふくいけん,"ふく,い,けん",Fukui Ken,35.63333333,136.05
182044,小浜市,おばまし,"お,ばま,し",,Obama Shi,福井県,ふくいけん,"ふく,い,けん",Fukui Ken,35.48333333,135.7333333
182052,大野市,おおのし,"おお,の,し",,Ono Shi,福井県,ふくいけん,"ふく,い,けん",Fukui Ken,35.96666667,136.4833333
182061,勝山市,かつやまし,"かつ,やま,し",,Katsuyama Shi,福井県,ふくいけん,"ふく,い,けん",Fukui Ken,36.05,136.5
182079,鯖江市,さばえし,"さば,え,し",,Sabae Shi,福井県,ふくいけん,"ふく,い,けん",Fukui Ken,35.95,136.1833333
182087,あわら市,あわらし,"あわら,し",,Awara Shi,福井県,ふくいけん,"ふく,い,けん",Fukui Ken,36.2,136.2166667
182095,越前市,えちぜんし,"えち,ぜん,し",,Echizen Shi,福井県,ふくいけん,"ふく,い,けん",Fukui Ken,35.9,136.1666667
182109,坂井市,さかいし,"さか,い,し",,Sakai Shi,福井県,ふくいけん,"ふく,い,けん",Fukui Ken,36.16666667,136.2166667
183229,永平寺町,えいへいじちょう,"えい,へい,じ,ちょう",,Eiheiji Cho,福井県,ふくいけん,"ふく,い,けん",Fukui Ken,36.08333333,136.2833333
183822,池田町,いけだちょう,"いけ,だ,ちょう",,Ikeda Cho,福井県,ふくいけん,"ふく,い,けん",Fukui Ken,35.88333333,136.3333333
184047,南越前町,みなみえちぜんちょう,"みなみ,えち,ぜん,ちょう",,Minamiechizen Cho,福井県,ふくいけん,"ふく,い,けん",Fukui Ken,35.83333333,136.1833333
184233,越前町,えちぜんちょう,"えち,ぜん,ちょう",,Echizen Cho,福井県,ふくいけん,"ふく,い,けん",Fukui Ken,35.96666667,136.1166667
184420,美浜町,みはまちょう,"み,はま,ちょう",,Mihama Cho,福井県,ふくいけん,"ふく,い,けん",Fukui Ken,35.6,135.9333333
184811,高浜町,たかはまちょう,"たか,はま,ちょう",,Takahama Cho,福井県,ふくいけん,"ふく,い,けん",Fukui Ken,35.48333333,135.55
184837,おおい町,おおいちょう,"おおい,ちょう",,Oi Cho,福井県,ふくいけん,"ふく,い,けん",Fukui Ken,35.46666667,135.6166667
185019,若狭町,わかさちょう,"わか,さ,ちょう",,Wakasa Cho,福井県,ふくいけん,"ふく,い,けん",Fukui Ken,35.53333333,135.9
192015,甲府市,こうふし,"こう,ふ,し",,Kofu Shi,山梨県,やまなしけん,"やま,なし,けん",Yamanashi Ken,35.65,138.5666667
192023,富士吉田市,ふじよしだし,"ふ,じ,よし,だ,し",,Fujiyoshida Shi,山梨県,やまなしけん,"やま,なし,けん",Yamanashi Ken,35.48333333,138.8
192040,都留市,つるし,"つ,る,し",,Tsuru Shi,山梨県,やまなしけん,"やま,なし,けん",Yamanashi Ken,35.55,138.9
192058,山梨市,やまなしし,"やま,なし,し",,Yamanashi Shi,山梨県,やまなしけん,"やま,なし,けん",Yamanashi Ken,35.68333333,138.6833333
192066,大月市,おおつきし,"おお,つき,し",,Otsuki Shi,山梨県,やまなしけん,"やま,なし,けん",Yamanashi Ken,35.6,138.9333333
192074,韮崎市,にらさきし,"にら,さき,し",,Nirasaki Shi,山梨県,やまなしけん,"やま,なし,けん",Yamanashi Ken,35.7,138.4333333
192082,南アルプス市,みなみあるぷすし,"みなみ,あるぷす,し",,Minami-alps Shi,山梨県,やまなしけん,"やま,なし,けん",Yamanashi Ken,35.6,138.45
192091,北杜市,ほくとし,"ほく,と,し",,Hokuto Shi,山梨県,やまなしけん,"やま,なし,けん",Yamanashi Ken,35.76666667,138.4166667
192104,甲斐市,かいし,"か,い,し",,Kai Shi,山梨県,やまなしけん,"やま,なし,けん",Yamanashi Ken,35.65,138.5
192112,笛吹市,ふえふきし,"ふえ,ふき,し",,Fuefuki Shi,山梨県,やまなしけん,"やま,なし,けん",Yamanashi Ken,35.63333333,138.6333333
192121,上野原市,うえのはらし,"うえ,の,はら,し",,Uenohara Shi,山梨県,やまなしけん,"やま,なし,けん",Yamanashi Ken,35.61666667,139.1
192139,甲州市,こうしゅうし,"こう,しゅう,し",,Koshu Shi,山梨県,やまなしけん,"やま,なし,けん",Yamanashi Ken,35.7,138.7166667
192147,中央市,ちゅうおうし,"ちゅう,おう,し",,Chuo Shi,山梨県,やまなしけん,"やま,なし,けん",Yamanashi Ken,35.58333333,138.5166667
193461,市川三郷町,いちかわみさとちょう,"いち,かわ,み,さと,ちょう",,Ichikawamisato Cho,山梨県,やまなしけん,"やま,なし,けん",Yamanashi Ken,35.55,138.5
193640,早川町,はやかわちょう,"はや,かわ,ちょう",,Hayakawa Cho,山梨県,やまなしけん,"やま,なし,けん",Yamanashi Ken,35.4,138.35
193658,身延町,みのぶちょう,"み,のぶ,ちょう",,Minobu Cho,山梨県,やまなしけん,"やま,なし,けん",Yamanashi Ken,35.46666667,138.4333333
193666,南部町,なんぶちょう,"なん,ぶ,ちょう",,Nanbu Cho,山梨県,やまなしけん,"やま,なし,けん",Yamanashi Ken,35.23333333,138.4833333
193844,昭和町,しょうわちょう,"しょう,わ,ちょう",,Showa Cho,山梨県,やまなしけん,"やま,なし,けん",Yamanashi Ken,35.61666667,138.5333333
194221,道志村,どうしむら,"どう,し,むら",,Doshi Mura,山梨県,やまなしけん,"やま,なし,けん",Yamanashi Ken,35.51666667,139.0333333
194239,西桂町,にしかつらちょう,"にし,かつら,ちょう",,Nishikatsura Cho,山梨県,やまなしけん,"やま,なし,けん",Yamanashi Ken,35.51666667,138.8333333
194247,忍野村,おしのむら,"おし,の,むら",,Oshino Mura,山梨県,やまなしけん,"やま,なし,けん",Yamanashi Ken,35.45,138.8333333
194255,山中湖村,やまなかこむら,"やま,なか,こ,むら",,Yamanakako Mura,山梨県,やまなしけん,"やま,なし,けん",Yamanashi Ken,35.4,138.85
194298,鳴沢村,なるさわむら,"なる,さわ,むら",,Narusawa Mura,山梨県,やまなしけん,"やま,なし,けん",Yamanashi Ken,35.46666667,138.7
194301,富士河口湖町,ふじかわぐちこまち,"ふ,じ,かわ,ぐち,こ,まち",,Fujikawaguchiko Machi,山梨県,やまなしけん,"やま,なし,けん",Yamanashi Ken,35.5,138.75
194425,小菅村,こすげむら,"こ,すげ,むら",,Kosuge Mura,山梨県,やまなしけん,"やま,なし,けん",Yamanashi Ken,35.75,138.9333333
194433,丹波山村,たばやまむら,"た,ば,やま,むら",,Tabayama Mura,山梨県,やまなしけん,"やま,なし,けん",Yamanashi Ken,35.78333333,138.9166667
202011,長野市,ながのし,"なが,の,し",,Nagano Shi,長野県,ながのけん,"なが,の,けん",Nagano Ken,36.63333333,138.1833333
202029,松本市,まつもとし,"まつ,もと,し",,Matsumoto Shi,長野県,ながのけん,"なが,の,けん",Nagano Ken,36.23333333,137.9666667
202037,上田市,うえだし,"うえ,だ,し",,Ueda Shi,長野県,ながのけん,"なが,の,けん",Nagano Ken,36.4,138.2333333
202045,岡谷市,おかやし,"おか,や,し",,Okaya Shi,長野県,ながのけん,"なが,の,けん",Nagano Ken,36.06666667,138.0333333
202053,飯田市,いいだし,"いい,だ,し",,Iida Shi,長野県,ながのけん,"なが,の,けん",Nagano Ken,35.5,137.8166667
202061,諏訪市,すわし,"す,わ,し",,Suwa Shi,長野県,ながのけん,"なが,の,けん",Nagano Ken,36.03333333,138.1
202070,須坂市,すざかし,"す,ざか,し",,Suzaka Shi,長野県,ながのけん,"なが,の,けん",Nagano Ken,36.65,138.3
202088,小諸市,こもろし,"こ,もろ,し",,Komoro Shi,長野県,ながのけん,"なが,の,けん",Nagano Ken,36.31666667,138.4166667
202096,伊那市,いなし,"い,な,し",,Ina Shi,長野県,ながのけん,"なが,の,けん",Nagano Ken,35.81666667,137.95
202100,駒ヶ根市,こまがねし,"こま,が,ね,し",,Komagane Shi,長野県,ながのけん,"なが,の,けん",Nagano Ken,35.71666667,137.9333333
202118,中野市,なかのし,"なか,の,し",,Nakano Shi,長野県,ながのけん,"なが,の,けん",Nagano Ken,36.73333333,138.3666667
202126,大町市,おおまちし,"おお,まち,し",,Omachi Shi,長野県,ながのけん,"なが,の,けん",Nagano Ken,36.5,137.85
202134,飯山市,いいやまし,"いい,やま,し",,Iiyama Shi,長野県,ながのけん,"なが,の,けん",Nagano Ken,36.85,138.35
202142,茅野市,ちのし,"ち,の,し",,Chino Shi,長野県,ながのけん,"なが,の,けん",Nagano Ken,35.98333333,138.15
202151,塩尻市,しおじりし,"しお,じり,し",,Shiojiri Shi,長野県,ながのけん,"なが,の,けん",Nagano Ken,36.1,137.95
202177,佐久市,さくし,"さ,く,し",,Saku Shi,長野県,ながのけん,"なが,の,けん",Nagano Ken,36.23333333,138.4666667
202185,千曲市,ちくまし,"ち,くま,し",,Chikuma Shi,長野県,ながのけん,"なが,の,けん",Nagano Ken,36.53333333,138.1166667
202193,東御市,とうみし,"とう,み,し",,Tomi Shi,長野県,ながのけん,"なが,の,けん",Nagano Ken,36.35,138.3166667
202207,安曇野市,あづみのし,"あ,づみ,の,し",,Azumino Shi,長野県,ながのけん,"なが,の,けん",Nagano Ken,36.3,137.8833333
203033,小海町,こうみまち,"こ,うみ,まち",,Koumi Machi,長野県,ながのけん,"なが,の,けん",Nagano Ken,36.08333333,138.4666667
203041,川上村,かわかみむら,"かわ,かみ,むら",,Kawakami Mura,長野県,ながのけん,"なが,の,けん",Nagano Ken,35.96666667,138.5666667
203050,南牧村,みなみまきむら,"みなみ,まき,むら",,Minamimaki Mura,長野県,ながのけん,"なが,の,けん",Nagano Ken,36.01666667,138.4833333
203068,南相木村,みなみあいきむら,"みなみ,あい,き,むら",,Minamiaiki Mura,長野県,ながのけん,"なが,の,けん",Nagano Ken,36.03333333,138.5333333
203076,北相木村,きたあいきむら,"きた,あい,き,むら",,Kitaaiki Mura,長野県,ながのけん,"なが,の,けん",Nagano Ken,36.05,138.55
203092,佐久穂町,さくほまち,"さ,く,ほ,まち",,Sakuho Machi,長野県,ながのけん,"なが,の,けん",Nagano Ken,36.15,138.4833333
203211,軽井沢町,かるいざわまち,"かる,い,ざわ,まち",,Karuizawa Machi,長野県,ながのけん,"なが,の,けん",Nagano Ken,36.33333333,138.5833333
203238,御代田町,みよたまち,"み,よ,た,まち",,Miyota Machi,長野県,ながのけん,"なが,の,けん",Nagano Ken,36.31666667,138.5
203246,立科町,たてしなまち,"たて,しな,まち",,Tateshina Machi,長野県,ながのけん,"なが,の,けん",Nagano Ken,36.26666667,138.3
203491,青木村,あおきむら,"あお,き,むら",,Aoki Mura,長野県,ながのけん,"なが,の,けん",Nagano Ken,36.36666667,138.1166667
203505,長和町,ながわまち,"なが,わ,まち",,Nagawa Machi,長野県,ながのけん,"なが,の,けん",Nagano Ken,36.25,138.2666667
203611,下諏訪町,しもすわまち,"しも,す,わ,まち",,Shimosuwa Machi,長野県,ながのけん,"なが,の,けん",Nagano Ken,36.06666667,138.0666667
203629,富士見町,ふじみまち,"ふ,じ,み,まち",,Fujimi Machi,長野県,ながのけん,"なが,の,けん",Nagano Ken,35.9,138.2333333
203637,原村,はらむら,"はら,むら",,Hara Mura,長野県,ながのけん,"なが,の,けん",Nagano Ken,35.95,138.2166667
203823,辰野町,たつのまち,"たつ,の,まち",,Tatsuno Machi,長野県,ながのけん,"なが,の,けん",Nagano Ken,35.96666667,137.9833333
203831,箕輪町,みのわまち,"みの,わ,まち",,Minowa Machi,長野県,ながのけん,"なが,の,けん",Nagano Ken,35.9,137.9666667
203840,飯島町,いいじままち,"いい,じま,まち",,Iijima Machi,長野県,ながのけん,"なが,の,けん",Nagano Ken,35.66666667,137.9166667
203858,南箕輪村,みなみみのわむら,"みなみ,みの,わ,むら",,Minamiminowa Mura,長野県,ながのけん,"なが,の,けん",Nagano Ken,35.86666667,137.9666667
203866,中川村,なかがわむら,"なか,がわ,むら",,Nakagawa Mura,長野県,ながのけん,"なが,の,けん",Nagano Ken,35.63333333,137.9333333
203882,宮田村,みやだむら,"みや,だ,むら",,Miyada Mura,長野県,ながのけん,"なが,の,けん",Nagano Ken,35.76666667,137.9333333
204021,松川町,まつかわまち,"まつ,かわ,まち",,Matsukawa Machi,長野県,ながのけん,"なが,の,けん",Nagano Ken,35.58333333,137.9
204030,高森町,たかもりまち,"たか,もり,まち",,Takamori Machi,長野県,ながのけん,"なが,の,けん",Nagano Ken,35.55,137.8666667
204048,阿南町,あなんちょう,"あ,なん,ちょう",,Anan Cho,長野県,ながのけん,"なが,の,けん",Nagano Ken,35.31666667,137.8
204072,阿智村,あちむら,"あ,ち,むら",,Achi Mura,長野県,ながのけん,"なが,の,けん",Nagano Ken,35.43333333,137.7333333
204099,平谷村,ひらやむら,"ひら,や,むら",,Hiraya Mura,長野県,ながのけん,"なが,の,けん",Nagano Ken,35.31666667,137.6166667
204102,根羽村,ねばむら,"ね,ば,むら",,Neba Mura,長野県,ながのけん,"なが,の,けん",Nagano Ken,35.25,137.5666667
204111,下條村,しもじょうむら,"しも,じょう,むら",,Shimojo Mura,長野県,ながのけん,"なが,の,けん",Nagano Ken,35.38333333,137.7833333
204129,売木村,うるぎむら,"うる,ぎ,むら",,Urugi Mura,長野県,ながのけん,"なが,の,けん",Nagano Ken,35.26666667,137.7
204137,天龍村,てんりゅうむら,"てん,りゅう,むら",,Tenryu Mura,長野県,ながのけん,"なが,の,けん",Nagano Ken,35.26666667,137.85
204145,泰阜村,やすおかむら,"やす,おか,むら",,Yasuoka Mura,長野県,ながのけん,"なが,の,けん",Nagano Ken,35.36666667,137.8333333
204153,喬木村,たかぎむら,"たか,ぎ,むら",,Takagi Mura,長野県,ながのけん,"なが,の,けん",Nagano Ken,35.5,137.8666667
204161,豊丘村,とよおかむら,"とよ,おか,むら",,Toyooka Mura,長野県,ながのけん,"なが,の,けん",Nagano Ken,35.55,137.8833333
204170,大鹿村,おおしかむら,"おお,しか,むら",,Oshika Mura,長野県,ながのけん,"なが,の,けん",Nagano Ken,35.56666667,138.0333333
204226,上松町,あげまつまち,"あげ,まつ,まち",,Agematsu Machi,長野県,ながのけん,"なが,の,けん",Nagano Ken,35.78333333,137.6833333
204234,南木曽町,なぎそまち,"な,ぎ,そ,まち",,Nagiso Machi,長野県,ながのけん,"なが,の,けん",Nagano Ken,35.6,137.6
204251,木祖村,きそむら,"き,そ,むら",,Kiso Mura,長野県,ながのけん,"なが,の,けん",Nagano Ken,35.93333333,137.7666667
204293,王滝村,おうたきむら,"おう,たき,むら",,Otaki Mura,長野県,ながのけん,"なが,の,けん",Nagano Ken,35.8,137.55
204307,大桑村,おおくわむら,"おお,くわ,むら",,Okuwa Mura,長野県,ながのけん,"なが,の,けん",Nagano Ken,35.66666667,137.65
204323,木曽町,きそまち,"き,そ,まち",,Kiso Machi,長野県,ながのけん,"なが,の,けん",Nagano Ken,35.83333333,137.6833333
204463,麻績村,おみむら,"お,み,むら",,Omi Mura,長野県,ながのけん,"なが,の,けん",Nagano Ken,36.45,138.0333333
204480,生坂村,いくさかむら,"いく,さか,むら",,Ikusaka Mura,長野県,ながのけん,"なが,の,けん",Nagano Ken,36.41666667,137.9166667
204501,山形村,やまがたむら,"やま,がた,むら",,Yamagata Mura,長野県,ながのけん,"なが,の,けん",Nagano Ken,36.16666667,137.8666667
204528,筑北村,ちくほくむら,"ちく,ほく,むら",,Chikuhoku Mura,長野県,ながのけん,"なが,の,けん",Nagano Ken,36.41666667,138
204811,池田町,いけだまち,"いけ,だ,まち",,Ikeda Machi,長野県,ながのけん,"なが,の,けん",Nagano Ken,36.41666667,137.8666667
204820,松川村,まつかわむら,"まつ,かわ,むら",,Matsukawa Mura,長野県,ながのけん,"なが,の,けん",Nagano Ken,36.41666667,137.85
204854,白馬村,はくばむら,"はく,ば,むら",,Hakuba Mura,長野県,ながのけん,"なが,の,けん",Nagano Ken,36.68333333,137.85
204862,小谷村,おたりむら,"お,たり,むら",,Otari Mura,長野県,ながのけん,"なが,の,けん",Nagano Ken,36.76666667,137.9
205214,坂城町,さかきまち,"さか,き,まち",,Sakaki Machi,長野県,ながのけん,"なが,の,けん",Nagano Ken,36.45,138.1666667
205419,小布施町,おぶせまち,"お,ぶ,せ,まち",,Obuse Machi,長野県,ながのけん,"なが,の,けん",Nagano Ken,36.68333333,138.3
205435,高山村,たかやまむら,"たか,やま,むら",,Takayama Mura,長野県,ながのけん,"なが,の,けん",Nagano Ken,36.66666667,138.35
205613,山ノ内町,やまのうちまち,"やま,の,うち,まち",,Yamanouchi Machi,長野県,ながのけん,"なが,の,けん",Nagano Ken,36.73333333,138.4
205621,木島平村,きじまだいらむら,"き,じま,だいら,むら",,Kijimadaira Mura,長野県,ながのけん,"なが,の,けん",Nagano Ken,36.85,138.4
205630,野沢温泉村,のざわおんせんむら,"の,ざわ,おん,せん,むら",,Nozawaonsen Mura,長野県,ながのけん,"なが,の,けん",Nagano Ken,36.91666667,138.4333333
205834,信濃町,しなのまち,"しな,の,まち",,Shinano Machi,長野県,ながのけん,"なが,の,けん",Nagano Ken,36.8,138.2
205885,小川村,おがわむら,"お,がわ,むら",,Ogawa Mura,長野県,ながのけん,"なが,の,けん",Nagano Ken,36.61666667,137.9666667
205907,飯綱町,いいづなまち,"いい,づな,まち",,Iizuna Machi,長野県,ながのけん,"なが,の,けん",Nagano Ken,36.75,138.2333333
206024,栄村,さかえむら,"さかえ,むら",,Sakae Mura,長野県,ながのけん,"なが,の,けん",Nagano Ken,36.98333333,138.5666667
212016,岐阜市,ぎふし,"ぎ,ふ,し",,Gifu Shi,岐阜県,ぎふけん,"ぎ,ふ,けん",Gifu Ken,35.41666667,136.75
212024,大垣市,おおがきし,"おお,がき,し",,Ogaki Shi,岐阜県,ぎふけん,"ぎ,ふ,けん",Gifu Ken,35.35,136.6
212032,高山市,たかやまし,"たか,やま,し",,Takayama Shi,岐阜県,ぎふけん,"ぎ,ふ,けん",Gifu Ken,36.13333333,137.25
212041,多治見市,たじみし,"た,じ,み,し",,Tajimi Shi,岐阜県,ぎふけん,"ぎ,ふ,けん",Gifu Ken,35.31666667,137.1166667
212059,関市,せきし,"せき,し",,Seki Shi,岐阜県,ぎふけん,"ぎ,ふ,けん",Gifu Ken,35.48333333,136.9166667
212067,中津川市,なかつがわし,"なか,つ,がわ,し",,Nakatsugawa Shi,岐阜県,ぎふけん,"ぎ,ふ,けん",Gifu Ken,35.48333333,137.5
212075,美濃市,みのし,"み,の,し",,Mino Shi,岐阜県,ぎふけん,"ぎ,ふ,けん",Gifu Ken,35.53333333,136.9
212083,瑞浪市,みずなみし,"みず,なみ,し",,Mizunami Shi,岐阜県,ぎふけん,"ぎ,ふ,けん",Gifu Ken,35.35,137.25
212091,羽島市,はしまし,"は,しま,し",,Hashima Shi,岐阜県,ぎふけん,"ぎ,ふ,けん",Gifu Ken,35.31666667,136.7
212105,恵那市,えなし,"え,な,し",,Ena Shi,岐阜県,ぎふけん,"ぎ,ふ,けん",Gifu Ken,35.43333333,137.4
212113,美濃加茂市,みのかもし,"み,の,か,も,し",,Minokamo Shi,岐阜県,ぎふけん,"ぎ,ふ,けん",Gifu Ken,35.43333333,137
212121,土岐市,ときし,"と,き,し",,Toki Shi,岐阜県,ぎふけん,"ぎ,ふ,けん",Gifu Ken,35.35,137.1833333
212130,各務原市,かかみがはらし,"かか,みが,はら,し",,Kakamigahara Shi,岐阜県,ぎふけん,"ぎ,ふ,けん",Gifu Ken,35.38333333,136.8333333
212148,可児市,かにし,"か,に,し",,Kani Shi,岐阜県,ぎふけん,"ぎ,ふ,けん",Gifu Ken,35.41666667,137.05
212156,山県市,やまがたし,"やま,がた,し",,Yamagata Shi,岐阜県,ぎふけん,"ぎ,ふ,けん",Gifu Ken,35.5,136.7666667
212164,瑞穂市,みずほし,"みず,ほ,し",,Mizuho Shi,岐阜県,ぎふけん,"ぎ,ふ,けん",Gifu Ken,35.38333333,136.6833333
212172,飛騨市,ひだし,"ひ,だ,し",,Hida Shi,岐阜県,ぎふけん,"ぎ,ふ,けん",Gifu Ken,36.238139,137.186222
212181,本巣市,もとすし,"もと,す,し",,Motosu Shi,岐阜県,ぎふけん,"ぎ,ふ,けん",Gifu Ken,35.46666667,136.6666667
212199,郡上市,ぐじょうし,"ぐ,じょう,し",,Gujo Shi,岐阜県,ぎふけん,"ぎ,ふ,けん",Gifu Ken,35.73333333,136.95
212202,下呂市,げろし,"げ,ろ,し",,Gero Shi,岐阜県,ぎふけん,"ぎ,ふ,けん",Gifu Ken,35.8,137.2333333
212211,海津市,かいづし,"かい,づ,し",,Kaizu Shi,岐阜県,ぎふけん,"ぎ,ふ,けん",Gifu Ken,35.21666667,136.6333333
213021,岐南町,ぎなんちょう,"ぎ,なん,ちょう",,Ginan Cho,岐阜県,ぎふけん,"ぎ,ふ,けん",Gifu Ken,35.38333333,136.7666667
213039,笠松町,かさまつちょう,"かさ,まつ,ちょう",,Kasamatsu Cho,岐阜県,ぎふけん,"ぎ,ふ,けん",Gifu Ken,35.36666667,136.75
213411,養老町,ようろうちょう,"よう,ろう,ちょう",,Yoro Cho,岐阜県,ぎふけん,"ぎ,ふ,けん",Gifu Ken,35.3,136.55
213616,垂井町,たるいちょう,"たる,い,ちょう",,Tarui Cho,岐阜県,ぎふけん,"ぎ,ふ,けん",Gifu Ken,35.36666667,136.5166667
213624,関ケ原町,せきがはらちょう,"せき,が,はら,ちょう",,Sekigahara Cho,岐阜県,ぎふけん,"ぎ,ふ,けん",Gifu Ken,35.35,136.4666667
213811,神戸町,ごうどちょう,"ごう,ど,ちょう",,Godo Cho,岐阜県,ぎふけん,"ぎ,ふ,けん",Gifu Ken,35.41666667,136.6
213829,輪之内町,わのうちちょう,"わ,の,うち,ちょう",,Wanouchi Cho,岐阜県,ぎふけん,"ぎ,ふ,けん",Gifu Ken,35.28333333,136.6333333
213837,安八町,あんぱちちょう,"あん,ぱち,ちょう",,Anpachi Cho,岐阜県,ぎふけん,"ぎ,ふ,けん",Gifu Ken,35.33333333,136.65
214019,揖斐川町,いびがわちょう,"い,び,がわ,ちょう",,Ibigawa Cho,岐阜県,ぎふけん,"ぎ,ふ,けん",Gifu Ken,35.48333333,136.5666667
214035,大野町,おおのちょう,"おお,の,ちょう",,Ono Cho,岐阜県,ぎふけん,"ぎ,ふ,けん",Gifu Ken,35.46666667,136.6166667
214043,池田町,いけだちょう,"いけ,だ,ちょう",,Ikeda Cho,岐阜県,ぎふけん,"ぎ,ふ,けん",Gifu Ken,35.43333333,136.5666667
214213,北方町,きたがたちょう,"きた,がた,ちょう",,Kitagata Cho,岐阜県,ぎふけん,"ぎ,ふ,けん",Gifu Ken,35.43333333,136.6833333
215015,坂祝町,さかほぎちょう,"さか,ほぎ,ちょう",,Sakahogi Cho,岐阜県,ぎふけん,"ぎ,ふ,けん",Gifu Ken,35.41666667,136.9833333
215023,富加町,とみかちょう,"とみ,か,ちょう",,Tomika Cho,岐阜県,ぎふけん,"ぎ,ふ,けん",Gifu Ken,35.48333333,136.9666667
215040,七宗町,ひちそうちょう,"ひち,そう,ちょう",,Hichiso Cho,岐阜県,ぎふけん,"ぎ,ふ,けん",Gifu Ken,35.53333333,137.1166667
215058,八百津町,やおつちょう,"や,お,つ,ちょう",,Yaotsu Cho,岐阜県,ぎふけん,"ぎ,ふ,けん",Gifu Ken,35.46666667,137.1333333
215066,白川町,しらかわちょう,"しら,かわ,ちょう",,Shirakawa Cho,岐阜県,ぎふけん,"ぎ,ふ,けん",Gifu Ken,35.56666667,137.1833333
215074,東白川村,ひがししらかわむら,"ひがし,しら,かわ,むら",,Higashishirakawa Mura,岐阜県,ぎふけん,"ぎ,ふ,けん",Gifu Ken,35.63333333,137.3166667
215210,御嵩町,みたけちょう,"み,たけ,ちょう",,Mitake Cho,岐阜県,ぎふけん,"ぎ,ふ,けん",Gifu Ken,35.43333333,137.1166667
216046,白川村,しらかわむら,"しら,かわ,むら",,Shirakawa Mura,岐阜県,ぎふけん,"ぎ,ふ,けん",Gifu Ken,36.26666667,136.8833333
221007,静岡市,しずおかし,"しず,おか,し",,Shizuoka Shi,静岡県,しずおかけん,"しず,おか,けん",Shizuoka Ken,34.96666667,138.3833333
221309,浜松市,はままつし,"はま,まつ,し",,Hamamatsu Shi,静岡県,しずおかけん,"しず,おか,けん",Shizuoka Ken,34.7,137.7166667
222038,沼津市,ぬまづし,"ぬま,づ,し",,Numazu Shi,静岡県,しずおかけん,"しず,おか,けん",Shizuoka Ken,35.08333333,138.85
222054,熱海市,あたみし,"あた,み,し",,Atami Shi,静岡県,しずおかけん,"しず,おか,けん",Shizuoka Ken,35.08333333,139.0666667
222062,三島市,みしまし,"み,しま,し",,Mishima Shi,静岡県,しずおかけん,"しず,おか,けん",Shizuoka Ken,35.11666667,138.9166667
222071,富士宮市,ふじのみやし,"ふ,じの,みや,し","Hidden particle (の): ふ,じ,の,みや,し",Fujinomiya Shi,静岡県,しずおかけん,"しず,おか,けん",Shizuoka Ken,35.21666667,138.6166667
222089,伊東市,いとうし,"い,とう,し",,Ito Shi,静岡県,しずおかけん,"しず,おか,けん",Shizuoka Ken,34.95,139.1
222097,島田市,しまだし,"しま,だ,し",,Shimada Shi,静岡県,しずおかけん,"しず,おか,けん",Shizuoka Ken,34.83333333,138.1666667
222101,富士市,ふじし,"ふ,じ,し",,Fuji Shi,静岡県,しずおかけん,"しず,おか,けん",Shizuoka Ken,35.15,138.6666667
222119,磐田市,いわたし,"いわ,た,し",,Iwata Shi,静岡県,しずおかけん,"しず,おか,けん",Shizuoka Ken,34.71666667,137.85
222127,焼津市,やいづし,"やい,づ,し",,Yaizu Shi,静岡県,しずおかけん,"しず,おか,けん",Shizuoka Ken,34.86666667,138.3166667
222135,掛川市,かけがわし,"かけ,がわ,し",,Kakegawa Shi,静岡県,しずおかけん,"しず,おか,けん",Shizuoka Ken,34.76666667,137.9833333
222143,藤枝市,ふじえだし,"ふじ,えだ,し",,Fujieda Shi,静岡県,しずおかけん,"しず,おか,けん",Shizuoka Ken,34.86666667,138.25
222151,御殿場市,ごてんばし,"ご,てん,ば,し",,Gotenba Shi,静岡県,しずおかけん,"しず,おか,けん",Shizuoka Ken,35.3,138.9333333
222160,袋井市,ふくろいし,"ふくろ,い,し",,Fukuroi Shi,静岡県,しずおかけん,"しず,おか,けん",Shizuoka Ken,34.75,137.9166667
222194,下田市,しもだし,"しも,だ,し",,Shimoda Shi,静岡県,しずおかけん,"しず,おか,けん",Shizuoka Ken,34.66666667,138.9333333
222208,裾野市,すそのし,"すそ,の,し",,Susono Shi,静岡県,しずおかけん,"しず,おか,けん",Shizuoka Ken,35.16666667,138.9
222216,湖西市,こさいし,"こ,さい,し",,Kosai Shi,静岡県,しずおかけん,"しず,おか,けん",Shizuoka Ken,34.71666667,137.5166667
222224,伊豆市,いずし,"い,ず,し",,Izu Shi,静岡県,しずおかけん,"しず,おか,けん",Shizuoka Ken,34.96666667,138.9333333
222232,御前崎市,おまえざきし,"お,まえ,ざき,し",,Omaezaki Shi,静岡県,しずおかけん,"しず,おか,けん",Shizuoka Ken,34.63333333,138.1166667
222241,菊川市,きくがわし,"きく,がわ,し",,Kikugawa Shi,静岡県,しずおかけん,"しず,おか,けん",Shizuoka Ken,34.75,138.0833333
222259,伊豆の国市,いずのくにし,"い,ず,の,くに,し",,Izunokuni Shi,静岡県,しずおかけん,"しず,おか,けん",Shizuoka Ken,35.01666667,138.9166667
222267,牧之原市,まきのはらし,"まき,の,はら,し",,Makinohara Shi,静岡県,しずおかけん,"しず,おか,けん",Shizuoka Ken,34.73333333,138.2166667
223018,東伊豆町,ひがしいずちょう,"ひがし,い,ず,ちょう",,Higashiizu Cho,静岡県,しずおかけん,"しず,おか,けん",Shizuoka Ken,34.76666667,139.0333333
223026,河津町,かわづちょう,"かわ,づ,ちょう",,Kawazu Cho,静岡県,しずおかけん,"しず,おか,けん",Shizuoka Ken,34.75,138.9833333
223042,南伊豆町,みなみいずちょう,"みなみ,い,ず,ちょう",,Minamiizu Cho,静岡県,しずおかけん,"しず,おか,けん",Shizuoka Ken,34.65,138.85
223051,松崎町,まつざきちょう,"まつ,ざき,ちょう",,Matsuzaki Cho,静岡県,しずおかけん,"しず,おか,けん",Shizuoka Ken,34.75,138.7666667
223069,西伊豆町,にしいずちょう,"にし,い,ず,ちょう",,Nishiizu Cho,静岡県,しずおかけん,"しず,おか,けん",Shizuoka Ken,34.76666667,138.7666667
223255,函南町,かんなみちょう,"かん,なみ,ちょう",,Kannami Cho,静岡県,しずおかけん,"しず,おか,けん",Shizuoka Ken,35.08333333,138.9333333
223417,清水町,しみずちょう,"し,みず,ちょう",,Shimizu Cho,静岡県,しずおかけん,"しず,おか,けん",Shizuoka Ken,35.08333333,138.9
223425,長泉町,ながいずみちょう,"なが,いずみ,ちょう",,Nagaizumi Cho,静岡県,しずおかけん,"しず,おか,けん",Shizuoka Ken,35.13333333,138.8833333
223441,小山町,おやまちょう,"お,やま,ちょう",,Oyama Cho,静岡県,しずおかけん,"しず,おか,けん",Shizuoka Ken,35.35,138.9833333
224243,吉田町,よしだちょう,"よし,だ,ちょう",,Yoshida Cho,静岡県,しずおかけん,"しず,おか,けん",Shizuoka Ken,34.76666667,138.25
224294,川根本町,かわねほんちょう,"かわ,ね,ほん,ちょう",,Kawanehon Cho,静岡県,しずおかけん,"しず,おか,けん",Shizuoka Ken,35.03333333,138.0666667
224618,森町,もりまち,"もり,まち",,Mori Machi,静岡県,しずおかけん,"しず,おか,けん",Shizuoka Ken,34.83333333,137.9166667
231002,名古屋市,なごやし,"な,ご,や,し",,Nagoya Shi,愛知県,あいちけん,"あい,ち,けん",Aichi Ken,35.16666667,136.9
232017,豊橋市,とよはしし,"とよ,はし,し",,Toyohashi Shi,愛知県,あいちけん,"あい,ち,けん",Aichi Ken,34.76666667,137.3833333
232025,岡崎市,おかざきし,"おか,ざき,し",,Okazaki Shi,愛知県,あいちけん,"あい,ち,けん",Aichi Ken,34.95,137.1666667
232033,一宮市,いちのみやし,"いちの,みや,し",,Ichinomiya Shi,愛知県,あいちけん,"あい,ち,けん",Aichi Ken,35.3,136.8
232041,瀬戸市,せとし,"せ,と,し",,Seto Shi,愛知県,あいちけん,"あい,ち,けん",Aichi Ken,35.21666667,137.0833333
232050,半田市,はんだし,"はん,だ,し",,Handa Shi,愛知県,あいちけん,"あい,ち,けん",Aichi Ken,34.88333333,136.9333333
232068,春日井市,かすがいし,"かす,が,い,し",,Kasugai Shi,愛知県,あいちけん,"あい,ち,けん",Aichi Ken,35.23333333,136.9666667
232076,豊川市,とよかわし,"とよ,かわ,し",,Toyokawa Shi,愛知県,あいちけん,"あい,ち,けん",Aichi Ken,34.81666667,137.3666667
232084,津島市,つしまし,"つ,しま,し",,Tsushima Shi,愛知県,あいちけん,"あい,ち,けん",Aichi Ken,35.16666667,136.7333333
232092,碧南市,へきなんし,"へき,なん,し",,Hekinan Shi,愛知県,あいちけん,"あい,ち,けん",Aichi Ken,34.88333333,136.9833333
232106,刈谷市,かりやし,"かり,や,し",,Kariya Shi,愛知県,あいちけん,"あい,ち,けん",Aichi Ken,34.98333333,137
232114,豊田市,とよたし,"とよ,た,し",,Toyota Shi,愛知県,あいちけん,"あい,ち,けん",Aichi Ken,35.08333333,137.15
232122,安城市,あんじょうし,"あん,じょう,し",,Anjo Shi,愛知県,あいちけん,"あい,ち,けん",Aichi Ken,34.95,137.0666667
232131,西尾市,にしおし,"にし,お,し",,Nishio Shi,愛知県,あいちけん,"あい,ち,けん",Aichi Ken,34.85,137.05
232149,蒲郡市,がまごおりし,"がま,ごおり,し",,Gamagori Shi,愛知県,あいちけん,"あい,ち,けん",Aichi Ken,34.81666667,137.2166667
232157,犬山市,いぬやまし,"いぬ,やま,し",,Inuyama Shi,愛知県,あいちけん,"あい,ち,けん",Aichi Ken,35.36666667,136.9333333
232165,常滑市,とこなめし,"とこ,なめ,し",,Tokoname Shi,愛知県,あいちけん,"あい,ち,けん",Aichi Ken,34.88333333,136.8166667
232173,江南市,こうなんし,"こう,なん,し",,Konan Shi,愛知県,あいちけん,"あい,ち,けん",Aichi Ken,35.31666667,136.8666667
232190,小牧市,こまきし,"こ,まき,し",,Komaki Shi,愛知県,あいちけん,"あい,ち,けん",Aichi Ken,35.28333333,136.9
232203,稲沢市,いなざわし,"いな,ざわ,し",,Inazawa Shi,愛知県,あいちけん,"あい,ち,けん",Aichi Ken,35.23333333,136.7666667
232211,新城市,しんしろし,"しん,しろ,し",,Shinshiro Shi,愛知県,あいちけん,"あい,ち,けん",Aichi Ken,34.88333333,137.4833333
232220,東海市,とうかいし,"とう,かい,し",,Tokai Shi,愛知県,あいちけん,"あい,ち,けん",Aichi Ken,35.01666667,136.9
232238,大府市,おおぶし,"おお,ぶ,し",,Obu Shi,愛知県,あいちけん,"あい,ち,けん",Aichi Ken,35,136.95
232246,知多市,ちたし,"ち,た,し",,Chita Shi,愛知県,あいちけん,"あい,ち,けん",Aichi Ken,34.98333333,136.85
232254,知立市,ちりゅうし,"ち,りゅう,し",,Chiryu Shi,愛知県,あいちけん,"あい,ち,けん",Aichi Ken,35,137.05
232262,尾張旭市,おわりあさひし,"お,わり,あさひ,し",,Owariasahi Shi,愛知県,あいちけん,"あい,ち,けん",Aichi Ken,35.2,137.0333333
232271,高浜市,たかはまし,"たか,はま,し",,Takahama Shi,愛知県,あいちけん,"あい,ち,けん",Aichi Ken,34.91666667,136.9833333
232289,岩倉市,いわくらし,"いわ,くら,し",,Iwakura Shi,愛知県,あいちけん,"あい,ち,けん",Aichi Ken,35.26666667,136.8666667
232297,豊明市,とよあけし,"とよ,あけ,し",,Toyoake Shi,愛知県,あいちけん,"あい,ち,けん",Aichi Ken,35.05,137
232301,日進市,にっしんし,"にっ,しん,し",,Nisshin Shi,愛知県,あいちけん,"あい,ち,けん",Aichi Ken,35.11666667,137.0333333
232319,田原市,たはらし,"た,はら,し",,Tahara Shi,愛知県,あいちけん,"あい,ち,けん",Aichi Ken,34.66666667,137.25
232327,愛西市,あいさいし,"あい,さい,し",,Aisai Shi,愛知県,あいちけん,"あい,ち,けん",Aichi Ken,35.15,136.7166667
232335,清須市,きよすし,"きよ,す,し",,Kiyosu Shi,愛知県,あいちけん,"あい,ち,けん",Aichi Ken,35.18333333,136.85
232343,北名古屋市,きたなごやし,"きた,な,ご,や,し",,Kitanagoya Shi,愛知県,あいちけん,"あい,ち,けん",Aichi Ken,35.23333333,136.85
232351,弥富市,やとみし,"や,とみ,し",,Yatomi Shi,愛知県,あいちけん,"あい,ち,けん",Aichi Ken,35.1,136.7166667
232360,みよし市,みよしし,"みよし,し",,Miyoshi Shi,愛知県,あいちけん,"あい,ち,けん",Aichi Ken,35.08333333,137.0666667
232378,あま市,あまし,"あま,し",,Ama Shi,愛知県,あいちけん,"あい,ち,けん",Aichi Ken,35.2,136.7833333
232386,長久手市,ながくてし,"なが,く,て,し",,Nagakute Shi,愛知県,あいちけん,"あい,ち,けん",Aichi Ken,35.18333333,137.0333333
233021,東郷町,とうごうちょう,"とう,ごう,ちょう",,Togo Cho,愛知県,あいちけん,"あい,ち,けん",Aichi Ken,35.08333333,137.05
233421,豊山町,とよやまちょう,"とよ,やま,ちょう",,Toyoyama Cho,愛知県,あいちけん,"あい,ち,けん",Aichi Ken,35.25,136.9
233617,大口町,おおぐちちょう,"おお,ぐち,ちょう",,Oguchi Cho,愛知県,あいちけん,"あい,ち,けん",Aichi Ken,35.31666667,136.9
233625,扶桑町,ふそうちょう,"ふ,そう,ちょう",,Fuso Cho,愛知県,あいちけん,"あい,ち,けん",Aichi Ken,35.35,136.9
234249,大治町,おおはるちょう,"おお,はる,ちょう",,Oharu Cho,愛知県,あいちけん,"あい,ち,けん",Aichi Ken,35.16666667,136.8166667
234257,蟹江町,かにえちょう,"かに,え,ちょう",,Kanie Cho,愛知県,あいちけん,"あい,ち,けん",Aichi Ken,35.11666667,136.7833333
234273,飛島村,とびしまむら,"とび,しま,むら",,Tobishima Mura,愛知県,あいちけん,"あい,ち,けん",Aichi Ken,35.06666667,136.7833333
234419,阿久比町,あぐいちょう,"あ,ぐ,い,ちょう",,Agui Cho,愛知県,あいちけん,"あい,ち,けん",Aichi Ken,34.91666667,136.9
234427,東浦町,ひがしうらちょう,"ひがし,うら,ちょう",,Higashiura Cho,愛知県,あいちけん,"あい,ち,けん",Aichi Ken,34.96666667,136.95
234451,南知多町,みなみちたちょう,"みなみ,ち,た,ちょう",,Minamichita Cho,愛知県,あいちけん,"あい,ち,けん",Aichi Ken,34.7,136.9166667
234460,美浜町,みはまちょう,"み,はま,ちょう",,Mihama Cho,愛知県,あいちけん,"あい,ち,けん",Aichi Ken,34.76666667,136.9
234478,武豊町,たけとよちょう,"たけ,とよ,ちょう",,Taketoyo Cho,愛知県,あいちけん,"あい,ち,けん",Aichi Ken,34.85,136.9
235016,幸田町,こうたちょう,"こう,た,ちょう",,Kota Cho,愛知県,あいちけん,"あい,ち,けん",Aichi Ken,34.85,137.15
235610,設楽町,したらちょう,"した,ら,ちょう",,Shitara Cho,愛知県,あいちけん,"あい,ち,けん",Aichi Ken,35.08333333,137.5666667
235628,東栄町,とうえいちょう,"とう,えい,ちょう",,Toei Cho,愛知県,あいちけん,"あい,ち,けん",Aichi Ken,35.06666667,137.6833333
235636,豊根村,とよねむら,"とよ,ね,むら",,Toyone Mura,愛知県,あいちけん,"あい,ち,けん",Aichi Ken,35.13333333,137.7166667
242012,津市,つし,"つ,し",,Tsu Shi,三重県,みえけん,"み,え,けん",Mie Ken,34.71666667,136.5
242021,四日市市,よっかいちし,"よっ,か,いち,し",,Yokkaichi Shi,三重県,みえけん,"み,え,けん",Mie Ken,34.95,136.6166667
242039,伊勢市,いせし,"い,せ,し",,Ise Shi,三重県,みえけん,"み,え,けん",Mie Ken,34.48333333,136.7
242047,松阪市,まつさかし,"まつ,さか,し",,Matsusaka Shi,三重県,みえけん,"み,え,けん",Mie Ken,34.56666667,136.5166667
242055,桑名市,くわなし,"くわ,な,し",,Kuwana Shi,三重県,みえけん,"み,え,けん",Mie Ken,35.05,136.6833333
242071,鈴鹿市,すずかし,"すず,か,し",,Suzuka Shi,三重県,みえけん,"み,え,けん",Mie Ken,34.86666667,136.5833333
242080,名張市,なばりし,"な,ばり,し",,Nabari Shi,三重県,みえけん,"み,え,けん",Mie Ken,34.61666667,136.1
242098,尾鷲市,おわせし,"お,わせ,し",,Owase Shi,三重県,みえけん,"み,え,けん",Mie Ken,34.06666667,136.1833333
242101,亀山市,かめやまし,"かめ,やま,し",,Kameyama Shi,三重県,みえけん,"み,え,けん",Mie Ken,34.85,136.45
242110,鳥羽市,とばし,"と,ば,し",,Toba Shi,三重県,みえけん,"み,え,けん",Mie Ken,34.46666667,136.8333333
242128,熊野市,くまのし,"くま,の,し",,Kumano Shi,三重県,みえけん,"み,え,けん",Mie Ken,33.88333333,136.1
242144,いなべ市,いなべし,"いなべ,し",,Inabe Shi,三重県,みえけん,"み,え,けん",Mie Ken,35.1,136.55
242152,志摩市,しまし,"し,ま,し",,Shima Shi,三重県,みえけん,"み,え,けん",Mie Ken,34.31666667,136.8166667
242161,伊賀市,いがし,"い,が,し",,Iga Shi,三重県,みえけん,"み,え,けん",Mie Ken,34.76666667,136.1166667
243035,木曽岬町,きそさきちょう,"き,そ,さき,ちょう",,Kisosaki Cho,三重県,みえけん,"み,え,けん",Mie Ken,35.06666667,136.7166667
243248,東員町,とういんちょう,"とう,いん,ちょう",,Toin Cho,三重県,みえけん,"み,え,けん",Mie Ken,35.06666667,136.5833333
243418,菰野町,こものちょう,"こも,の,ちょう",,Komono Cho,三重県,みえけん,"み,え,けん",Mie Ken,35,136.5
243434,朝日町,あさひちょう,"あさ,ひ,ちょう",,Asahi Cho,三重県,みえけん,"み,え,けん",Mie Ken,35.03333333,136.65
243442,川越町,かわごえちょう,"かわ,ごえ,ちょう",,Kawagoe Cho,三重県,みえけん,"み,え,けん",Mie Ken,35.01666667,136.6666667
244414,多気町,たきちょう,"た,き,ちょう",,Taki Cho,三重県,みえけん,"み,え,けん",Mie Ken,34.48333333,136.5333333
244422,明和町,めいわちょう,"めい,わ,ちょう",,Meiwa Cho,三重県,みえけん,"み,え,けん",Mie Ken,34.53333333,136.6166667
244431,大台町,おおだいちょう,"おお,だい,ちょう",,Odai Cho,三重県,みえけん,"み,え,けん",Mie Ken,34.38333333,136.4
244619,玉城町,たまきちょう,"たま,き,ちょう",,Tamaki Cho,三重県,みえけん,"み,え,けん",Mie Ken,34.48333333,136.6166667
244708,度会町,わたらいちょう,"わたらい,ちょう",Irregular reading: 度会 (わたらい) does not decompose to two separate kanji readings,Watarai Cho,三重県,みえけん,"み,え,けん",Mie Ken,34.43333333,136.6166667
244716,大紀町,たいきちょう,"たい,き,ちょう",,Taiki Cho,三重県,みえけん,"み,え,けん",Mie Ken,34.35,136.4
244724,南伊勢町,みなみいせちょう,"みなみ,い,せ,ちょう",,Minamiise Cho,三重県,みえけん,"み,え,けん",Mie Ken,34.35,136.7
245437,紀北町,きほくちょう,"き,ほく,ちょう",,Kihoku Cho,三重県,みえけん,"み,え,けん",Mie Ken,34.1,136.2166667
245615,御浜町,みはまちょう,"み,はま,ちょう",,Mihama Cho,三重県,みえけん,"み,え,けん",Mie Ken,33.8,136.0333333
245623,紀宝町,きほうちょう,"き,ほう,ちょう",,Kiho Cho,三重県,みえけん,"み,え,けん",Mie Ken,33.73333333,136
252018,大津市,おおつし,"おお,つ,し",,Otsu Shi,滋賀県,しがけん,"し,が,けん",Shiga Ken,35.01666667,135.85
252026,彦根市,ひこねし,"ひこ,ね,し",,Hikone Shi,滋賀県,しがけん,"し,が,けん",Shiga Ken,35.26666667,136.25
252034,長浜市,ながはまし,"なが,はま,し",,Nagahama Shi,滋賀県,しがけん,"し,が,けん",Shiga Ken,35.36666667,136.2666667
252042,近江八幡市,おうみはちまんし,"おう,み,はち,まん,し",,Omihachiman Shi,滋賀県,しがけん,"し,が,けん",Shiga Ken,35.11666667,136.0833333
252069,草津市,くさつし,"くさ,つ,し",,Kusatsu Shi,滋賀県,しがけん,"し,が,けん",Shiga Ken,35,135.95
252077,守山市,もりやまし,"もり,やま,し",,Moriyama Shi,滋賀県,しがけん,"し,が,けん",Shiga Ken,35.05,135.9833333
252085,栗東市,りっとうし,"りっ,とう,し",,Ritto Shi,滋賀県,しがけん,"し,が,けん",Shiga Ken,35.01666667,135.9833333
252093,甲賀市,こうかし,"こう,か,し",,Koka Shi,滋賀県,しがけん,"し,が,けん",Shiga Ken,34.95,136.1666667
252107,野洲市,やすし,"や,す,し",,Yasu Shi,滋賀県,しがけん,"し,が,けん",Shiga Ken,35.06666667,136.0166667
252115,湖南市,こなんし,"こ,なん,し",,Konan Shi,滋賀県,しがけん,"し,が,けん",Shiga Ken,35,136.0833333
252123,高島市,たかしまし,"たか,しま,し",,Takashima Shi,滋賀県,しがけん,"し,が,けん",Shiga Ken,35.35,136.0333333
252131,東近江市,ひがしおうみし,"ひがし,おう,み,し",,Higashiomi Shi,滋賀県,しがけん,"し,が,けん",Shiga Ken,35.1,136.2
252140,米原市,まいばらし,"まい,ばら,し",,Maibara Shi,滋賀県,しがけん,"し,が,けん",Shiga Ken,35.3,136.2833333
253839,日野町,ひのちょう,"ひ,の,ちょう",,Hino Cho,滋賀県,しがけん,"し,が,けん",Shiga Ken,35.01666667,136.2333333
253847,竜王町,りゅうおうちょう,"りゅう,おう,ちょう",,Ryuo Cho,滋賀県,しがけん,"し,が,けん",Shiga Ken,35.05,136.1166667
254258,愛荘町,あいしょうちょう,"あい,しょう,ちょう",,Aisho Cho,滋賀県,しがけん,"し,が,けん",Shiga Ken,35.16666667,136.2
254410,豊郷町,とよさとちょう,"とよ,さと,ちょう",,Toyosato Cho,滋賀県,しがけん,"し,が,けん",Shiga Ken,35.2,136.2166667
254428,甲良町,こうらちょう,"こう,ら,ちょう",,Kora Cho,滋賀県,しがけん,"し,が,けん",Shiga Ken,35.2,136.25
254436,多賀町,たがちょう,"た,が,ちょう",,Taga Cho,滋賀県,しがけん,"し,が,けん",Shiga Ken,35.21666667,136.2833333
261009,京都市,きょうとし,"きょう,と,し",,Kyoto Shi,京都府,きょうとふ,"きょう,と,ふ",Kyoto Fu,35,135.7666667
262013,福知山市,ふくちやまし,"ふく,ち,やま,し",,Fukuchiyama Shi,京都府,きょうとふ,"きょう,と,ふ",Kyoto Fu,35.28333333,135.1166667
262021,舞鶴市,まいづるし,"まい,づる,し",,Maizuru Shi,京都府,きょうとふ,"きょう,と,ふ",Kyoto Fu,35.46666667,135.3833333
262030,綾部市,あやべし,"あや,べ,し",,Ayabe Shi,京都府,きょうとふ,"きょう,と,ふ",Kyoto Fu,35.28333333,135.25
262048,宇治市,うじし,"う,じ,し",,Uji Shi,京都府,きょうとふ,"きょう,と,ふ",Kyoto Fu,34.88333333,135.7833333
262056,宮津市,みやづし,"みや,づ,し",,Miyazu Shi,京都府,きょうとふ,"きょう,と,ふ",Kyoto Fu,35.53333333,135.1833333
262064,亀岡市,かめおかし,"かめ,おか,し",,Kameoka Shi,京都府,きょうとふ,"きょう,と,ふ",Kyoto Fu,35,135.5666667
262072,城陽市,じょうようし,"じょう,よう,し",,Joyo Shi,京都府,きょうとふ,"きょう,と,ふ",Kyoto Fu,34.85,135.7666667
262081,向日市,むこうし,"む,こう,し",,Muko Shi,京都府,きょうとふ,"きょう,と,ふ",Kyoto Fu,34.93333333,135.6833333
262099,長岡京市,ながおかきょうし,"なが,おか,きょう,し",,Nagaokakyo Shi,京都府,きょうとふ,"きょう,と,ふ",Kyoto Fu,34.91666667,135.6833333
262102,八幡市,やわたし,"や,わた,し",,Yawata Shi,京都府,きょうとふ,"きょう,と,ふ",Kyoto Fu,34.86666667,135.7
262111,京田辺市,きょうたなべし,"きょう,た,なべ,し",,Kyotanabe Shi,京都府,きょうとふ,"きょう,と,ふ",Kyoto Fu,34.8,135.7666667
262129,京丹後市,きょうたんごし,"きょう,たん,ご,し",,Kyotango Shi,京都府,きょうとふ,"きょう,と,ふ",Kyoto Fu,35.61666667,135.05
262137,南丹市,なんたんし,"なん,たん,し",,Nantan Shi,京都府,きょうとふ,"きょう,と,ふ",Kyoto Fu,35.1,135.4666667
262145,木津川市,きづがわし,"き,づ,がわ,し",,Kizugawa Shi,京都府,きょうとふ,"きょう,と,ふ",Kyoto Fu,34.73333333,135.8166667
263036,大山崎町,おおやまざきちょう,"おお,やま,ざき,ちょう",,Oyamazaki Cho,京都府,きょうとふ,"きょう,と,ふ",Kyoto Fu,34.9,135.6833333
263222,久御山町,くみやまちょう,"く,み,やま,ちょう",,Kumiyama Cho,京都府,きょうとふ,"きょう,と,ふ",Kyoto Fu,34.86666667,135.7166667
263435,井手町,いでちょう,"い,で,ちょう",,Ide Cho,京都府,きょうとふ,"きょう,と,ふ",Kyoto Fu,34.78333333,135.8
263443,宇治田原町,うじたわらちょう,"う,じ,た,わら,ちょう",,Ujitawara Cho,京都府,きょうとふ,"きょう,と,ふ",Kyoto Fu,34.85,135.85
263648,笠置町,かさぎちょう,"かさ,ぎ,ちょう",,Kasagi Cho,京都府,きょうとふ,"きょう,と,ふ",Kyoto Fu,34.75,135.9333333
263656,和束町,わづかちょう,"わ,づか,ちょう",,Wazuka Cho,京都府,きょうとふ,"きょう,と,ふ",Kyoto Fu,34.78333333,135.9
263664,精華町,せいかちょう,"せい,か,ちょう",,Seika Cho,京都府,きょうとふ,"きょう,と,ふ",Kyoto Fu,34.75,135.7833333
263672,南山城村,みなみやましろむら,"みなみ,やま,しろ,むら",,Minamiyamashiro Mura,京都府,きょうとふ,"きょう,と,ふ",Kyoto Fu,34.76666667,135.9833333
264075,京丹波町,きょうたんばちょう,"きょう,たん,ば,ちょう",,Kyotanba Cho,京都府,きょうとふ,"きょう,と,ふ",Kyoto Fu,35.15,135.4166667
264636,伊根町,いねちょう,"い,ね,ちょう",,Ine Cho,京都府,きょうとふ,"きょう,と,ふ",Kyoto Fu,35.66666667,135.2833333
264652,与謝野町,よさのちょう,"よ,さ,の,ちょう",,Yosano Cho,京都府,きょうとふ,"きょう,と,ふ",Kyoto Fu,35.55,135.15
271004,大阪市,おおさかし,"おお,さか,し",,Osaka Shi,大阪府,おおさかふ,"おお,さか,ふ",Osaka Fu,34.68333333,135.5
271403,堺市,さかいし,"さかい,し",,Sakai Shi,大阪府,おおさかふ,"おお,さか,ふ",Osaka Fu,34.56666667,135.4666667
272027,岸和田市,きしわだし,"きし,わ,だ,し",,Kishiwada Shi,大阪府,おおさかふ,"おお,さか,ふ",Osaka Fu,34.45,135.3666667
272035,豊中市,とよなかし,"とよ,なか,し",,Toyonaka Shi,大阪府,おおさかふ,"おお,さか,ふ",Osaka Fu,34.76666667,135.4666667
272043,池田市,いけだし,"いけ,だ,し",,Ikeda Shi,大阪府,おおさかふ,"おお,さか,ふ",Osaka Fu,34.81666667,135.4166667
272051,吹田市,すいたし,"すい,た,し",,Suita Shi,大阪府,おおさかふ,"おお,さか,ふ",Osaka Fu,34.75,135.5166667
272060,泉大津市,いずみおおつし,"いずみ,おお,つ,し",,Izumiotsu Shi,大阪府,おおさかふ,"おお,さか,ふ",Osaka Fu,34.5,135.4
272078,高槻市,たかつきし,"たか,つき,し",,Takatsuki Shi,大阪府,おおさかふ,"おお,さか,ふ",Osaka Fu,34.83333333,135.6166667
272086,貝塚市,かいづかし,"かい,づか,し",,Kaizuka Shi,大阪府,おおさかふ,"おお,さか,ふ",Osaka Fu,34.43333333,135.35
272094,守口市,もりぐちし,"もり,ぐち,し",,Moriguchi Shi,大阪府,おおさかふ,"おお,さか,ふ",Osaka Fu,34.73333333,135.55
272108,枚方市,ひらかたし,"ひら,かた,し",,Hirakata Shi,大阪府,おおさかふ,"おお,さか,ふ",Osaka Fu,34.8,135.65
272116,茨木市,いばらきし,"いばら,き,し",,Ibaraki Shi,大阪府,おおさかふ,"おお,さか,ふ",Osaka Fu,34.8,135.5666667
272124,八尾市,やおし,"や,お,し",,Yao Shi,大阪府,おおさかふ,"おお,さか,ふ",Osaka Fu,34.61666667,135.6
272132,泉佐野市,いずみさのし,"いずみ,さ,の,し",,Izumisano Shi,大阪府,おおさかふ,"おお,さか,ふ",Osaka Fu,34.4,135.3166667
272141,富田林市,とんだばやしし,"とん,だ,ばやし,し",,Tondabayashi Shi,大阪府,おおさかふ,"おお,さか,ふ",Osaka Fu,34.48333333,135.5833333
272159,寝屋川市,ねやがわし,"ね,や,がわ,し",,Neyagawa Shi,大阪府,おおさかふ,"おお,さか,ふ",Osaka Fu,34.75,135.6166667
272167,河内長野市,かわちながのし,"かわ,ち,なが,の,し",,Kawachinagano Shi,大阪府,おおさかふ,"おお,さか,ふ",Osaka Fu,34.45,135.55
272175,松原市,まつばらし,"まつ,ばら,し",,Matsubara Shi,大阪府,おおさかふ,"おお,さか,ふ",Osaka Fu,34.56666667,135.55
272183,大東市,だいとうし,"だい,とう,し",,Daito Shi,大阪府,おおさかふ,"おお,さか,ふ",Osaka Fu,34.7,135.6166667
272191,和泉市,いずみし,"い,ずみ,し",,Izumi Shi,大阪府,おおさかふ,"おお,さか,ふ",Osaka Fu,34.48333333,135.4166667
272205,箕面市,みのおし,"みの,お,し",,Minoo Shi,大阪府,おおさかふ,"おお,さか,ふ",Osaka Fu,34.81666667,135.4666667
272213,柏原市,かしわらし,"かし,わら,し",,Kashiwara Shi,大阪府,おおさかふ,"おお,さか,ふ",Osaka Fu,34.56666667,135.6166667
272221,羽曳野市,はびきのし,"は,びき,の,し",,Habikino Shi,大阪府,おおさかふ,"おお,さか,ふ",Osaka Fu,34.55,135.6
272230,門真市,かどまし,"かど,ま,し",,Kadoma Shi,大阪府,おおさかふ,"おお,さか,ふ",Osaka Fu,34.73333333,135.5833333
272248,摂津市,せっつし,"せっ,つ,し",,Settsu Shi,大阪府,おおさかふ,"おお,さか,ふ",Osaka Fu,34.76666667,135.55
272256,高石市,たかいしし,"たか,いし,し",,Takaishi Shi,大阪府,おおさかふ,"おお,さか,ふ",Osaka Fu,34.51666667,135.4333333
272264,藤井寺市,ふじいでらし,"ふじ,い,でら,し",,Fujiidera Shi,大阪府,おおさかふ,"おお,さか,ふ",Osaka Fu,34.56666667,135.5833333
272272,東大阪市,ひがしおおさかし,"ひがし,おお,さか,し",,Higashiosaka Shi,大阪府,おおさかふ,"おお,さか,ふ",Osaka Fu,34.66666667,135.6
272281,泉南市,せんなんし,"せん,なん,し",,Sennan Shi,大阪府,おおさかふ,"おお,さか,ふ",Osaka Fu,34.35,135.2666667
272299,四條畷市,しじょうなわてし,"し,じょう,なわて,し",,Shijonawate Shi,大阪府,おおさかふ,"おお,さか,ふ",Osaka Fu,34.73333333,135.6333333
272302,交野市,かたのし,"かた,の,し",,Katano Shi,大阪府,おおさかふ,"おお,さか,ふ",Osaka Fu,34.78333333,135.6666667
272311,大阪狭山市,おおさかさやまし,"おお,さか,さ,やま,し",,Osakasayama Shi,大阪府,おおさかふ,"おお,さか,ふ",Osaka Fu,34.5,135.55
272329,阪南市,はんなんし,"はん,なん,し",,Hannan Shi,大阪府,おおさかふ,"おお,さか,ふ",Osaka Fu,34.35,135.2333333
273015,島本町,しまもとちょう,"しま,もと,ちょう",,Shimamoto Cho,大阪府,おおさかふ,"おお,さか,ふ",Osaka Fu,34.88333333,135.65
273210,豊能町,とよのちょう,"とよ,の,ちょう",,Toyono Cho,大阪府,おおさかふ,"おお,さか,ふ",Osaka Fu,34.91666667,135.4833333
273228,能勢町,のせちょう,"の,せ,ちょう",,Nose Cho,大阪府,おおさかふ,"おお,さか,ふ",Osaka Fu,34.96666667,135.4
273414,忠岡町,ただおかちょう,"ただ,おか,ちょう",,Tadaoka Cho,大阪府,おおさかふ,"おお,さか,ふ",Osaka Fu,34.48333333,135.4
273619,熊取町,くまとりちょう,"くま,とり,ちょう",,Kumatori Cho,大阪府,おおさかふ,"おお,さか,ふ",Osaka Fu,34.4,135.35
273627,田尻町,たじりちょう,"た,じり,ちょう",,Tajiri Cho,大阪府,おおさかふ,"おお,さか,ふ",Osaka Fu,34.38333333,135.2833333
273660,岬町,みさきちょう,"みさき,ちょう",,Misaki Cho,大阪府,おおさかふ,"おお,さか,ふ",Osaka Fu,34.31666667,135.1333333
273813,太子町,たいしちょう,"たい,し,ちょう",,Taishi Cho,大阪府,おおさかふ,"おお,さか,ふ",Osaka Fu,34.51666667,135.6333333
273821,河南町,かなんちょう,"か,なん,ちょう",,Kanan Cho,大阪府,おおさかふ,"おお,さか,ふ",Osaka Fu,34.48333333,135.6166667
273830,千早赤阪村,ちはやあかさかむら,"ち,はや,あか,さか,むら",,Chihayaakasaka Mura,大阪府,おおさかふ,"おお,さか,ふ",Osaka Fu,34.45,135.6166667
281000,神戸市,こうべし,"こう,べ,し",,Kobe Shi,兵庫県,ひょうごけん,"ひょう,ご,けん",Hyōgo Ken,34.68333333,135.1833333
282014,姫路市,ひめじし,"ひめ,じ,し",,Himeji Shi,兵庫県,ひょうごけん,"ひょう,ご,けん",Hyōgo Ken,34.8,134.6833333
282022,尼崎市,あまがさきし,"あまが,さき,し",,Amagasaki Shi,兵庫県,ひょうごけん,"ひょう,ご,けん",Hyōgo Ken,34.73333333,135.4
282031,明石市,あかしし,"あか,し,し",,Akashi Shi,兵庫県,ひょうごけん,"ひょう,ご,けん",Hyōgo Ken,34.63333333,134.9833333
282049,西宮市,にしのみやし,"にし,のみや,し",,Nishinomiya Shi,兵庫県,ひょうごけん,"ひょう,ご,けん",Hyōgo Ken,34.73333333,135.3333333
282057,洲本市,すもとし,"す,もと,し",,Sumoto Shi,兵庫県,ひょうごけん,"ひょう,ご,けん",Hyōgo Ken,34.33333333,134.8833333
282065,芦屋市,あしやし,"あし,や,し",,Ashiya Shi,兵庫県,ひょうごけん,"ひょう,ご,けん",Hyōgo Ken,34.71666667,135.3
282073,伊丹市,いたみし,"い,たみ,し",,Itami Shi,兵庫県,ひょうごけん,"ひょう,ご,けん",Hyōgo Ken,34.78333333,135.4
282081,相生市,あいおいし,"あい,おい,し",,Aioi Shi,兵庫県,ひょうごけん,"ひょう,ご,けん",Hyōgo Ken,34.8,134.4666667
282090,豊岡市,とよおかし,"とよ,おか,し",,Toyooka Shi,兵庫県,ひょうごけん,"ひょう,ご,けん",Hyōgo Ken,35.53333333,134.8166667
282103,加古川市,かこがわし,"か,こ,がわ,し",,Kakogawa Shi,兵庫県,ひょうごけん,"ひょう,ご,けん",Hyōgo Ken,34.75,134.8333333
282120,赤穂市,あこうし,"あ,こう,し",,Ako Shi,兵庫県,ひょうごけん,"ひょう,ご,けん",Hyōgo Ken,34.75,134.3833333
282138,西脇市,にしわきし,"にし,わき,し",,Nishiwaki Shi,兵庫県,ひょうごけん,"ひょう,ご,けん",Hyōgo Ken,34.98333333,134.9666667
282146,宝塚市,たからづかし,"たから,づか,し",,Takarazuka Shi,兵庫県,ひょうごけん,"ひょう,ご,けん",Hyōgo Ken,34.8,135.35
282154,三木市,みきし,"み,き,し",,Miki Shi,兵庫県,ひょうごけん,"ひょう,ご,けん",Hyōgo Ken,34.78333333,134.9833333
282162,高砂市,たかさごし,"たか,さご,し",,Takasago Shi,兵庫県,ひょうごけん,"ひょう,ご,けん",Hyōgo Ken,34.75,134.7833333
282171,川西市,かわにしし,"かわ,にし,し",,Kawanishi Shi,兵庫県,ひょうごけん,"ひょう,ご,けん",Hyōgo Ken,34.81666667,135.4166667
282189,小野市,おのし,"お,の,し",,Ono Shi,兵庫県,ひょうごけん,"ひょう,ご,けん",Hyōgo Ken,34.85,134.9166667
282197,三田市,さんだし,"さん,だ,し",,Sanda Shi,兵庫県,ひょうごけん,"ひょう,ご,けん",Hyōgo Ken,34.88333333,135.2166667
282201,加西市,かさいし,"か,さい,し",,Kasai Shi,兵庫県,ひょうごけん,"ひょう,ご,けん",Hyōgo Ken,34.91666667,134.8333333
282219,篠山市,ささやまし,"ささ,やま,し",,Sasayama Shi,兵庫県,ひょうごけん,"ひょう,ご,けん",Hyōgo Ken,35.06666667,135.2166667
282227,養父市,やぶし,"や,ぶ,し",,Yabu Shi,兵庫県,ひょうごけん,"ひょう,ご,けん",Hyōgo Ken,35.4,134.7666667
282235,丹波市,たんばし,"たん,ば,し",,Tanba Shi,兵庫県,ひょうごけん,"ひょう,ご,けん",Hyōgo Ken,35.16666667,135.0333333
282243,南あわじ市,みなみあわじし,"みなみ,あわじ,し",,Minamiawaji Shi,兵庫県,ひょうごけん,"ひょう,ご,けん",Hyōgo Ken,34.28333333,134.7666667
282251,朝来市,あさごし,"あさ,ご,し",,Asago Shi,兵庫県,ひょうごけん,"ひょう,ご,けん",Hyōgo Ken,35.33333333,134.85
282260,淡路市,あわじし,"あわ,じ,し",,Awaji Shi,兵庫県,ひょうごけん,"ひょう,ご,けん",Hyōgo Ken,34.43333333,134.9
282278,宍粟市,しそうし,"し,そう,し",,Shiso Shi,兵庫県,ひょうごけん,"ひょう,ご,けん",Hyōgo Ken,35,134.5333333
282286,加東市,かとうし,"か,とう,し",,Kato Shi,兵庫県,ひょうごけん,"ひょう,ご,けん",Hyōgo Ken,34.91666667,134.9666667
282294,たつの市,たつのし,"たつの,し",,Tatsuno Shi,兵庫県,ひょうごけん,"ひょう,ご,けん",Hyōgo Ken,34.85,134.5333333
283011,猪名川町,いながわちょう,"い,な,がわ,ちょう",,Inagawa Cho,兵庫県,ひょうごけん,"ひょう,ご,けん",Hyōgo Ken,34.88333333,135.3666667
283657,多可町,たかちょう,"た,か,ちょう",,Taka Cho,兵庫県,ひょうごけん,"ひょう,ご,けん",Hyōgo Ken,35.05,134.9166667
283819,稲美町,いなみちょう,"いな,み,ちょう",,Inami Cho,兵庫県,ひょうごけん,"ひょう,ご,けん",Hyōgo Ken,34.73333333,134.9
283827,播磨町,はりまちょう,"はり,ま,ちょう",,Harima Cho,兵庫県,ひょうごけん,"ひょう,ご,けん",Hyōgo Ken,34.7,134.8666667
284424,市川町,いちかわちょう,"いち,かわ,ちょう",,Ichikawa Cho,兵庫県,ひょうごけん,"ひょう,ご,けん",Hyōgo Ken,34.98333333,134.75
284432,福崎町,ふくさきちょう,"ふく,さき,ちょう",,Fukusaki Cho,兵庫県,ひょうごけん,"ひょう,ご,けん",Hyōgo Ken,34.95,134.75
284467,神河町,かみかわちょう,"かみ,かわ,ちょう",,Kamikawa Cho,兵庫県,ひょうごけん,"ひょう,ご,けん",Hyōgo Ken,35.05,134.7333333
284645,太子町,たいしちょう,"たい,し,ちょう",,Taishi Cho,兵庫県,ひょうごけん,"ひょう,ご,けん",Hyōgo Ken,34.83333333,134.5666667
284815,上郡町,かみごおりちょう,"かみ,ごおり,ちょう",,Kamigori Cho,兵庫県,ひょうごけん,"ひょう,ご,けん",Hyōgo Ken,34.86666667,134.35
285013,佐用町,さようちょう,"さ,よう,ちょう",,Sayo Cho,兵庫県,ひょうごけん,"ひょう,ご,けん",Hyōgo Ken,35,134.35
285854,香美町,かみちょう,"か,み,ちょう",,Kami Cho,兵庫県,ひょうごけん,"ひょう,ご,けん",Hyōgo Ken,35.63333333,134.6166667
285862,新温泉町,しんおんせんちょう,"しん,おん,せん,ちょう",,Shin-onsen Cho,兵庫県,ひょうごけん,"ひょう,ご,けん",Hyōgo Ken,35.61666667,134.4333333
292010,奈良市,ならし,"な,ら,し",,Nara Shi,奈良県,ならけん,"な,ら,けん",Nara Ken,34.68333333,135.8
292028,大和高田市,やまとたかだし,"やまと,たか,だ,し",Irregular reading: 大和 (やまと) does not decompose to two separate kanji readings,Yamatotakada Shi,奈良県,ならけん,"な,ら,けん",Nara Ken,34.5,135.7333333
292036,大和郡山市,やまとこおりやまし,"やまと,こおり,やま,し",Irregular reading: 大和 (やまと) does not decompose to two separate kanji readings,Yamatokoriyama Shi,奈良県,ならけん,"な,ら,けん",Nara Ken,34.63333333,135.7666667
292044,天理市,てんりし,"てん,り,し",,Tenri Shi,奈良県,ならけん,"な,ら,けん",Nara Ken,34.58333333,135.8333333
292052,橿原市,かしはらし,"かし,はら,し",,Kashihara Shi,奈良県,ならけん,"な,ら,けん",Nara Ken,34.5,135.7833333
292061,桜井市,さくらいし,"さくら,い,し",,Sakurai Shi,奈良県,ならけん,"な,ら,けん",Nara Ken,34.51666667,135.8333333
292079,五條市,ごじょうし,"ご,じょう,し",,Gojo Shi,奈良県,ならけん,"な,ら,けん",Nara Ken,34.35,135.6833333
292087,御所市,ごせし,"ご,せ,し",,Gose Shi,奈良県,ならけん,"な,ら,けん",Nara Ken,34.45,135.7333333
292095,生駒市,いこまし,"い,こま,し",,Ikoma Shi,奈良県,ならけん,"な,ら,けん",Nara Ken,34.68333333,135.7
292109,香芝市,かしばし,"か,しば,し",,Kashiba Shi,奈良県,ならけん,"な,ら,けん",Nara Ken,34.53333333,135.6833333
292117,葛城市,かつらぎし,"かつ,らぎ,し",,Katsuragi Shi,奈良県,ならけん,"な,ら,けん",Nara Ken,34.48333333,135.7166667
292125,宇陀市,うだし,"う,だ,し",,Uda Shi,奈良県,ならけん,"な,ら,けん",Nara Ken,34.51666667,135.95
293229,山添村,やまぞえむら,"やま,ぞえ,むら",,Yamazoe Mura,奈良県,ならけん,"な,ら,けん",Nara Ken,34.66666667,136.0333333
293423,平群町,へぐりちょう,"へ,ぐり,ちょう",,Heguri Cho,奈良県,ならけん,"な,ら,けん",Nara Ken,34.61666667,135.7
293431,三郷町,さんごうちょう,"さん,ごう,ちょう",,Sango Cho,奈良県,ならけん,"な,ら,けん",Nara Ken,34.6,135.6833333
293440,斑鳩町,いかるがちょう,"いかるが,ちょう","Hidden particle (が): いかる,が,ちょう. 斑鳩 (いかる) is irregular and does not decompose to two separate readings",Ikaruga Cho,奈良県,ならけん,"な,ら,けん",Nara Ken,34.6,135.7166667
293458,安堵町,あんどちょう,"あん,ど,ちょう",,Ando Cho,奈良県,ならけん,"な,ら,けん",Nara Ken,34.6,135.75
293610,川西町,かわにしちょう,"かわ,にし,ちょう",,Kawanishi Cho,奈良県,ならけん,"な,ら,けん",Nara Ken,34.58333333,135.7666667
293628,三宅町,みやけちょう,"み,やけ,ちょう",,Miyake Cho,奈良県,ならけん,"な,ら,けん",Nara Ken,34.56666667,135.7666667
293636,田原本町,たわらもとちょう,"た,わら,もと,ちょう",,Tawaramoto Cho,奈良県,ならけん,"な,ら,けん",Nara Ken,34.55,135.7833333
293857,曽爾村,そにむら,"そ,に,むら",,Soni Mura,奈良県,ならけん,"な,ら,けん",Nara Ken,34.5,136.1166667
293865,御杖村,みつえむら,"み,つえ,むら",,Mitsue Mura,奈良県,ならけん,"な,ら,けん",Nara Ken,34.48333333,136.15
294012,高取町,たかとりちょう,"たか,とり,ちょう",,Takatori Cho,奈良県,ならけん,"な,ら,けん",Nara Ken,34.43333333,135.7833333
294021,明日香村,あすかむら,"あ,す,か,むら",,Asuka Mura,奈良県,ならけん,"な,ら,けん",Nara Ken,34.46666667,135.8166667
294241,上牧町,かんまきちょう,"かん,まき,ちょう",,Kanmaki Cho,奈良県,ならけん,"な,ら,けん",Nara Ken,34.55,135.7166667
294250,王寺町,おうじちょう,"おう,じ,ちょう",,Oji Cho,奈良県,ならけん,"な,ら,けん",Nara Ken,34.58333333,135.7
294268,広陵町,こうりょうちょう,"こう,りょう,ちょう",,Koryo Cho,奈良県,ならけん,"な,ら,けん",Nara Ken,34.53333333,135.75
294276,河合町,かわいちょう,"かわ,い,ちょう",,Kawai Cho,奈良県,ならけん,"な,ら,けん",Nara Ken,34.56666667,135.7333333
294411,吉野町,よしのちょう,"よし,の,ちょう",,Yoshino Cho,奈良県,ならけん,"な,ら,けん",Nara Ken,34.38333333,135.85
294420,大淀町,おおよどちょう,"おお,よど,ちょう",,Oyodo Cho,奈良県,ならけん,"な,ら,けん",Nara Ken,34.38333333,135.7833333
294438,下市町,しもいちちょう,"しも,いち,ちょう",,Shimoichi Cho,奈良県,ならけん,"な,ら,けん",Nara Ken,34.35,135.7833333
294446,黒滝村,くろたきむら,"くろ,たき,むら",,Kurotaki Mura,奈良県,ならけん,"な,ら,けん",Nara Ken,34.3,135.85
294462,天川村,てんかわむら,"てん,かわ,むら",,Tenkawa Mura,奈良県,ならけん,"な,ら,けん",Nara Ken,34.23333333,135.85
294471,野迫川村,のせがわむら,"の,せ,がわ,むら",,Nosegawa Mura,奈良県,ならけん,"な,ら,けん",Nara Ken,34.15,135.6166667
294497,十津川村,とつかわむら,"と,つ,かわ,むら",,Totsukawa Mura,奈良県,ならけん,"な,ら,けん",Nara Ken,33.98333333,135.7833333
294501,下北山村,しもきたやまむら,"しも,きた,やま,むら",,Shimokitayama Mura,奈良県,ならけん,"な,ら,けん",Nara Ken,34,135.95
294519,上北山村,かみきたやまむら,"かみ,きた,やま,むら",,Kamikitayama Mura,奈良県,ならけん,"な,ら,けん",Nara Ken,34.13333333,136
294527,川上村,かわかみむら,"かわ,かみ,むら",,Kawakami Mura,奈良県,ならけん,"な,ら,けん",Nara Ken,34.33333333,135.95
294535,東吉野村,ひがしよしのむら,"ひがし,よし,の,むら",,Higashiyoshino Mura,奈良県,ならけん,"な,ら,けん",Nara Ken,34.4,135.9666667
302015,和歌山市,わかやまし,"わ,か,やま,し",,Wakayama Shi,和歌山県,わかやまけん,"わ,か,やま,けん",Wakayama Ken,34.21666667,135.1666667
302023,海南市,かいなんし,"かい,なん,し",,Kainan Shi,和歌山県,わかやまけん,"わ,か,やま,けん",Wakayama Ken,34.15,135.2
302031,橋本市,はしもとし,"はし,もと,し",,Hashimoto Shi,和歌山県,わかやまけん,"わ,か,やま,けん",Wakayama Ken,34.3,135.6
302040,有田市,ありだし,"あり,だ,し",,Arida Shi,和歌山県,わかやまけん,"わ,か,やま,けん",Wakayama Ken,34.06666667,135.1166667
302058,御坊市,ごぼうし,"ご,ぼう,し",,Gobo Shi,和歌山県,わかやまけん,"わ,か,やま,けん",Wakayama Ken,33.88333333,135.15
302066,田辺市,たなべし,"た,なべ,し",,Tanabe Shi,和歌山県,わかやまけん,"わ,か,やま,けん",Wakayama Ken,33.71666667,135.3666667
302074,新宮市,しんぐうし,"しん,ぐう,し",,Shingu Shi,和歌山県,わかやまけん,"わ,か,やま,けん",Wakayama Ken,33.71666667,135.9833333
302082,紀の川市,きのかわし,"き,の,かわ,し",,Kinokawa Shi,和歌山県,わかやまけん,"わ,か,やま,けん",Wakayama Ken,34.26666667,135.35
302091,岩出市,いわでし,"いわ,で,し",,Iwade Shi,和歌山県,わかやまけん,"わ,か,やま,けん",Wakayama Ken,34.25,135.3
303046,紀美野町,きみのちょう,"き,み,の,ちょう",,Kimino Cho,和歌山県,わかやまけん,"わ,か,やま,けん",Wakayama Ken,34.16666667,135.3
303411,かつらぎ町,かつらぎちょう,"かつらぎ,ちょう",,Katsuragi Cho,和歌山県,わかやまけん,"わ,か,やま,けん",Wakayama Ken,34.28333333,135.5
303437,九度山町,くどやまちょう,"く,ど,やま,ちょう",,Kudoyama Cho,和歌山県,わかやまけん,"わ,か,やま,けん",Wakayama Ken,34.28333333,135.55
303445,高野町,こうやちょう,"こう,や,ちょう",,Koya Cho,和歌山県,わかやまけん,"わ,か,やま,けん",Wakayama Ken,34.2,135.5833333
303615,湯浅町,ゆあさちょう,"ゆ,あさ,ちょう",,Yuasa Cho,和歌山県,わかやまけん,"わ,か,やま,けん",Wakayama Ken,34.01666667,135.1666667
303623,広川町,ひろがわちょう,"ひろ,がわ,ちょう",,Hirogawa Cho,和歌山県,わかやまけん,"わ,か,やま,けん",Wakayama Ken,34.01666667,135.1666667
303666,有田川町,ありだがわちょう,"あり,だ,がわ,ちょう",,Aridagawa Cho,和歌山県,わかやまけん,"わ,か,やま,けん",Wakayama Ken,34.05,135.2
303810,美浜町,みはまちょう,"み,はま,ちょう",,Mihama Cho,和歌山県,わかやまけん,"わ,か,やま,けん",Wakayama Ken,33.88333333,135.1166667
303828,日高町,ひだかちょう,"ひ,だか,ちょう",,Hidaka Cho,和歌山県,わかやまけん,"わ,か,やま,けん",Wakayama Ken,33.91666667,135.1333333
303836,由良町,ゆらちょう,"ゆ,ら,ちょう",,Yura Cho,和歌山県,わかやまけん,"わ,か,やま,けん",Wakayama Ken,33.95,135.1166667
303909,印南町,いなみちょう,"い,なみ,ちょう",,Inami Cho,和歌山県,わかやまけん,"わ,か,やま,けん",Wakayama Ken,33.81666667,135.2166667
303917,みなべ町,みなべちょう,"みなべ,ちょう",,Minabe Cho,和歌山県,わかやまけん,"わ,か,やま,けん",Wakayama Ken,33.76666667,135.3166667
303925,日高川町,ひだかがわちょう,"ひ,だか,がわ,ちょう",,Hidakagawa Cho,和歌山県,わかやまけん,"わ,か,やま,けん",Wakayama Ken,33.9,135.1833333
304018,白浜町,しらはまちょう,"しら,はま,ちょう",,Shirahama Cho,和歌山県,わかやまけん,"わ,か,やま,けん",Wakayama Ken,33.66666667,135.3333333
304042,上富田町,かみとんだちょう,"かみ,とん,だ,ちょう",,Kamitonda Cho,和歌山県,わかやまけん,"わ,か,やま,けん",Wakayama Ken,33.68333333,135.4166667
304069,すさみ町,すさみちょう,"すさみ,ちょう",,Susami Cho,和歌山県,わかやまけん,"わ,か,やま,けん",Wakayama Ken,33.55,135.4833333
304212,那智勝浦町,なちかつうらちょう,"な,ち,かつ,うら,ちょう",,Nachikatsuura Cho,和歌山県,わかやまけん,"わ,か,やま,けん",Wakayama Ken,33.61666667,135.9333333
304221,太地町,たいじちょう,"たい,じ,ちょう",,Taiji Cho,和歌山県,わかやまけん,"わ,か,やま,けん",Wakayama Ken,33.58333333,135.9333333
304247,古座川町,こざがわちょう,"こ,ざ,がわ,ちょう",,Kozagawa Cho,和歌山県,わかやまけん,"わ,か,やま,けん",Wakayama Ken,33.51666667,135.8
304271,北山村,きたやまむら,"き,たや,まむら",,Kitayama Mura,和歌山県,わかやまけん,"わ,か,やま,けん",Wakayama Ken,33.91666667,135.9666667
304280,串本町,くしもとちょう,"くし,もと,ちょう",,Kushimoto Cho,和歌山県,わかやまけん,"わ,か,やま,けん",Wakayama Ken,33.46666667,135.7666667
312011,鳥取市,とっとりし,"とっ,とり,し",,Tottori Shi,鳥取県,とっとりけん,"とっ,とり,けん",Tottori Ken,35.5,134.2333333
312029,米子市,よなごし,"よ,なご,し",,Yonago Shi,鳥取県,とっとりけん,"とっ,とり,けん",Tottori Ken,35.41666667,133.3166667
312037,倉吉市,くらよしし,"くら,よし,し",,Kurayoshi Shi,鳥取県,とっとりけん,"とっ,とり,けん",Tottori Ken,35.41666667,133.8166667
312045,境港市,さかいみなとし,"さかい,みなと,し",,Sakaiminato Shi,鳥取県,とっとりけん,"とっ,とり,けん",Tottori Ken,35.53333333,133.2166667
313025,岩美町,いわみちょう,"いわ,み,ちょう",,Iwami Cho,鳥取県,とっとりけん,"とっ,とり,けん",Tottori Ken,35.56666667,134.3166667
313254,若桜町,わかさちょう,"わか,さ,ちょう",,Wakasa Cho,鳥取県,とっとりけん,"とっ,とり,けん",Tottori Ken,35.33333333,134.4
313289,智頭町,ちづちょう,"ち,づ,ちょう",,Chizu Cho,鳥取県,とっとりけん,"とっ,とり,けん",Tottori Ken,35.25,134.2166667
313297,八頭町,やずちょう,"や,ず,ちょう",,Yazu Cho,鳥取県,とっとりけん,"とっ,とり,けん",Tottori Ken,35.4,134.25
313645,三朝町,みささちょう,"み,ささ,ちょう",,Misasa Cho,鳥取県,とっとりけん,"とっ,とり,けん",Tottori Ken,35.4,133.85
313700,湯梨浜町,ゆりはまちょう,"ゆ,り,はま,ちょう",,Yurihama Cho,鳥取県,とっとりけん,"とっ,とり,けん",Tottori Ken,35.48333333,133.85
313718,琴浦町,ことうらちょう,"こと,うら,ちょう",,Kotoura Cho,鳥取県,とっとりけん,"とっ,とり,けん",Tottori Ken,35.48333333,133.6833333
313726,北栄町,ほくえいちょう,"ほく,えい,ちょう",,Hokuei Cho,鳥取県,とっとりけん,"とっ,とり,けん",Tottori Ken,35.48333333,133.75
313840,日吉津村,ひえづそん,"ひ,え,づ,そん",,Hiezu Son,鳥取県,とっとりけん,"とっ,とり,けん",Tottori Ken,35.43333333,133.3666667
313866,大山町,だいせんちょう,"だい,せん,ちょう",,Daisen Cho,鳥取県,とっとりけん,"とっ,とり,けん",Tottori Ken,35.5,133.4833333
313891,南部町,なんぶちょう,"なん,ぶ,ちょう",,Nanbu Cho,鳥取県,とっとりけん,"とっ,とり,けん",Tottori Ken,35.33333333,133.3166667
313904,伯耆町,ほうきちょう,"ほう,き,ちょう",,Hoki Cho,鳥取県,とっとりけん,"とっ,とり,けん",Tottori Ken,35.38333333,133.4
314013,日南町,にちなんちょう,"にち,なん,ちょう",,Nichinan Cho,鳥取県,とっとりけん,"とっ,とり,けん",Tottori Ken,35.16666667,133.3166667
314021,日野町,ひのちょう,"ひ,の,ちょう",,Hino Cho,鳥取県,とっとりけん,"とっ,とり,けん",Tottori Ken,35.23333333,133.4333333
314030,江府町,こうふちょう,"こう,ふ,ちょう",,Kofu Cho,鳥取県,とっとりけん,"とっ,とり,けん",Tottori Ken,35.26666667,133.4833333
322016,松江市,まつえし,"まつ,え,し",,Matsue Shi,島根県,しまねけん,"しま,ね,けん",Shimane Ken,35.46666667,133.0333333
322024,浜田市,はまだし,"はま,だ,し",,Hamada Shi,島根県,しまねけん,"しま,ね,けん",Shimane Ken,34.88333333,132.0666667
322032,出雲市,いずもし,"い,ずも,し",,Izumo Shi,島根県,しまねけん,"しま,ね,けん",Shimane Ken,35.36666667,132.75
322041,益田市,ますだし,"ます,だ,し",,Masuda Shi,島根県,しまねけん,"しま,ね,けん",Shimane Ken,34.66666667,131.8333333
322059,大田市,おおだし,"おお,だ,し",,Oda Shi,島根県,しまねけん,"しま,ね,けん",Shimane Ken,35.18333333,132.4833333
322067,安来市,やすぎし,"やす,ぎ,し",,Yasugi Shi,島根県,しまねけん,"しま,ね,けん",Shimane Ken,35.41666667,133.25
322075,江津市,ごうつし,"ごう,つ,し",,Gotsu Shi,島根県,しまねけん,"しま,ね,けん",Shimane Ken,35,132.2166667
322091,雲南市,うんなんし,"うん,なん,し",,Unnan Shi,島根県,しまねけん,"しま,ね,けん",Shimane Ken,35.28333333,132.9
323438,奥出雲町,おくいずもちょう,"おく,い,ずも,ちょう",,Okuizumo Cho,島根県,しまねけん,"しま,ね,けん",Shimane Ken,35.18333333,133
323861,飯南町,いいなんちょう,"いい,なん,ちょう",,Iinan Cho,島根県,しまねけん,"しま,ね,けん",Shimane Ken,35,132.7
324418,川本町,かわもとまち,"かわ,もと,まち",,Kawamoto Machi,島根県,しまねけん,"しま,ね,けん",Shimane Ken,34.98333333,132.4833333
324485,美郷町,みさとちょう,"み,さと,ちょう",,Misato Cho,島根県,しまねけん,"しま,ね,けん",Shimane Ken,35.06666667,132.5833333
324493,邑南町,おおなんちょう,"おお,なん,ちょう",,Onan Cho,島根県,しまねけん,"しま,ね,けん",Shimane Ken,34.88333333,132.4333333
325015,津和野町,つわのちょう,"つ,わ,の,ちょう",,Tsuwano Cho,島根県,しまねけん,"しま,ね,けん",Shimane Ken,34.53333333,131.8333333
325058,吉賀町,よしかちょう,"よし,か,ちょう",,Yoshika Cho,島根県,しまねけん,"しま,ね,けん",Shimane Ken,34.35,131.9333333
325252,海士町,あまちょう,"あ,ま,ちょう",,Ama Cho,島根県,しまねけん,"しま,ね,けん",Shimane Ken,36.08333333,133.0833333
325261,西ノ島町,にしのしまちょう,"にし,の,しま,ちょう",,Nishinoshima Cho,島根県,しまねけん,"しま,ね,けん",Shimane Ken,36.08333333,132.9833333
325279,知夫村,ちぶむら,"ち,ぶ,むら",,Chibu Mura,島根県,しまねけん,"しま,ね,けん",Shimane Ken,36,133.0333333
325287,隠岐の島町,おきのしまちょう,"お,き,の,しま,ちょう",,Okinoshima Cho,島根県,しまねけん,"しま,ね,けん",Shimane Ken,36.2,133.3166667
331007,岡山市,おかやまし,"おか,やま,し",,Okayama Shi,岡山県,おかやまけん,"おか,やま,けん",Okayama Ken,34.65,133.9166667
332020,倉敷市,くらしきし,"くら,しき,し",,Kurashiki Shi,岡山県,おかやまけん,"おか,やま,けん",Okayama Ken,34.58333333,133.7666667
332038,津山市,つやまし,"つ,やま,し",,Tsuyama Shi,岡山県,おかやまけん,"おか,やま,けん",Okayama Ken,35.06666667,134
332046,玉野市,たまのし,"たま,の,し",,Tamano Shi,岡山県,おかやまけん,"おか,やま,けん",Okayama Ken,34.48333333,133.9333333
332054,笠岡市,かさおかし,"かさ,おか,し",,Kasaoka Shi,岡山県,おかやまけん,"おか,やま,けん",Okayama Ken,34.5,133.5
332071,井原市,いばらし,"い,ばら,し",,Ibara Shi,岡山県,おかやまけん,"おか,やま,けん",Okayama Ken,34.58333333,133.45
332089,総社市,そうじゃし,"そう,じゃ,し",,Soja Shi,岡山県,おかやまけん,"おか,やま,けん",Okayama Ken,34.66666667,133.7333333
332097,高梁市,たかはしし,"たか,はし,し",,Takahashi Shi,岡山県,おかやまけん,"おか,やま,けん",Okayama Ken,34.78333333,133.6166667
332101,新見市,にいみし,"にい,み,し",,Niimi Shi,岡山県,おかやまけん,"おか,やま,けん",Okayama Ken,34.96666667,133.4666667
332119,備前市,びぜんし,"び,ぜん,し",,Bizen Shi,岡山県,おかやまけん,"おか,やま,けん",Okayama Ken,34.73333333,134.1833333
332127,瀬戸内市,せとうちし,"せ,と,うち,し",,Setouchi Shi,岡山県,おかやまけん,"おか,やま,けん",Okayama Ken,34.65,134.0833333
332135,赤磐市,あかいわし,"あか,いわ,し",,Akaiwa Shi,岡山県,おかやまけん,"おか,やま,けん",Okayama Ken,34.75,134.0166667
332143,真庭市,まにわし,"ま,にわ,し",,Maniwa Shi,岡山県,おかやまけん,"おか,やま,けん",Okayama Ken,35.08333333,133.6833333
332151,美作市,みまさかし,"み,まさか,し",,Mimasaka Shi,岡山県,おかやまけん,"おか,やま,けん",Okayama Ken,35,134.1333333
332160,浅口市,あさくちし,"あさ,くち,し",,Asakuchi Shi,岡山県,おかやまけん,"おか,やま,けん",Okayama Ken,34.51666667,133.5833333
333468,和気町,わけちょう,"わ,け,ちょう",,Wake Cho,岡山県,おかやまけん,"おか,やま,けん",Okayama Ken,34.8,134.15
334235,早島町,はやしまちょう,"はや,しま,ちょう",,Hayashima Cho,岡山県,おかやまけん,"おか,やま,けん",Okayama Ken,34.6,133.8166667
334456,里庄町,さとしょうちょう,"さと,しょう,ちょう",,Satosho Cho,岡山県,おかやまけん,"おか,やま,けん",Okayama Ken,34.5,133.55
334618,矢掛町,やかげちょう,"や,かげ,ちょう",,Yakage Cho,岡山県,おかやまけん,"おか,やま,けん",Okayama Ken,34.61666667,133.5833333
335860,新庄村,しんじょうそん,"しん,じょう,そん",,Shinjo Son,岡山県,おかやまけん,"おか,やま,けん",Okayama Ken,35.16666667,133.5666667
336068,鏡野町,かがみのちょう,"かがみ,の,ちょう",,Kagamino Cho,岡山県,おかやまけん,"おか,やま,けん",Okayama Ken,35.08333333,133.9166667
336220,勝央町,しょうおうちょう,"しょう,おう,ちょう",,Shoo Cho,岡山県,おかやまけん,"おか,やま,けん",Okayama Ken,35.03333333,134.1
336238,奈義町,なぎちょう,"な,ぎ,ちょう",,Nagi Cho,岡山県,おかやまけん,"おか,やま,けん",Okayama Ken,35.11666667,134.1666667
336432,西粟倉村,にしあわくらそん,"にし,あわ,くら,そん",,Nishiawakura Son,岡山県,おかやまけん,"おか,やま,けん",Okayama Ken,35.16666667,134.3333333
336637,久米南町,くめなんちょう,"く,め,なん,ちょう",,Kumenan Cho,岡山県,おかやまけん,"おか,やま,けん",Okayama Ken,34.91666667,133.95
336661,美咲町,みさきちょう,"み,さき,ちょう",,Misaki Cho,岡山県,おかやまけん,"おか,やま,けん",Okayama Ken,34.98333333,133.95
336815,吉備中央町,きびちゅうおうちょう,"き,び,ちゅう,おう,ちょう",,Kibichuo Cho,岡山県,おかやまけん,"おか,やま,けん",Okayama Ken,34.85,133.6833333
341002,広島市,ひろしまし,"ひろ,しま,し",,Hiroshima Shi,広島県,ひろしまけん,"ひろ,しま,けん",Hiroshima Ken,34.38333333,132.45
342025,呉市,くれし,"く,れ,し",,Kure Shi,広島県,ひろしまけん,"ひろ,しま,けん",Hiroshima Ken,34.23333333,132.55
342033,竹原市,たけはらし,"たけ,はら,し",,Takehara Shi,広島県,ひろしまけん,"ひろ,しま,けん",Hiroshima Ken,34.33333333,132.9
342041,三原市,みはらし,"み,はら,し",,Mihara Shi,広島県,ひろしまけん,"ひろ,しま,けん",Hiroshima Ken,34.38333333,133.0666667
342050,尾道市,おのみちし,"おの,みち,し",,Onomichi Shi,広島県,ひろしまけん,"ひろ,しま,けん",Hiroshima Ken,34.4,133.2
342076,福山市,ふくやまし,"ふく,やま,し",,Fukuyama Shi,広島県,ひろしまけん,"ひろ,しま,けん",Hiroshima Ken,34.48333333,133.35
342084,府中市,ふちゅうし,"ふ,ちゅう,し",,Fuchu Shi,広島県,ひろしまけん,"ひろ,しま,けん",Hiroshima Ken,34.56666667,133.2333333
342092,三次市,みよしし,"み,よし,し",,Miyoshi Shi,広島県,ひろしまけん,"ひろ,しま,けん",Hiroshima Ken,34.8,132.85
342106,庄原市,しょうばらし,"しょう,ばら,し",,Shobara Shi,広島県,ひろしまけん,"ひろ,しま,けん",Hiroshima Ken,34.85,133.0166667
342114,大竹市,おおたけし,"おお,たけ,し",,Otake Shi,広島県,ひろしまけん,"ひろ,しま,けん",Hiroshima Ken,34.23333333,132.2166667
342122,東広島市,ひがしひろしまし,"ひがし,ひろ,しま,し",,Higashihiroshima Shi,広島県,ひろしまけん,"ひろ,しま,けん",Hiroshima Ken,34.41666667,132.7333333
342131,廿日市市,はつかいちし,"はつ,か,いち,し",,Hatsukaichi Shi,広島県,ひろしまけん,"ひろ,しま,けん",Hiroshima Ken,34.33333333,132.3166667
342149,安芸高田市,あきたかたし,"あ,き,たか,た,し",,Aki-takata Shi,広島県,ひろしまけん,"ひろ,しま,けん",Hiroshima Ken,34.65,132.7
342157,江田島市,えたじまし,"え,た,じま,し",,Etajima Shi,広島県,ひろしまけん,"ひろ,しま,けん",Hiroshima Ken,34.21666667,132.4333333
343021,府中町,ふちゅうちょう,"ふ,ちゅう,ちょう",,Fuchu Cho,広島県,ひろしまけん,"ひろ,しま,けん",Hiroshima Ken,34.38333333,132.5
343048,海田町,かいたちょう,"かい,た,ちょう",,Kaita Cho,広島県,ひろしまけん,"ひろ,しま,けん",Hiroshima Ken,34.36666667,132.5333333
343072,熊野町,くまのちょう,"くま,の,ちょう",,Kumano Cho,広島県,ひろしまけん,"ひろ,しま,けん",Hiroshima Ken,34.33333333,132.5833333
343099,坂町,さかちょう,"さ,か,ちょう",,Saka Cho,広島県,ひろしまけん,"ひろ,しま,けん",Hiroshima Ken,34.33333333,132.5
343684,安芸太田町,あきおおたちょう,"あ,き,おお,た,ちょう",,Akiota Cho,広島県,ひろしまけん,"ひろ,しま,けん",Hiroshima Ken,34.56666667,132.2166667
343692,北広島町,きたひろしまちょう,"きた,ひろ,しま,ちょう",,Kitahiroshima Cho,広島県,ひろしまけん,"ひろ,しま,けん",Hiroshima Ken,34.66666667,132.5333333
344311,大崎上島町,おおさきかみじまちょう,"おお,さき,かみ,じま,ちょう",,Osakikamijima Cho,広島県,ひろしまけん,"ひろ,しま,けん",Hiroshima Ken,34.26666667,132.9
344621,世羅町,せらちょう,"せ,ら,ちょう",,Sera Cho,広島県,ひろしまけん,"ひろ,しま,けん",Hiroshima Ken,34.58333333,133.05
345458,神石高原町,じんせきこうげんちょう,"じん,せき,こう,げん,ちょう",,Jinsekikogen Cho,広島県,ひろしまけん,"ひろ,しま,けん",Hiroshima Ken,34.7,133.2333333
352012,下関市,しものせきし,"しもの,せき,し","Hidden particle (の): しも,の,せき,し",Shimonoseki Shi,山口県,やまぐちけん,"やま,ぐち,けん",Yamaguchi Ken,33.95,130.9333333
352021,宇部市,うべし,"う,べ,し",,Ube Shi,山口県,やまぐちけん,"やま,ぐち,けん",Yamaguchi Ken,33.95,131.2333333
352039,山口市,やまぐちし,"やま,ぐち,し",,Yamaguchi Shi,山口県,やまぐちけん,"やま,ぐち,けん",Yamaguchi Ken,34.16666667,131.4666667
352047,萩市,はぎし,"は,ぎ,し",,Hagi Shi,山口県,やまぐちけん,"やま,ぐち,けん",Yamaguchi Ken,34.4,131.3833333
352063,防府市,ほうふし,"ほう,ふ,し",,Hofu Shi,山口県,やまぐちけん,"やま,ぐち,けん",Yamaguchi Ken,34.05,131.55
352071,下松市,くだまつし,"くだ,まつ,し",,Kudamatsu Shi,山口県,やまぐちけん,"やま,ぐち,けん",Yamaguchi Ken,34,131.8666667
352080,岩国市,いわくにし,"いわ,くに,し",,Iwakuni Shi,山口県,やまぐちけん,"やま,ぐち,けん",Yamaguchi Ken,34.16666667,132.2166667
352101,光市,ひかりし,"ひかり,し",,Hikari Shi,山口県,やまぐちけん,"やま,ぐち,けん",Yamaguchi Ken,33.95,131.9333333
352110,長門市,ながとし,"なが,と,し",,Nagato Shi,山口県,やまぐちけん,"やま,ぐち,けん",Yamaguchi Ken,34.36666667,131.1666667
352128,柳井市,やないし,"やな,い,し",,Yanai Shi,山口県,やまぐちけん,"やま,ぐち,けん",Yamaguchi Ken,33.95,132.1
352136,美祢市,みねし,"み,ね,し",,Mine Shi,山口県,やまぐちけん,"やま,ぐち,けん",Yamaguchi Ken,34.16666667,131.2
352152,周南市,しゅうなんし,"しゅう,なん,し",,Shunan Shi,山口県,やまぐちけん,"やま,ぐち,けん",Yamaguchi Ken,34.05,131.8
352161,山陽小野田市,さんようおのだし,"さん,よう,お,の,だ,し",,San-yo-onoda Shi,山口県,やまぐちけん,"やま,ぐち,けん",Yamaguchi Ken,34,131.1666667
353051,周防大島町,すおうおおしまちょう,"す,おう,おお,しま,ちょう",,Suo-oshima Cho,山口県,やまぐちけん,"やま,ぐち,けん",Yamaguchi Ken,33.91666667,132.1833333
353213,和木町,わきちょう,"わ,き,ちょう",,Waki Cho,山口県,やまぐちけん,"やま,ぐち,けん",Yamaguchi Ken,34.2,132.2166667
353418,上関町,かみのせきちょう,"かみの,せき,ちょう","Hidden particle (の): かみ,の,せき,ちょう",Kaminoseki Cho,山口県,やまぐちけん,"やま,ぐち,けん",Yamaguchi Ken,33.81666667,132.1
353434,田布施町,たぶせちょう,"た,ぶ,せ,ちょう",,Tabuse Cho,山口県,やまぐちけん,"やま,ぐち,けん",Yamaguchi Ken,33.95,132.0333333
353442,平生町,ひらおちょう,"ひら,お,ちょう",,Hirao Cho,山口県,やまぐちけん,"やま,ぐち,けん",Yamaguchi Ken,33.93333333,132.0666667
355020,阿武町,あぶちょう,"あ,ぶ,ちょう",,Abu Cho,山口県,やまぐちけん,"やま,ぐち,けん",Yamaguchi Ken,34.5,131.4666667
362018,徳島市,とくしまし,"とく,しま,し",,Tokushima Shi,徳島県,とくしまけん,"とく,しま,けん",Tokushima Ken,34.06666667,134.55
362026,鳴門市,なるとし,"なる,と,し",,Naruto Shi,徳島県,とくしまけん,"とく,しま,けん",Tokushima Ken,34.16666667,134.6
362034,小松島市,こまつしまし,"こ,まつ,しま,し",,Komatsushima Shi,徳島県,とくしまけん,"とく,しま,けん",Tokushima Ken,34,134.5833333
362042,阿南市,あなんし,"あ,なん,し",,Anan Shi,徳島県,とくしまけん,"とく,しま,けん",Tokushima Ken,33.91666667,134.65
362051,吉野川市,よしのがわし,"よし,の,がわ,し",,Yoshinogawa Shi,徳島県,とくしまけん,"とく,しま,けん",Tokushima Ken,34.05,134.35
362069,阿波市,あわし,"あ,わ,し",,Awa Shi,徳島県,とくしまけん,"とく,しま,けん",Tokushima Ken,34.06666667,134.2333333
362077,美馬市,みまし,"み,ま,し",,Mima Shi,徳島県,とくしまけん,"とく,しま,けん",Tokushima Ken,34.05,134.1666667
362085,三好市,みよしし,"み,よし,し",,Miyoshi Shi,徳島県,とくしまけん,"とく,しま,けん",Tokushima Ken,34.01666667,133.8
363014,勝浦町,かつうらちょう,"かつ,うら,ちょう",,Katsuura Cho,徳島県,とくしまけん,"とく,しま,けん",Tokushima Ken,33.91666667,134.5
363022,上勝町,かみかつちょう,"かみ,かつ,ちょう",,Kamikatsu Cho,徳島県,とくしまけん,"とく,しま,けん",Tokushima Ken,33.88333333,134.4
363219,佐那河内村,さなごうちそん,"さ,な,ご,うち,そん",,Sanagochi Son,徳島県,とくしまけん,"とく,しま,けん",Tokushima Ken,33.98333333,134.45
363413,石井町,いしいちょう,"いし,い,ちょう",,Ishii Cho,徳島県,とくしまけん,"とく,しま,けん",Tokushima Ken,34.06666667,134.4333333
363421,神山町,かみやまちょう,"かみ,やま,ちょう",,Kamiyama Cho,徳島県,とくしまけん,"とく,しま,けん",Tokushima Ken,33.96666667,134.35
363685,那賀町,なかちょう,"な,か,ちょう",,Naka Cho,徳島県,とくしまけん,"とく,しま,けん",Tokushima Ken,33.85,134.4833333
363839,牟岐町,むぎちょう,"む,ぎ,ちょう",,Mugi Cho,徳島県,とくしまけん,"とく,しま,けん",Tokushima Ken,33.66666667,134.4166667
363871,美波町,みなみちょう,"み,なみ,ちょう",,Minami Cho,徳島県,とくしまけん,"とく,しま,けん",Tokushima Ken,33.73333333,134.5333333
363880,海陽町,かいようちょう,"かい,よう,ちょう",,Kaiyo Cho,徳島県,とくしまけん,"とく,しま,けん",Tokushima Ken,33.58333333,134.35
364011,松茂町,まつしげちょう,"まつ,しげ,ちょう",,Matsushige Cho,徳島県,とくしまけん,"とく,しま,けん",Tokushima Ken,34.13333333,134.5666667
364029,北島町,きたじまちょう,"きた,じま,ちょう",,Kitajima Cho,徳島県,とくしまけん,"とく,しま,けん",Tokushima Ken,34.11666667,134.5333333
364037,藍住町,あいずみちょう,"あい,ずみ,ちょう",,Aizumi Cho,徳島県,とくしまけん,"とく,しま,けん",Tokushima Ken,34.11666667,134.4833333
364045,板野町,いたのちょう,"いた,の,ちょう",,Itano Cho,徳島県,とくしまけん,"とく,しま,けん",Tokushima Ken,34.13333333,134.45
364053,上板町,かみいたちょう,"かみ,いた,ちょう",,Kamiita Cho,徳島県,とくしまけん,"とく,しま,けん",Tokushima Ken,34.11666667,134.4
364681,つるぎ町,つるぎちょう,"つるぎ,ちょう",,Tsurugi Cho,徳島県,とくしまけん,"とく,しま,けん",Tokushima Ken,34.03333333,134.05
364894,東みよし町,ひがしみよしちょう,"ひがし,みよし,ちょう",,Higashimiyoshi Cho,徳島県,とくしまけん,"とく,しま,けん",Tokushima Ken,34.03333333,133.9333333
372013,高松市,たかまつし,"たか,まつ,し",,Takamatsu Shi,香川県,かがわけん,"か,がわ,けん",Kagawa Ken,34.33333333,134.0333333
372021,丸亀市,まるがめし,"まる,がめ,し",,Marugame Shi,香川県,かがわけん,"か,がわ,けん",Kagawa Ken,34.28333333,133.7833333
372030,坂出市,さかいでし,"さかい,で,し",,Sakaide Shi,香川県,かがわけん,"か,がわ,けん",Kagawa Ken,34.3,133.85
372048,善通寺市,ぜんつうじし,"ぜん,つう,じ,し",,Zentsuji Shi,香川県,かがわけん,"か,がわ,けん",Kagawa Ken,34.21666667,133.7833333
372056,観音寺市,かんおんじし,"かん,おん,じ,し",,Kan-onji Shi,香川県,かがわけん,"か,がわ,けん",Kagawa Ken,34.11666667,133.65
372064,さぬき市,さぬきし,"さぬき,し",,Sanuki Shi,香川県,かがわけん,"か,がわ,けん",Kagawa Ken,34.31666667,134.1666667
372072,東かがわ市,ひがしかがわし,"ひがし,かがわ,し",,Higashikagawa Shi,香川県,かがわけん,"か,がわ,けん",Kagawa Ken,34.23333333,134.35
372081,三豊市,みとよし,"み,とよ,し",,Mitoyo Shi,香川県,かがわけん,"か,がわ,けん",Kagawa Ken,34.13333333,133.6833333
373222,土庄町,とのしょうちょう,"との,しょう,ちょう",,Tonosho Cho,香川県,かがわけん,"か,がわ,けん",Kagawa Ken,34.48333333,134.1833333
373249,小豆島町,しょうどしまちょう,"しょう,ど,しま,ちょう",,Shodoshima Cho,香川県,かがわけん,"か,がわ,けん",Kagawa Ken,34.46666667,134.2333333
373419,三木町,みきちょう,"み,き,ちょう",,Miki Cho,香川県,かがわけん,"か,がわ,けん",Kagawa Ken,34.26666667,134.1333333
373648,直島町,なおしまちょう,"なお,しま,ちょう",,Naoshima Cho,香川県,かがわけん,"か,がわ,けん",Kagawa Ken,34.45,133.9833333
373869,宇多津町,うたづちょう,"う,た,づ,ちょう",,Utazu Cho,香川県,かがわけん,"か,がわ,けん",Kagawa Ken,34.3,133.8166667
373877,綾川町,あやがわちょう,"あや,がわ,ちょう",,Ayagawa Cho,香川県,かがわけん,"か,がわ,けん",Kagawa Ken,34.23333333,133.9166667
374032,琴平町,ことひらちょう,"こと,ひら,ちょう",,Kotohira Cho,香川県,かがわけん,"か,がわ,けん",Kagawa Ken,34.18333333,133.8166667
374041,多度津町,たどつちょう,"た,ど,つ,ちょう",,Tadotsu Cho,香川県,かがわけん,"か,がわ,けん",Kagawa Ken,34.26666667,133.75
374067,まんのう町,まんのうちょう,"まんのう,ちょう",,Manno Cho,香川県,かがわけん,"か,がわ,けん",Kagawa Ken,34.18333333,133.8333333
382019,松山市,まつやまし,"まつ,やま,し",,Matsuyama Shi,愛媛県,えひめけん,"え,ひめ,けん",Ehime Ken,33.83333333,132.75
382027,今治市,いまばりし,"いま,ばり,し",,Imabari Shi,愛媛県,えひめけん,"え,ひめ,けん",Ehime Ken,34.05,132.9833333
382035,宇和島市,うわじまし,"う,わ,じま,し",,Uwajima Shi,愛媛県,えひめけん,"え,ひめ,けん",Ehime Ken,33.21666667,132.55
382043,八幡浜市,やわたはまし,"や,わた,はま,し",,Yawatahama Shi,愛媛県,えひめけん,"え,ひめ,けん",Ehime Ken,33.45,132.4166667
382051,新居浜市,にいはまし,"に,い,はま,し",,Niihama Shi,愛媛県,えひめけん,"え,ひめ,けん",Ehime Ken,33.95,133.2833333
382060,西条市,さいじょうし,"さい,じょう,し",,Saijo Shi,愛媛県,えひめけん,"え,ひめ,けん",Ehime Ken,33.91666667,133.1666667
382078,大洲市,おおずし,"おお,ず,し",,Ozu Shi,愛媛県,えひめけん,"え,ひめ,けん",Ehime Ken,33.5,132.5333333
382108,伊予市,いよし,"い,よ,し",,Iyo Shi,愛媛県,えひめけん,"え,ひめ,けん",Ehime Ken,33.75,132.7
382132,四国中央市,しこくちゅうおうし,"し,こく,ちゅう,おう,し",,Shikokuchuo Shi,愛媛県,えひめけん,"え,ひめ,けん",Ehime Ken,33.96666667,133.5333333
382141,西予市,せいよし,"せい,よ,し",,Seiyo Shi,愛媛県,えひめけん,"え,ひめ,けん",Ehime Ken,33.35,132.5
382159,東温市,とうおんし,"とう,おん,し",,Toon Shi,愛媛県,えひめけん,"え,ひめ,けん",Ehime Ken,33.78333333,132.8666667
383562,上島町,かみじまちょう,"かみ,じま,ちょう",,Kamijima Cho,愛媛県,えひめけん,"え,ひめ,けん",Ehime Ken,34.25,133.2
383864,久万高原町,くまこうげんちょう,"く,ま,こう,げん,ちょう",,Kumakogen Cho,愛媛県,えひめけん,"え,ひめ,けん",Ehime Ken,33.65,132.9
384011,松前町,まさきちょう,"ま,さき,ちょう",,Masaki Cho,愛媛県,えひめけん,"え,ひめ,けん",Ehime Ken,33.78333333,132.7
384020,砥部町,とべちょう,"と,べ,ちょう",,Tobe Cho,愛媛県,えひめけん,"え,ひめ,けん",Ehime Ken,33.73333333,132.7833333
384224,内子町,うちこちょう,"うち,こ,ちょう",,Uchiko Cho,愛媛県,えひめけん,"え,ひめ,けん",Ehime Ken,33.51666667,132.65
384429,伊方町,いかたちょう,"い,かた,ちょう",,Ikata Cho,愛媛県,えひめけん,"え,ひめ,けん",Ehime Ken,33.48333333,132.35
384844,松野町,まつのちょう,"まつ,の,ちょう",,Matsuno Cho,愛媛県,えひめけん,"え,ひめ,けん",Ehime Ken,33.21666667,132.7
384887,鬼北町,きほくちょう,"き,ほく,ちょう",,Kihoku Cho,愛媛県,えひめけん,"え,ひめ,けん",Ehime Ken,33.25,132.6833333
385069,愛南町,あいなんちょう,"あい,なん,ちょう",,Ainan Cho,愛媛県,えひめけん,"え,ひめ,けん",Ehime Ken,32.95,132.5833333
392014,高知市,こうちし,"こう,ち,し",,Kochi Shi,高知県,こうちけん,"こう,ちけ,ん",Kōchi Ken,33.55,133.5166667
392022,室戸市,むろとし,"むろ,と,し",,Muroto Shi,高知県,こうちけん,"こう,ちけ,ん",Kōchi Ken,33.28333333,134.15
392031,安芸市,あきし,"あ,き,し",,Aki Shi,高知県,こうちけん,"こう,ちけ,ん",Kōchi Ken,33.5,133.9
392049,南国市,なんこくし,"なん,こく,し",,Nankoku Shi,高知県,こうちけん,"こう,ちけ,ん",Kōchi Ken,33.56666667,133.6333333
392057,土佐市,とさし,"と,さ,し",,Tosa Shi,高知県,こうちけん,"こう,ちけ,ん",Kōchi Ken,33.48333333,133.4166667
392065,須崎市,すさきし,"す,さき,し",,Susaki Shi,高知県,こうちけん,"こう,ちけ,ん",Kōchi Ken,33.4,133.2666667
392081,宿毛市,すくもし,"すく,も,し",,Sukumo Shi,高知県,こうちけん,"こう,ちけ,ん",Kōchi Ken,32.93333333,132.7166667
392090,土佐清水市,とさしみずし,"と,さ,し,みず,し",,Tosashimizu Shi,高知県,こうちけん,"こう,ちけ,ん",Kōchi Ken,32.76666667,132.95
392103,四万十市,しまんとし,"し,まん,と,し",,Shimanto Shi,高知県,こうちけん,"こう,ちけ,ん",Kōchi Ken,32.98333333,132.9333333
392111,香南市,こうなんし,"こう,なん,し",,Konan Shi,高知県,こうちけん,"こう,ちけ,ん",Kōchi Ken,33.55,133.7
392120,香美市,かみし,"か,み,し",,Kami Shi,高知県,こうちけん,"こう,ちけ,ん",Kōchi Ken,33.6,133.6833333
393011,東洋町,とうようちょう,"とう,よう,ちょう",,Toyo Cho,高知県,こうちけん,"こう,ちけ,ん",Kōchi Ken,33.51666667,134.2666667
393029,奈半利町,なはりちょう,"な,は,り,ちょう",,Nahari Cho,高知県,こうちけん,"こう,ちけ,ん",Kōchi Ken,33.41666667,134.0166667
393037,田野町,たのちょう,"た,の,ちょう",,Tano Cho,高知県,こうちけん,"こう,ちけ,ん",Kōchi Ken,33.41666667,134
393045,安田町,やすだちょう,"やす,だ,ちょう",,Yasuda Cho,高知県,こうちけん,"こう,ちけ,ん",Kōchi Ken,33.43333333,133.9666667
393053,北川村,きたがわむら,"きた,がわ,むら",,Kitagawa Mura,高知県,こうちけん,"こう,ちけ,ん",Kōchi Ken,33.43333333,134.0333333
393061,馬路村,うまじむら,"うま,じ,むら",,Umaji Mura,高知県,こうちけん,"こう,ちけ,ん",Kōchi Ken,33.55,134.0333333
393070,芸西村,げいせいむら,"げい,せい,むら",,Geisei Mura,高知県,こうちけん,"こう,ちけ,ん",Kōchi Ken,33.51666667,133.8
393410,本山町,もとやまちょう,"もと,やま,ちょう",,Motoyama Cho,高知県,こうちけん,"こう,ちけ,ん",Kōchi Ken,33.75,133.5833333
393444,大豊町,おおとよちょう,"おお,とよ,ちょう",,Otoyo Cho,高知県,こうちけん,"こう,ちけ,ん",Kōchi Ken,33.75,133.65
393631,土佐町,とさちょう,"と,さ,ちょう",,Tosa Cho,高知県,こうちけん,"こう,ちけ,ん",Kōchi Ken,33.73333333,133.5166667
393649,大川村,おおかわむら,"おお,かわ,むら",,Okawa Mura,高知県,こうちけん,"こう,ちけ,ん",Kōchi Ken,33.78333333,133.4666667
393860,いの町,いのちょう,"いの,ちょう",,Ino Cho,高知県,こうちけん,"こう,ちけ,ん",Kōchi Ken,33.53333333,133.4166667
393878,仁淀川町,によどがわちょう,"に,よど,がわ,ちょう",,Niyodogawa Cho,高知県,こうちけん,"こう,ちけ,ん",Kōchi Ken,33.56666667,133.1666667
394017,中土佐町,なかとさちょう,"なか,と,さ,ちょう",,Nakatosa Cho,高知県,こうちけん,"こう,ちけ,ん",Kōchi Ken,33.31666667,133.2166667
394025,佐川町,さかわちょう,"さ,かわ,ちょう",,Sakawa Cho,高知県,こうちけん,"こう,ちけ,ん",Kōchi Ken,33.5,133.2833333
394033,越知町,おちちょう,"お,ち,ちょう",,Ochi Cho,高知県,こうちけん,"こう,ちけ,ん",Kōchi Ken,33.51666667,133.25
394050,梼原町,ゆすはらまち,"ゆす,はら,まち",,Yusuhara Machi,高知県,こうちけん,"こう,ちけ,ん",Kōchi Ken,33.4,132.933333
394106,日高村,ひだかむら,"ひ,だか,むら",,Hidaka Mura,高知県,こうちけん,"こう,ちけ,ん",Kōchi Ken,33.53333333,133.3666667
394114,津野町,つのちょう,"つ,の,ちょう",,Tsuno Cho,高知県,こうちけん,"こう,ちけ,ん",Kōchi Ken,33.43333333,133.1833333
394122,四万十町,しまんとちょう,"し,まん,と,ちょう",,Shimanto Cho,高知県,こうちけん,"こう,ちけ,ん",Kōchi Ken,33.2,133.1333333
394246,大月町,おおつきちょう,"おお,つき,ちょう",,Otsuki Cho,高知県,こうちけん,"こう,ちけ,ん",Kōchi Ken,32.83333333,132.7
394271,三原村,みはらむら,"み,はら,むら",,Mihara Mura,高知県,こうちけん,"こう,ちけ,ん",Kōchi Ken,32.9,132.8333333
394289,黒潮町,くろしおちょう,"くろ,しお,ちょう",,Kuroshio Cho,高知県,こうちけん,"こう,ちけ,ん",Kōchi Ken,33.01666667,133
401005,北九州市,きたきゅうしゅうし,"きた,きゅう,しゅう,し",,Kitakyushu Shi,福岡県,ふくおかけん,"ふく,おか,けん",Fukuoka Ken,33.88333333,130.8666667
401307,福岡市,ふくおかし,"ふく,おか,し",,Fukuoka Shi,福岡県,ふくおかけん,"ふく,おか,けん",Fukuoka Ken,33.58333333,130.4
402028,大牟田市,おおむたし,"おお,む,た,し",,Omuta Shi,福岡県,ふくおかけん,"ふく,おか,けん",Fukuoka Ken,33.01666667,130.4333333
402036,久留米市,くるめし,"く,る,め,し",,Kurume Shi,福岡県,ふくおかけん,"ふく,おか,けん",Fukuoka Ken,33.31666667,130.5
402044,直方市,のおがたし,"のお,がた,し",,Nogata Shi,福岡県,ふくおかけん,"ふく,おか,けん",Fukuoka Ken,33.73333333,130.7166667
402052,飯塚市,いいづかし,"いい,づか,し",,Iizuka Shi,福岡県,ふくおかけん,"ふく,おか,けん",Fukuoka Ken,33.63333333,130.6833333
402061,田川市,たがわし,"た,がわ,し",,Tagawa Shi,福岡県,ふくおかけん,"ふく,おか,けん",Fukuoka Ken,33.63333333,130.8
402079,柳川市,やながわし,"やな,がわ,し",,Yanagawa Shi,福岡県,ふくおかけん,"ふく,おか,けん",Fukuoka Ken,33.15,130.4
402109,八女市,やめし,"や,め,し",,Yame Shi,福岡県,ふくおかけん,"ふく,おか,けん",Fukuoka Ken,33.2,130.55
402117,筑後市,ちくごし,"ちく,ご,し",,Chikugo Shi,福岡県,ふくおかけん,"ふく,おか,けん",Fukuoka Ken,33.2,130.5
402125,大川市,おおかわし,"おお,かわ,し",,Okawa Shi,福岡県,ふくおかけん,"ふく,おか,けん",Fukuoka Ken,33.2,130.3833333
402133,行橋市,ゆくはしし,"ゆく,はし,し",,Yukuhashi Shi,福岡県,ふくおかけん,"ふく,おか,けん",Fukuoka Ken,33.71666667,130.9666667
402141,豊前市,ぶぜんし,"ぶ,ぜん,し",,Buzen Shi,福岡県,ふくおかけん,"ふく,おか,けん",Fukuoka Ken,33.6,131.1166667
402150,中間市,なかまし,"なか,ま,し",,Nakama Shi,福岡県,ふくおかけん,"ふく,おか,けん",Fukuoka Ken,33.81666667,130.7
402168,小郡市,おごおりし,"お,ごおり,し",,Ogori Shi,福岡県,ふくおかけん,"ふく,おか,けん",Fukuoka Ken,33.38333333,130.55
402176,筑紫野市,ちくしのし,"ちく,し,の,し",,Chikushino Shi,福岡県,ふくおかけん,"ふく,おか,けん",Fukuoka Ken,33.48333333,130.5
402184,春日市,かすがし,"かす,が,し",,Kasuga Shi,福岡県,ふくおかけん,"ふく,おか,けん",Fukuoka Ken,33.51666667,130.4666667
402192,大野城市,おおのじょうし,"おお,の,じょう,し",,Onojo Shi,福岡県,ふくおかけん,"ふく,おか,けん",Fukuoka Ken,33.53333333,130.4666667
402206,宗像市,むなかたし,"むな,かた,し",,Munakata Shi,福岡県,ふくおかけん,"ふく,おか,けん",Fukuoka Ken,33.8,130.5333333
402214,太宰府市,だざいふし,"だ,ざい,ふ,し",,Dazaifu Shi,福岡県,ふくおかけん,"ふく,おか,けん",Fukuoka Ken,33.5,130.5166667
402231,古賀市,こがし,"こ,が,し",,Koga Shi,福岡県,ふくおかけん,"ふく,おか,けん",Fukuoka Ken,33.71666667,130.4666667
402249,福津市,ふくつし,"ふく,つ,し",,Fukutsu Shi,福岡県,ふくおかけん,"ふく,おか,けん",Fukuoka Ken,33.76666667,130.4833333
402257,うきは市,うきはし,"うきは,し",,Ukiha Shi,福岡県,ふくおかけん,"ふく,おか,けん",Fukuoka Ken,33.33333333,130.75
402265,宮若市,みやわかし,"みや,わか,し",,Miyawaka Shi,福岡県,ふくおかけん,"ふく,おか,けん",Fukuoka Ken,33.71666667,130.6666667
402273,嘉麻市,かまし,"か,ま,し",,Kama Shi,福岡県,ふくおかけん,"ふく,おか,けん",Fukuoka Ken,33.55,130.7
402281,朝倉市,あさくらし,"あさ,くら,し",,Asakura Shi,福岡県,ふくおかけん,"ふく,おか,けん",Fukuoka Ken,33.41666667,130.65
402290,みやま市,みやまし,"みやま,し",,Miyama Shi,福岡県,ふくおかけん,"ふく,おか,けん",Fukuoka Ken,33.15,130.4666667
402303,糸島市,いとしまし,"いと,しま,し",,Itoshima Shi,福岡県,ふくおかけん,"ふく,おか,けん",Fukuoka Ken,33.55,130.1833333
403059,那珂川町,なかがわまち,"な,か,がわ,まち",,Nakagawa Machi,福岡県,ふくおかけん,"ふく,おか,けん",Fukuoka Ken,33.48333333,130.4166667
403415,宇美町,うみまち,"う,み,まち",,Umi Machi,福岡県,ふくおかけん,"ふく,おか,けん",Fukuoka Ken,33.56666667,130.5
403423,篠栗町,ささぐりまち,"ささ,ぐり,まち",,Sasaguri Machi,福岡県,ふくおかけん,"ふく,おか,けん",Fukuoka Ken,33.61666667,130.5166667
403431,志免町,しめまち,"し,め,まち",,Shime Machi,福岡県,ふくおかけん,"ふく,おか,けん",Fukuoka Ken,33.58333333,130.4666667
403440,須恵町,すえまち,"す,え,まち",,Sue Machi,福岡県,ふくおかけん,"ふく,おか,けん",Fukuoka Ken,33.58333333,130.5
403458,新宮町,しんぐうまち,"しん,ぐう,まち",,Shingu Machi,福岡県,ふくおかけん,"ふく,おか,けん",Fukuoka Ken,33.7,130.4333333
403482,久山町,ひさやままち,"ひさ,やま,まち",,Hisayama Machi,福岡県,ふくおかけん,"ふく,おか,けん",Fukuoka Ken,33.63333333,130.5
403491,粕屋町,かすやまち,"かす,や,まち",,Kasuya Machi,福岡県,ふくおかけん,"ふく,おか,けん",Fukuoka Ken,33.6,130.4666667
403814,芦屋町,あしやまち,"あし,や,まち",,Ashiya Machi,福岡県,ふくおかけん,"ふく,おか,けん",Fukuoka Ken,33.88333333,130.65
403822,水巻町,みずまきまち,"みず,まき,まち",,Mizumaki Machi,福岡県,ふくおかけん,"ふく,おか,けん",Fukuoka Ken,33.85,130.6833333
403831,岡垣町,おかがきまち,"おか,がき,まち",,Okagaki Machi,福岡県,ふくおかけん,"ふく,おか,けん",Fukuoka Ken,33.85,130.6
403849,遠賀町,おんがちょう,"おん,が,ちょう",,Onga Cho,福岡県,ふくおかけん,"ふく,おか,けん",Fukuoka Ken,33.83333333,130.6666667
404012,小竹町,こたけまち,"こ,たけ,まち",,Kotake Machi,福岡県,ふくおかけん,"ふく,おか,けん",Fukuoka Ken,33.68333333,130.7
404021,鞍手町,くらてまち,"くら,て,まち",,Kurate Machi,福岡県,ふくおかけん,"ふく,おか,けん",Fukuoka Ken,33.78333333,130.6666667
404217,桂川町,けいせんまち,"けい,せん,まち",,Keisen Machi,福岡県,ふくおかけん,"ふく,おか,けん",Fukuoka Ken,33.56666667,130.6666667
404471,筑前町,ちくぜんまち,"ちく,ぜん,まち",,Chikuzen Machi,福岡県,ふくおかけん,"ふく,おか,けん",Fukuoka Ken,33.45,130.5833333
404489,東峰村,とうほうむら,"とう,ほう,むら",,Toho Mura,福岡県,ふくおかけん,"ふく,おか,けん",Fukuoka Ken,33.38333333,130.8666667
405035,大刀洗町,たちあらいまち,"た,ち,あらい,まち",,Tachiarai Machi,福岡県,ふくおかけん,"ふく,おか,けん",Fukuoka Ken,33.36666667,130.6166667
405221,大木町,おおきまち,"おお,き,まち",,Oki Machi,福岡県,ふくおかけん,"ふく,おか,けん",Fukuoka Ken,33.2,130.4333333
405442,広川町,ひろかわまち,"ひろ,かわ,まち",,Hirokawa Machi,福岡県,ふくおかけん,"ふく,おか,けん",Fukuoka Ken,33.23333333,130.55
406015,香春町,かわらまち,"か,わら,まち",,Kawara Machi,福岡県,ふくおかけん,"ふく,おか,けん",Fukuoka Ken,33.66666667,130.8333333
406023,添田町,そえだまち,"そえ,だ,まち",,Soeda Machi,福岡県,ふくおかけん,"ふく,おか,けん",Fukuoka Ken,33.56666667,130.85
406040,糸田町,いとだまち,"いと,だ,まち",,Itoda Machi,福岡県,ふくおかけん,"ふく,おか,けん",Fukuoka Ken,33.65,130.7666667
406058,川崎町,かわさきまち,"かわ,さき,まち",,Kawasaki Machi,福岡県,ふくおかけん,"ふく,おか,けん",Fukuoka Ken,33.58333333,130.8
406082,大任町,おおとうまち,"おお,とう,まち",,Oto Machi,福岡県,ふくおかけん,"ふく,おか,けん",Fukuoka Ken,33.6,130.85
406091,赤村,あかむら,"あか,むら",,Akamura,福岡県,ふくおかけん,"ふく,おか,けん",Fukuoka Ken,33.6,130.8666667
406104,福智町,ふくちまち,"ふく,ち,まち",,Fukuchi Machi,福岡県,ふくおかけん,"ふく,おか,けん",Fukuoka Ken,33.66666667,130.7666667
406210,苅田町,かんだまち,"かん,だ,まち",,Kanda Machi,福岡県,ふくおかけん,"ふく,おか,けん",Fukuoka Ken,33.76666667,130.9666667
406252,みやこ町,みやこまち,"みやこ,まち",,Miyako Machi,福岡県,ふくおかけん,"ふく,おか,けん",Fukuoka Ken,33.68333333,130.9166667
406422,吉富町,よしとみまち,"よし,とみ,まち",,Yoshitomi Machi,福岡県,ふくおかけん,"ふく,おか,けん",Fukuoka Ken,33.6,131.1666667
406465,上毛町,こうげまち,"こう,げ,まち",,Koge Machi,福岡県,ふくおかけん,"ふく,おか,けん",Fukuoka Ken,33.56666667,131.15
406473,築上町,ちくじょうまち,"ちく,じょう,まち",,Chikujo Machi,福岡県,ふくおかけん,"ふく,おか,けん",Fukuoka Ken,33.65,131.05
412015,佐賀市,さがし,"さ,が,し",,Saga Shi,佐賀県,さがけん,"さ,が,けん",Saga Ken,33.25,130.3
412023,唐津市,からつし,"から,つ,し",,Karatsu Shi,佐賀県,さがけん,"さ,が,けん",Saga Ken,33.45,129.9666667
412031,鳥栖市,とすし,"と,す,し",,Tosu Shi,佐賀県,さがけん,"さ,が,けん",Saga Ken,33.36666667,130.5
412040,多久市,たくし,"た,く,し",,Taku Shi,佐賀県,さがけん,"さ,が,けん",Saga Ken,33.28333333,130.1
412058,伊万里市,いまりし,"い,ま,り,し",,Imari Shi,佐賀県,さがけん,"さ,が,けん",Saga Ken,33.25,129.8666667
412066,武雄市,たけおし,"たけ,お,し",,Takeo Shi,佐賀県,さがけん,"さ,が,けん",Saga Ken,33.18333333,130.0166667
412074,鹿島市,かしまし,"か,しま,し",,Kashima Shi,佐賀県,さがけん,"さ,が,けん",Saga Ken,33.1,130.0833333
412082,小城市,おぎし,"お,ぎ,し",,Ogi Shi,佐賀県,さがけん,"さ,が,けん",Saga Ken,33.25,130.2
412091,嬉野市,うれしのし,"うれし,の,し",,Ureshino Shi,佐賀県,さがけん,"さ,が,けん",Saga Ken,33.11666667,130.05
412104,神埼市,かんざきし,"かん,ざき,し",,Kanzaki Shi,佐賀県,さがけん,"さ,が,けん",Saga Ken,33.3,130.3666667
413275,吉野ヶ里町,よしのがりちょう,"よし,の,が,り,ちょう",,Yoshinogari Cho,佐賀県,さがけん,"さ,が,けん",Saga Ken,33.31666667,130.3833333
413411,基山町,きやまちょう,"き,やま,ちょう",,Kiyama Cho,佐賀県,さがけん,"さ,が,けん",Saga Ken,33.41666667,130.5166667
413453,上峰町,かみみねちょう,"かみ,みね,ちょう",,Kamimine Cho,佐賀県,さがけん,"さ,が,けん",Saga Ken,33.31666667,130.4166667
413461,みやき町,みやきちょう,"みやき,ちょう",,Miyaki Cho,佐賀県,さがけん,"さ,が,けん",Saga Ken,33.31666667,130.45
413879,玄海町,げんかいちょう,"げん,かい,ちょう",,Genkai Cho,佐賀県,さがけん,"さ,が,けん",Saga Ken,33.46666667,129.8666667
414018,有田町,ありたちょう,"あり,た,ちょう",,Arita Cho,佐賀県,さがけん,"さ,が,けん",Saga Ken,33.2,129.8333333
414239,大町町,おおまちちょう,"おお,まち,ちょう",,Omachi Cho,佐賀県,さがけん,"さ,が,けん",Saga Ken,33.2,130.1
414247,江北町,こうほくまち,"こう,ほく,まち",,Kohoku Machi,佐賀県,さがけん,"さ,が,けん",Saga Ken,33.21666667,130.15
414255,白石町,しろいしちょう,"しろ,いし,ちょう",,Shiroishi Cho,佐賀県,さがけん,"さ,が,けん",Saga Ken,33.13333333,130.1166667
414417,太良町,たらちょう,"た,ら,ちょう",,Tara Cho,佐賀県,さがけん,"さ,が,けん",Saga Ken,33.01666667,130.1666667
422011,長崎市,ながさきし,"なが,さき,し",,Nagasaki Shi,長崎県,ながさきけん,"なが,さき,けん",Nagasaki Ken,32.75,129.8666667
422029,佐世保市,させぼし,"さ,せ,ぼ,し",,Sasebo Shi,長崎県,ながさきけん,"なが,さき,けん",Nagasaki Ken,33.16666667,129.7
422037,島原市,しまばらし,"しま,ばら,し",,Shimabara Shi,長崎県,ながさきけん,"なが,さき,けん",Nagasaki Ken,32.78333333,130.3666667
422045,諫早市,いさはやし,"いさ,はや,し",,Isahaya Shi,長崎県,ながさきけん,"なが,さき,けん",Nagasaki Ken,32.83333333,130.05
422053,大村市,おおむらし,"おお,むら,し",,Omura Shi,長崎県,ながさきけん,"なが,さき,けん",Nagasaki Ken,32.9,129.95
422070,平戸市,ひらどし,"ひら,ど,し",,Hirado Shi,長崎県,ながさきけん,"なが,さき,けん",Nagasaki Ken,33.36666667,129.55
422088,松浦市,まつうらし,"まつ,うら,し",,Matsuura Shi,長崎県,ながさきけん,"なが,さき,けん",Nagasaki Ken,33.33333333,129.7
422096,対馬市,つしまし,"つし,ま,し",,Tsushima Shi,長崎県,ながさきけん,"なが,さき,けん",Nagasaki Ken,34.2,129.2833333
422100,壱岐市,いきし,"い,き,し",,Iki Shi,長崎県,ながさきけん,"なが,さき,けん",Nagasaki Ken,33.73333333,129.6833333
422118,五島市,ごとうし,"ご,とう,し",,Goto Shi,長崎県,ながさきけん,"なが,さき,けん",Nagasaki Ken,32.68333333,128.8333333
422126,西海市,さいかいし,"さい,かい,し",,Saikai Shi,長崎県,ながさきけん,"なが,さき,けん",Nagasaki Ken,32.91666667,129.6333333
422134,雲仙市,うんぜんし,"うん,ぜん,し",,Unzen Shi,長崎県,ながさきけん,"なが,さき,けん",Nagasaki Ken,32.83333333,130.1833333
422142,南島原市,みなみしまばらし,"みなみ,しま,ばら,し",,Minamishimabara Shi,長崎県,ながさきけん,"なが,さき,けん",Nagasaki Ken,32.65,130.2833333
423076,長与町,ながよちょう,"なが,よ,ちょう",,Nagayo Cho,長崎県,ながさきけん,"なが,さき,けん",Nagasaki Ken,32.81666667,129.8666667
423084,時津町,とぎつちょう,"とぎ,つ,ちょう",,Togitsu Cho,長崎県,ながさきけん,"なが,さき,けん",Nagasaki Ken,32.81666667,129.8333333
423211,東彼杵町,ひがしそのぎちょう,"ひがし,その,ぎ,ちょう",,Higashisonogi Cho,長崎県,ながさきけん,"なが,さき,けん",Nagasaki Ken,33.03333333,129.9166667
423220,川棚町,かわたなちょう,"かわ,たな,ちょう",,Kawatana Cho,長崎県,ながさきけん,"なが,さき,けん",Nagasaki Ken,33.06666667,129.85
423238,波佐見町,はさみちょう,"は,さ,み,ちょう",,Hasami Cho,長崎県,ながさきけん,"なが,さき,けん",Nagasaki Ken,33.13333333,129.8833333
423831,小値賀町,おぢかちょう,"お,ぢ,か,ちょう",,Ojika Cho,長崎県,ながさきけん,"なが,さき,けん",Nagasaki Ken,33.18333333,129.05
423912,佐々町,さざちょう,"さ,ざ,ちょう",,Saza Cho,長崎県,ながさきけん,"なが,さき,けん",Nagasaki Ken,33.23333333,129.65
424111,新上五島町,しんかみごとうちょう,"しん,かみ,ご,とう,ちょう",,Shinkamigoto Cho,長崎県,ながさきけん,"なが,さき,けん",Nagasaki Ken,32.98333333,129.0666667
431001,熊本市,くまもとし,"くま,もと,し",,Kumamoto Shi,熊本県,くまもとけん,"くま,もと,けん",Kumamoto Ken,32.8,130.7
432024,八代市,やつしろし,"やつ,しろ,し",,Yatsushiro Shi,熊本県,くまもとけん,"くま,もと,けん",Kumamoto Ken,32.5,130.6
432032,人吉市,ひとよしし,"ひと,よし,し",,Hitoyoshi Shi,熊本県,くまもとけん,"くま,もと,けん",Kumamoto Ken,32.2,130.75
432041,荒尾市,あらおし,"あら,お,し",,Arao Shi,熊本県,くまもとけん,"くま,もと,けん",Kumamoto Ken,32.98333333,130.4333333
432059,水俣市,みなまたし,"みな,また,し",,Minamata Shi,熊本県,くまもとけん,"くま,もと,けん",Kumamoto Ken,32.2,130.4
432067,玉名市,たまなし,"たま,な,し",,Tamana Shi,熊本県,くまもとけん,"くま,もと,けん",Kumamoto Ken,32.91666667,130.55
432083,山鹿市,やまがし,"やま,が,し",,Yamaga Shi,熊本県,くまもとけん,"くま,もと,けん",Kumamoto Ken,33.01666667,130.6833333
432105,菊池市,きくちし,"きく,ち,し",,Kikuchi Shi,熊本県,くまもとけん,"くま,もと,けん",Kumamoto Ken,32.96666667,130.8
432113,宇土市,うとし,"う,と,し",,Uto Shi,熊本県,くまもとけん,"くま,もと,けん",Kumamoto Ken,32.68333333,130.65
432121,上天草市,かみあまくさし,"かみ,あま,くさ,し",,Kamiamakusa Shi,熊本県,くまもとけん,"くま,もと,けん",Kumamoto Ken,32.58333333,130.4166667
432130,宇城市,うきし,"う,き,し",,Uki Shi,熊本県,くまもとけん,"くま,もと,けん",Kumamoto Ken,32.63333333,130.6833333
432148,阿蘇市,あそし,"あ,そ,し",,Aso Shi,熊本県,くまもとけん,"くま,もと,けん",Kumamoto Ken,32.95,131.1166667
432156,天草市,あまくさし,"あま,くさ,し",,Amakusa Shi,熊本県,くまもとけん,"くま,もと,けん",Kumamoto Ken,32.45,130.1833333
432164,合志市,こうしし,"こう,し,し",,Koshi Shi,熊本県,くまもとけん,"くま,もと,けん",Kumamoto Ken,32.88333333,130.7833333
433489,美里町,みさとまち,"み,さと,まち",,Misato Machi,熊本県,くまもとけん,"くま,もと,けん",Kumamoto Ken,32.63333333,130.7833333
433641,玉東町,ぎょくとうまち,"ぎょく,とう,まち",,Gyokuto Machi,熊本県,くまもとけん,"くま,もと,けん",Kumamoto Ken,32.91666667,130.6166667
433675,南関町,なんかんまち,"なん,かん,まち",,Nankan Machi,熊本県,くまもとけん,"くま,もと,けん",Kumamoto Ken,33.05,130.5333333
433683,長洲町,ながすまち,"なが,す,まち",,Nagasu Machi,熊本県,くまもとけん,"くま,もと,けん",Kumamoto Ken,32.91666667,130.45
433691,和水町,なごみまち,"なご,み,まち",,Nagomi Machi,熊本県,くまもとけん,"くま,もと,けん",Kumamoto Ken,32.96666667,130.6
434035,大津町,おおづまち,"おお,づ,まち",,Ozu Machi,熊本県,くまもとけん,"くま,もと,けん",Kumamoto Ken,32.86666667,130.8666667
434043,菊陽町,きくようまち,"きく,よう,まち",,Kikuyo Machi,熊本県,くまもとけん,"くま,もと,けん",Kumamoto Ken,32.85,130.8166667
434230,南小国町,みなみおぐにまち,"みなみ,お,ぐに,まち",,Minamioguni Machi,熊本県,くまもとけん,"くま,もと,けん",Kumamoto Ken,33.08333333,131.0666667
434248,小国町,おぐにまち,"お,ぐに,まち",,Oguni Machi,熊本県,くまもとけん,"くま,もと,けん",Kumamoto Ken,33.11666667,131.0666667
434256,産山村,うぶやまむら,"うぶ,やま,むら",,Ubuyama Mura,熊本県,くまもとけん,"くま,もと,けん",Kumamoto Ken,32.98333333,131.2166667
434281,高森町,たかもりまち,"たか,もり,まち",,Takamori Machi,熊本県,くまもとけん,"くま,もと,けん",Kumamoto Ken,32.81666667,131.1166667
434329,西原村,にしはらむら,"にし,はら,むら",,Nishihara Mura,熊本県,くまもとけん,"くま,もと,けん",Kumamoto Ken,32.83333333,130.9
434337,南阿蘇村,みなみあそむら,"みなみ,あ,そ,むら",,Minamiaso Mura,熊本県,くまもとけん,"くま,もと,けん",Kumamoto Ken,32.81666667,131.0166667
434418,御船町,みふねまち,"み,ふね,まち",,Mifune Machi,熊本県,くまもとけん,"くま,もと,けん",Kumamoto Ken,32.7,130.8
434426,嘉島町,かしままち,"か,しま,まち",,Kashima Machi,熊本県,くまもとけん,"くま,もと,けん",Kumamoto Ken,32.73333333,130.75
434434,益城町,ましきまち,"ま,しき,まち","Kanji readings may also be decomposable to まし,き,まち",Mashiki Machi,熊本県,くまもとけん,"くま,もと,けん",Kumamoto Ken,32.78333333,130.8
434442,甲佐町,こうさまち,"こう,さ,まち",,Kosa Machi,熊本県,くまもとけん,"くま,もと,けん",Kumamoto Ken,32.65,130.8
434477,山都町,やまとちょう,"やま,と,ちょう",,Yamato Cho,熊本県,くまもとけん,"くま,もと,けん",Kumamoto Ken,32.68333333,130.9833333
434680,氷川町,ひかわちょう,"ひ,かわ,ちょう",,Hikawa Cho,熊本県,くまもとけん,"くま,もと,けん",Kumamoto Ken,32.56666667,130.6666667
434825,芦北町,あしきたまち,"あし,きた,まち",,Ashikita Machi,熊本県,くまもとけん,"くま,もと,けん",Kumamoto Ken,32.28333333,130.4833333
434841,津奈木町,つなぎまち,"つ,な,ぎ,まち",,Tsunagi Machi,熊本県,くまもとけん,"くま,もと,けん",Kumamoto Ken,32.23333333,130.4333333
435015,錦町,にしきまち,"にしき,まち",,Nishiki Machi,熊本県,くまもとけん,"くま,もと,けん",Kumamoto Ken,32.2,130.8333333
435058,多良木町,たらぎまち,"た,ら,ぎ,まち",,Taragi Machi,熊本県,くまもとけん,"くま,もと,けん",Kumamoto Ken,32.25,130.9333333
435066,湯前町,ゆのまえまち,"ゆの,まえ,まち","Hidden particle (の): ゆ,の,まえ,まち",Yunomae Machi,熊本県,くまもとけん,"くま,もと,けん",Kumamoto Ken,32.26666667,130.9666667
435074,水上村,みずかみむら,"みず,かみ,むら",,Mizukami Mura,熊本県,くまもとけん,"くま,もと,けん",Kumamoto Ken,32.3,131
435104,相良村,さがらむら,"さが,ら,むら",,Sagara Mura,熊本県,くまもとけん,"くま,もと,けん",Kumamoto Ken,32.23333333,130.7833333
435112,五木村,いつきむら,"いつ,き,むら",,Itsuki Mura,熊本県,くまもとけん,"くま,もと,けん",Kumamoto Ken,32.38333333,130.8166667
435121,山江村,やまえむら,"やま,え,むら",,Yamae Mura,熊本県,くまもとけん,"くま,もと,けん",Kumamoto Ken,32.23333333,130.7666667
435139,球磨村,くまむら,"く,ま,むら",,Kuma Mura,熊本県,くまもとけん,"くま,もと,けん",Kumamoto Ken,32.25,130.65
435147,あさぎり町,あさぎりちょう,"あさぎり,ちょう",,Asagiri Cho,熊本県,くまもとけん,"くま,もと,けん",Kumamoto Ken,32.23333333,130.8833333
435317,苓北町,れいほくまち,"れい,ほく,まち",,Reihoku Machi,熊本県,くまもとけん,"くま,もと,けん",Kumamoto Ken,32.5,130.05
442011,大分市,おおいたし,"おお,いた,し",,Oita Shi,大分県,おおいたけん,"おお,いた,けん",Ōita Ken,33.23333333,131.6
442020,別府市,べっぷし,"べっ,ぷ,し",,Beppu Shi,大分県,おおいたけん,"おお,いた,けん",Ōita Ken,33.28333333,131.4833333
442038,中津市,なかつし,"なか,つ,し",,Nakatsu Shi,大分県,おおいたけん,"おお,いた,けん",Ōita Ken,33.58333333,131.1833333
442046,日田市,ひたし,"ひ,た,し",,Hita Shi,大分県,おおいたけん,"おお,いた,けん",Ōita Ken,33.31666667,130.9333333
442054,佐伯市,さいきし,"さ,いき,し",,Saiki Shi,大分県,おおいたけん,"おお,いた,けん",Ōita Ken,32.95,131.8833333
442062,臼杵市,うすきし,"うす,き,し",,Usuki Shi,大分県,おおいたけん,"おお,いた,けん",Ōita Ken,33.11666667,131.8
442071,津久見市,つくみし,"つ,く,み,し",,Tsukumi Shi,大分県,おおいたけん,"おお,いた,けん",Ōita Ken,33.06666667,131.85
442089,竹田市,たけたし,"たけ,た,し",,Taketa Shi,大分県,おおいたけん,"おお,いた,けん",Ōita Ken,32.96666667,131.3833333
442097,豊後高田市,ぶんごたかだし,"ぶん,ご,たか,だ,し",,Bungotakada Shi,大分県,おおいたけん,"おお,いた,けん",Ōita Ken,33.55,131.4333333
442101,杵築市,きつきし,"き,つき,し",,Kitsuki Shi,大分県,おおいたけん,"おお,いた,けん",Ōita Ken,33.41666667,131.6
442119,宇佐市,うさし,"う,さ,し",,Usa Shi,大分県,おおいたけん,"おお,いた,けん",Ōita Ken,33.51666667,131.3333333
442127,豊後大野市,ぶんごおおのし,"ぶん,ご,おお,の,し",,Bungoono Shi,大分県,おおいたけん,"おお,いた,けん",Ōita Ken,32.96666667,131.5833333
442135,由布市,ゆふし,"ゆ,ふ,し",,Yufu Shi,大分県,おおいたけん,"おお,いた,けん",Ōita Ken,33.16666667,131.4166667
442143,国東市,くにさきし,"くに,さき,し",,Kunisaki Shi,大分県,おおいたけん,"おお,いた,けん",Ōita Ken,33.55,131.7166667
443221,姫島村,ひめしまむら,"ひめ,しま,むら",,Himeshima Mura,大分県,おおいたけん,"おお,いた,けん",Ōita Ken,33.71666667,131.6333333
443417,日出町,ひじまち,"ひ,じ,まち",,Hiji Machi,大分県,おおいたけん,"おお,いた,けん",Ōita Ken,33.36666667,131.5166667
444618,九重町,ここのえまち,"ここの,え,まち",,Kokonoe Machi,大分県,おおいたけん,"おお,いた,けん",Ōita Ken,33.21666667,131.1833333
444626,玖珠町,くすまち,"く,す,まち",,Kusu Machi,大分県,おおいたけん,"おお,いた,けん",Ōita Ken,33.28333333,131.15
452017,宮崎市,みやざきし,"みや,ざき,し",,Miyazaki Shi,宮崎県,みやざきけん,"みや,ざき,けん",Miyazaki Ken,31.9,131.4166667
452025,都城市,みやこのじょうし,"みやこの,じょう,し","Hidden particle (の): みやこ,の,じょう,し",Miyakonojo Shi,宮崎県,みやざきけん,"みや,ざき,けん",Miyazaki Ken,31.71666667,131.05
452033,延岡市,のべおかし,"のべ,おか,し",,Nobeoka Shi,宮崎県,みやざきけん,"みや,ざき,けん",Miyazaki Ken,32.56666667,131.65
452041,日南市,にちなんし,"にち,なん,し",,Nichinan Shi,宮崎県,みやざきけん,"みや,ざき,けん",Miyazaki Ken,31.6,131.3666667
452050,小林市,こばやしし,"こ,ばやし,し",,Kobayashi Shi,宮崎県,みやざきけん,"みや,ざき,けん",Miyazaki Ken,31.98333333,130.9666667
452068,日向市,ひゅうがし,"ひゅうが,し",Irregular reading: 日向 (ひゅうが) does not decompose to two separate kanji readings,Hyuga Shi,宮崎県,みやざきけん,"みや,ざき,けん",Miyazaki Ken,32.41666667,131.6166667
452076,串間市,くしまし,"くし,ま,し",,Kushima Shi,宮崎県,みやざきけん,"みや,ざき,けん",Miyazaki Ken,31.45,131.2166667
452084,西都市,さいとし,"さい,と,し",,Saito Shi,宮崎県,みやざきけん,"みや,ざき,けん",Miyazaki Ken,32.1,131.4
452092,えびの市,えびのし,"えびの,し",,Ebino Shi,宮崎県,みやざきけん,"みや,ざき,けん",Miyazaki Ken,32.03333333,130.8
453412,三股町,みまたちょう,"み,また,ちょう",,Mimata Cho,宮崎県,みやざきけん,"みや,ざき,けん",Miyazaki Ken,31.71666667,131.1166667
453617,高原町,たかはるちょう,"たか,はる,ちょう",,Takaharu Cho,宮崎県,みやざきけん,"みや,ざき,けん",Miyazaki Ken,31.91666667,131
453820,国富町,くにとみちょう,"くに,とみ,ちょう",,Kunitomi Cho,宮崎県,みやざきけん,"みや,ざき,けん",Miyazaki Ken,31.98333333,131.3166667
453838,綾町,あやちょう,"あや,ちょう",,Aya Cho,宮崎県,みやざきけん,"みや,ざき,けん",Miyazaki Ken,31.98333333,131.25
454010,高鍋町,たかなべちょう,"たか,なべ,ちょう",,Takanabe Cho,宮崎県,みやざきけん,"みや,ざき,けん",Miyazaki Ken,32.11666667,131.5
454028,新富町,しんとみちょう,"しん,とみ,ちょう",,Shintomi Cho,宮崎県,みやざきけん,"みや,ざき,けん",Miyazaki Ken,32.06666667,131.4833333
454036,西米良村,にしめらそん,"にし,め,ら,そん",,Nishimera Son,宮崎県,みやざきけん,"みや,ざき,けん",Miyazaki Ken,32.21666667,131.15
454044,木城町,きじょうちょう,"き,じょう,ちょう",,Kijo Cho,宮崎県,みやざきけん,"みや,ざき,けん",Miyazaki Ken,32.15,131.4666667
454052,川南町,かわみなみちょう,"かわ,みなみ,ちょう",,Kawaminami Cho,宮崎県,みやざきけん,"みや,ざき,けん",Miyazaki Ken,32.18333333,131.5166667
454061,都農町,つのちょう,"つ,の,ちょう",,Tsuno Cho,宮崎県,みやざきけん,"みや,ざき,けん",Miyazaki Ken,32.25,131.55
454214,門川町,かどがわちょう,"かど,がわ,ちょう",,Kadogawa Cho,宮崎県,みやざきけん,"みや,ざき,けん",Miyazaki Ken,32.46666667,131.6333333
454290,諸塚村,もろつかそん,"もろ,つか,そん",,Morotsuka Son,宮崎県,みやざきけん,"みや,ざき,けん",Miyazaki Ken,32.5,131.3166667
454303,椎葉村,しいばそん,"しい,ば,そん",,Shiiba Son,宮崎県,みやざきけん,"みや,ざき,けん",Miyazaki Ken,32.46666667,131.15
454311,美郷町,みさとちょう,"み,さと,ちょう",,Misato Cho,宮崎県,みやざきけん,"みや,ざき,けん",Miyazaki Ken,32.43333333,131.4166667
454419,高千穂町,たかちほちょう,"たか,ち,ほ,ちょう",,Takachiho Cho,宮崎県,みやざきけん,"みや,ざき,けん",Miyazaki Ken,32.7,131.3
454427,日之影町,ひのかげちょう,"ひ,の,かげ,ちょう",,Hinokage Cho,宮崎県,みやざきけん,"みや,ざき,けん",Miyazaki Ken,32.65,131.3833333
454435,五ヶ瀬町,ごかせちょう,"ご,か,せ,ちょう",,Gokase Cho,宮崎県,みやざきけん,"みや,ざき,けん",Miyazaki Ken,32.66666667,131.1833333
462012,鹿児島市,かごしまし,"か,ご,しま,し",,Kagoshima Shi,鹿児島県,かごしまけん,"か,ご,しま,けん",Kagoshima Ken,31.58333333,130.55
462039,鹿屋市,かのやし,"かの,や,し","Hidden particle (の): か,の,や,し",Kanoya Shi,鹿児島県,かごしまけん,"か,ご,しま,けん",Kagoshima Ken,31.36666667,130.85
462047,枕崎市,まくらざきし,"まくら,ざき,し",,Makurazaki Shi,鹿児島県,かごしまけん,"か,ご,しま,けん",Kagoshima Ken,31.26666667,130.2833333
462063,阿久根市,あくねし,"あ,く,ね,し",,Akune Shi,鹿児島県,かごしまけん,"か,ご,しま,けん",Kagoshima Ken,32,130.1833333
462080,出水市,いずみし,"い,ずみ,し",,Izumi Shi,鹿児島県,かごしまけん,"か,ご,しま,けん",Kagoshima Ken,32.08333333,130.35
462101,指宿市,いぶすきし,"いぶ,すき,し",,Ibusuki Shi,鹿児島県,かごしまけん,"か,ご,しま,けん",Kagoshima Ken,31.25,130.6166667
462136,西之表市,にしのおもてし,"にし,の,おもて,し",,Nishinoomote Shi,鹿児島県,かごしまけん,"か,ご,しま,けん",Kagoshima Ken,30.71666667,130.9833333
462144,垂水市,たるみずし,"たる,みず,し",,Tarumizu Shi,鹿児島県,かごしまけん,"か,ご,しま,けん",Kagoshima Ken,31.48333333,130.7
462152,薩摩川内市,さつませんだいし,"さつ,ま,せん,だい,し",,Satsumasendai Shi,鹿児島県,かごしまけん,"か,ご,しま,けん",Kagoshima Ken,31.8,130.3
462161,日置市,ひおきし,"ひ,おき,し",,Hioki Shi,鹿児島県,かごしまけん,"か,ご,しま,けん",Kagoshima Ken,31.63333333,130.4
462179,曽於市,そおし,"そ,お,し",,Soo Shi,鹿児島県,かごしまけん,"か,ご,しま,けん",Kagoshima Ken,31.65,131.0166667
462187,霧島市,きりしまし,"きり,しま,し",,Kirishima Shi,鹿児島県,かごしまけん,"か,ご,しま,けん",Kagoshima Ken,31.73333333,130.75
462195,いちき串木野市,いちきくしきのし,"いちき,くし,き,の,し",,Ichikikushikino Shi,鹿児島県,かごしまけん,"か,ご,しま,けん",Kagoshima Ken,31.7,130.2666667
462209,南さつま市,みなみさつまし,"みなみ,さつま,し",,Minamisatsuma Shi,鹿児島県,かごしまけん,"か,ご,しま,けん",Kagoshima Ken,31.41666667,130.3166667
462217,志布志市,しぶしし,"し,ぶ,し,し",,Shibushi Shi,鹿児島県,かごしまけん,"か,ご,しま,けん",Kagoshima Ken,31.48333333,131.0333333
462225,奄美市,あまみし,"あま,み,し",,Amami Shi,鹿児島県,かごしまけん,"か,ご,しま,けん",Kagoshima Ken,28.36666667,129.4833333
462233,南九州市,みなみきゅうしゅうし,"みなみ,きゅう,しゅう,し",,Minamikyushu Shi,鹿児島県,かごしまけん,"か,ご,しま,けん",Kagoshima Ken,31.36666667,130.4333333
462241,伊佐市,いさし,"い,さ,し",,Isa Shi,鹿児島県,かごしまけん,"か,ご,しま,けん",Kagoshima Ken,32.05,130.6
462250,姶良市,あいらし,"あい,ら,し",,Aira Shi,鹿児島県,かごしまけん,"か,ご,しま,けん",Kagoshima Ken,31.71666667,130.6166667
463035,三島村,みしまむら,"み,しま,むら",,Mishima Mura,鹿児島県,かごしまけん,"か,ご,しま,けん",Kagoshima Ken,31.58333333,130.55
463043,十島村,としまむら,"と,しま,むら",,Toshima Mura,鹿児島県,かごしまけん,"か,ご,しま,けん",Kagoshima Ken,31.58333333,130.55
463922,さつま町,さつまちょう,"さつま,ちょう",,Satsuma Cho,鹿児島県,かごしまけん,"か,ご,しま,けん",Kagoshima Ken,31.9,130.45
464040,長島町,ながしまちょう,"なが,しま,ちょう",,Nagashima Cho,鹿児島県,かごしまけん,"か,ご,しま,けん",Kagoshima Ken,32.18333333,130.1666667
464520,湧水町,ゆうすいちょう,"ゆう,すい,ちょう",,Yusui Cho,鹿児島県,かごしまけん,"か,ご,しま,けん",Kagoshima Ken,31.95,130.7166667
464686,大崎町,おおさきちょう,"おお,さき,ちょう",,Osaki Cho,鹿児島県,かごしまけん,"か,ご,しま,けん",Kagoshima Ken,31.41666667,131
464821,東串良町,ひがしくしらちょう,"ひがし,くし,ら,ちょう",,Higashikushira Cho,鹿児島県,かごしまけん,"か,ご,しま,けん",Kagoshima Ken,31.38333333,130.9666667
464902,錦江町,きんこうちょう,"きん,こう,ちょう",,Kinko Cho,鹿児島県,かごしまけん,"か,ご,しま,けん",Kagoshima Ken,31.23333333,130.7833333
464911,南大隅町,みなみおおすみちょう,"みなみ,おお,すみ,ちょう",,Minamiosumi Cho,鹿児島県,かごしまけん,"か,ご,しま,けん",Kagoshima Ken,31.21666667,130.7666667
464929,肝付町,きもつきちょう,"きも,つき,ちょう",,Kimotsuki Cho,鹿児島県,かごしまけん,"か,ご,しま,けん",Kagoshima Ken,31.33333333,130.9333333
465011,中種子町,なかたねちょう,"なか,た,ね,ちょう",,Nakatane Cho,鹿児島県,かごしまけん,"か,ご,しま,けん",Kagoshima Ken,30.51666667,130.95
465020,南種子町,みなみたねちょう,"みなみ,た,ね,ちょう",,Minamitane Cho,鹿児島県,かごしまけん,"か,ご,しま,けん",Kagoshima Ken,30.4,130.9
465054,屋久島町,やくしまちょう,"や,く,しま,ちょう",,Yakushima Cho,鹿児島県,かごしまけん,"か,ご,しま,けん",Kagoshima Ken,30.36666667,130.65
465232,大和村,やまとそん,"やまと,そん",Irregular reading: 大和 (やまと) does not decompose to two separate kanji readings,Yamato Son,鹿児島県,かごしまけん,"か,ご,しま,けん",Kagoshima Ken,28.35,129.3833333
465241,宇検村,うけんそん,"う,けん,そん",,Uken Son,鹿児島県,かごしまけん,"か,ご,しま,けん",Kagoshima Ken,28.26666667,129.2833333
465259,瀬戸内町,せとうちちょう,"せ,と,うち,ちょう",,Setouchi Cho,鹿児島県,かごしまけん,"か,ご,しま,けん",Kagoshima Ken,28.13333333,129.3
465275,龍郷町,たつごうちょう,"たつ,ごう,ちょう",,Tatsugo Cho,鹿児島県,かごしまけん,"か,ご,しま,けん",Kagoshima Ken,28.4,129.5833333
465291,喜界町,きかいちょう,"き,かい,ちょう",,Kikai Cho,鹿児島県,かごしまけん,"か,ご,しま,けん",Kagoshima Ken,28.31666667,129.9333333
465305,徳之島町,とくのしまちょう,"とく,の,しま,ちょう",,Tokunoshima Cho,鹿児島県,かごしまけん,"か,ご,しま,けん",Kagoshima Ken,27.71666667,129.0166667
465313,天城町,あまぎちょう,"あま,ぎ,ちょう",,Amagi Cho,鹿児島県,かごしまけん,"か,ご,しま,けん",Kagoshima Ken,27.8,128.8833333
465321,伊仙町,いせんちょう,"い,せん,ちょう",,Isen Cho,鹿児島県,かごしまけん,"か,ご,しま,けん",Kagoshima Ken,27.66666667,128.9333333
465330,和泊町,わどまりちょう,"わ,どまり,ちょう",,Wadomari Cho,鹿児島県,かごしまけん,"か,ご,しま,けん",Kagoshima Ken,27.38333333,128.65
465348,知名町,ちなちょう,"ち,な,ちょう",,China Cho,鹿児島県,かごしまけん,"か,ご,しま,けん",Kagoshima Ken,27.33333333,128.5666667
465356,与論町,よろんちょう,"よ,ろん,ちょう",,Yoron Cho,鹿児島県,かごしまけん,"か,ご,しま,けん",Kagoshima Ken,27.03333333,128.4
472018,那覇市,なはし,"な,は,し",,Naha Shi,沖縄県,おきなわけん,"おき,なわ,けん",Okinawa Ken,26.2,127.6666667
472051,宜野湾市,ぎのわんし,"ぎ,の,わん,し",,Ginowan Shi,沖縄県,おきなわけん,"おき,なわ,けん",Okinawa Ken,26.26666667,127.7666667
472077,石垣市,いしがきし,"いし,がき,し",,Ishigaki Shi,沖縄県,おきなわけん,"おき,なわ,けん",Okinawa Ken,24.33333333,124.15
472085,浦添市,うらそえし,"うら,そえ,し",,Urasoe Shi,沖縄県,おきなわけん,"おき,なわ,けん",Okinawa Ken,26.23333333,127.7166667
472093,名護市,なごし,"な,ご,し",,Nago Shi,沖縄県,おきなわけん,"おき,なわ,けん",Okinawa Ken,26.58333333,127.9666667
472107,糸満市,いとまんし,"いと,まん,し",,Itoman Shi,沖縄県,おきなわけん,"おき,なわ,けん",Okinawa Ken,26.11666667,127.65
472115,沖縄市,おきなわし,"おき,なわ,し",,Okinawa Shi,沖縄県,おきなわけん,"おき,なわ,けん",Okinawa Ken,26.33333333,127.8
472123,豊見城市,とみぐすくし,"と,み,ぐすく,し",,Tomigusuku Shi,沖縄県,おきなわけん,"おき,なわ,けん",Okinawa Ken,26.15,127.6666667
472131,うるま市,うるまし,"うるま,し",,Uruma Shi,沖縄県,おきなわけん,"おき,なわ,けん",Okinawa Ken,26.36666667,127.85
472140,宮古島市,みやこじまし,"みや,こ,じま,し",,Miyakojima Shi,沖縄県,おきなわけん,"おき,なわ,けん",Okinawa Ken,24.8,125.2666667
472158,南城市,なんじょうし,"なん,じょう,し",,Nanjo Shi,沖縄県,おきなわけん,"おき,なわ,けん",Okinawa Ken,26.13333333,127.7666667
473014,国頭村,くにがみそん,"くに,がみ,そん",,Kunigami Son,沖縄県,おきなわけん,"おき,なわ,けん",Okinawa Ken,26.73333333,128.1666667
473022,大宜味村,おおぎみそん,"おお,ぎ,み,そん",,Ogimi Son,沖縄県,おきなわけん,"おき,なわ,けん",Okinawa Ken,26.7,128.1166667
473031,東村,ひがしそん,"ひがし,そん",,Higashison,沖縄県,おきなわけん,"おき,なわ,けん",Okinawa Ken,26.61666667,128.15
473065,今帰仁村,なきじんそん,"な,き,じん,そん",,Nakijin Son,沖縄県,おきなわけん,"おき,なわ,けん",Okinawa Ken,26.66666667,127.9666667
473081,本部町,もとぶちょう,"もと,ぶ,ちょう",,Motobu Cho,沖縄県,おきなわけん,"おき,なわ,けん",Okinawa Ken,26.65,127.8833333
473111,恩納村,おんなそん,"おん,な,そん",,Onna Son,沖縄県,おきなわけん,"おき,なわ,けん",Okinawa Ken,26.48333333,127.85
473138,宜野座村,ぎのざそん,"ぎ,の,ざ,そん",,Ginoza Son,沖縄県,おきなわけん,"おき,なわ,けん",Okinawa Ken,26.46666667,127.9666667
473146,金武町,きんちょう,"き,ん,ちょう",,Kin Cho,沖縄県,おきなわけん,"おき,なわ,けん",Okinawa Ken,26.45,127.9166667
473154,伊江村,いえそん,"い,え,そん",,Ie Son,沖縄県,おきなわけん,"おき,なわ,けん",Okinawa Ken,26.7,127.8
473243,読谷村,よみたんそん,"よみ,たん,そん",,Yomitan Son,沖縄県,おきなわけん,"おき,なわ,けん",Okinawa Ken,26.38333333,127.7333333
473251,嘉手納町,かでなちょう,"か,で,な,ちょう",,Kadena Cho,沖縄県,おきなわけん,"おき,なわ,けん",Okinawa Ken,26.35,127.75
473260,北谷町,ちゃたんちょう,"ちゃ,たん,ちょう",,Chatan Cho,沖縄県,おきなわけん,"おき,なわ,けん",Okinawa Ken,26.31666667,127.75
473278,北中城村,きたなかぐすくそん,"きた,なか,ぐすく,そん",,Kitanakagusuku Son,沖縄県,おきなわけん,"おき,なわ,けん",Okinawa Ken,26.3,127.7833333
473286,中城村,なかぐすくそん,"なか,ぐすく,そん",,Nakagusuku Son,沖縄県,おきなわけん,"おき,なわ,けん",Okinawa Ken,26.26666667,127.7833333
473294,西原町,にしはらちょう,"にし,はら,ちょう",,Nishihara Cho,沖縄県,おきなわけん,"おき,なわ,けん",Okinawa Ken,26.21666667,127.75
473481,与那原町,よなばるちょう,"よ,な,ばる,ちょう",,Yonabaru Cho,沖縄県,おきなわけん,"おき,なわ,けん",Okinawa Ken,26.18333333,127.75
473502,南風原町,はえばるちょう,"は,え,ばる,ちょう",,Haebaru Cho,沖縄県,おきなわけん,"おき,なわ,けん",Okinawa Ken,26.18333333,127.7166667
473537,渡嘉敷村,とかしきそん,"と,か,しき,そん",,Tokashiki Son,沖縄県,おきなわけん,"おき,なわ,けん",Okinawa Ken,26.18333333,127.35
473545,座間味村,ざまみそん,"ざ,ま,み,そん",,Zamami Son,沖縄県,おきなわけん,"おき,なわ,けん",Okinawa Ken,26.21666667,127.3
473553,粟国村,あぐにそん,"あ,ぐに,そん",,Aguni Son,沖縄県,おきなわけん,"おき,なわ,けん",Okinawa Ken,26.56666667,127.2166667
473561,渡名喜村,となきそん,"と,な,き,そん",,Tonaki Son,沖縄県,おきなわけん,"おき,なわ,けん",Okinawa Ken,26.36666667,127.1333333
473570,南大東村,みなみだいとうそん,"みなみ,だい,とう,そん",,Minamidaito Son,沖縄県,おきなわけん,"おき,なわ,けん",Okinawa Ken,25.81666667,131.2166667
473588,北大東村,きただいとうそん,"きた,だい,とう,そん",,Kitadaito Son,沖縄県,おきなわけん,"おき,なわ,けん",Okinawa Ken,25.93333333,131.2833333
473596,伊平屋村,いへやそん,"い,へ,や,そん",,Iheya Son,沖縄県,おきなわけん,"おき,なわ,けん",Okinawa Ken,27.03333333,127.9666667
473600,伊是名村,いぜなそん,"い,ぜ,な,そん",,Izena Son,沖縄県,おきなわけん,"おき,なわ,けん",Okinawa Ken,26.91666667,127.9333333
473618,久米島町,くめじまちょう,"く,め,じま,ちょう",,Kumejima Cho,沖縄県,おきなわけん,"おき,なわ,けん",Okinawa Ken,26.33333333,126.8
473626,八重瀬町,やえせちょう,"や,え,せ,ちょう",,Yaese Cho,沖縄県,おきなわけん,"おき,なわ,けん",Okinawa Ken,26.11666667,127.7333333
473758,多良間村,たらまそん,"た,ら,ま,そん",,Tarama Son,沖縄県,おきなわけん,"おき,なわ,けん",Okinawa Ken,24.66666667,124.7
473812,竹富町,たけとみちょう,"たけ,とみ,ちょう",,Taketomi Cho,沖縄県,おきなわけん,"おき,なわ,けん",Okinawa Ken,24.33333333,124.15
473821,与那国町,よなぐにちょう,"よ,な,ぐに,ちょう",,Yonaguni Cho,沖縄県,おきなわけん,"おき,なわ,けん",Okinawa Ken,24.46666667,123